ASN,Org,Prefix,Center_IP,PTR_Hostname,Status,Country,Region,City,Latitude,Longitude,Message
4780,SEEDNet,23.36.112.0/22,23.36.114.0,a23-36-114-0.deploy.static.akamaitechnologies.com,success,Taiwan,Taiwan,Taipei,25.033,121.565,
4780,SEEDNet,42.0.64.0/18,42.0.96.0,,success,Taiwan,Kaohsiung,Kaohsiung,22.6148,120.3139,
4780,SEEDNet,49.213.170.0/24,49.213.170.128,128-170-213-49.tinp.net.tw,success,Taiwan,Changhua,Yuanlin,23.9579,120.5747,
4780,SEEDNet,49.213.175.0/24,49.213.175.128,128-175-213-49.tinp.net.tw,success,Taiwan,Taiwan,Taichung,24.1047,120.681,
4780,SEEDNet,49.213.187.0/24,49.213.187.128,128-187-213-49.tinp.net.tw,success,Taiwan,Taiwan,Taichung,24.1047,120.681,
4780,SEEDNet,49.213.226.0/24,49.213.226.128,128-226-213-49.tinp.net.tw,success,Taiwan,Taichung City,Taichung,24.144,120.6844,
4780,SEEDNet,59.104.0.0/15,59.105.0.0,59-105-0-0.adsl.dynamic.seed.net.tw,success,Taiwan,Taichung City,Taichung,24.144,120.6844,
4780,SEEDNet,59.104.0.0/16,59.104.128.0,,success,Taiwan,New Taipei City,New Taipei City,25.0693,121.4626,
4780,SEEDNet,59.104.0.0/17,59.104.64.0,,success,Taiwan,Taiwan,Neihu District,25.0689,121.591,
4780,SEEDNet,59.104.0.0/18,59.104.32.0,,success,Taiwan,Taiwan,Taipei,25.0423,121.567,
4780,SEEDNet,59.104.0.0/19,59.104.16.0,,success,Taiwan,Taiwan,Taoyuan,25.0797,121.234,
4780,SEEDNet,59.104.32.0/24,59.104.32.128,59-104-32-128.adsl.dynamic.seed.net.tw,success,Taiwan,Taiwan,Taipei,25.0423,121.567,
4780,SEEDNet,59.104.32.0/19,59.104.48.0,,success,Taiwan,Taiwan,Neihu District,25.0689,121.591,
4780,SEEDNet,59.104.64.0/18,59.104.96.0,,success,Taiwan,Taiwan,Neihu District,25.0689,121.591,
4780,SEEDNet,59.104.64.0/19,59.104.80.0,,success,Taiwan,New Taipei City,Banqiao,25.0104,121.4684,
4780,SEEDNet,59.104.96.0/19,59.104.112.0,,success,Taiwan,Taiwan,Neihu District,25.0689,121.591,
4780,SEEDNet,59.104.128.0/18,59.104.160.0,,success,Taiwan,New Taipei City,New Taipei City,25.0693,121.4626,
4780,SEEDNet,59.104.128.0/19,59.104.144.0,,success,Taiwan,New Taipei City,New Taipei City,25.0693,121.4626,
4780,SEEDNet,59.104.128.0/17,59.104.192.0,,success,Taiwan,Taiwan,Neihu District,25.0689,121.591,
4780,SEEDNet,59.104.160.0/19,59.104.176.0,,success,Taiwan,New Taipei City,New Taipei City,25.0693,121.4626,
4780,SEEDNet,59.104.192.0/18,59.104.224.0,,success,Taiwan,Taiwan,Neihu District,25.0689,121.591,
4780,SEEDNet,59.104.192.0/19,59.104.208.0,,success,Taiwan,Taiwan,Taipei,25.0423,121.567,
4780,SEEDNet,59.104.224.0/19,59.104.240.0,,success,Taiwan,Taiwan,Neihu District,25.0689,121.591,
4780,SEEDNet,59.105.0.0/16,59.105.128.0,59-105-128-0.static.seed.net.tw,success,Taiwan,Taiwan,Neihu District,25.0689,121.591,
4780,SEEDNet,59.105.0.0/19,59.105.16.0,59-105-16-0.adsl.dynamic.seed.net.tw,success,Taiwan,Taichung City,Taichung,24.144,120.6844,
4780,SEEDNet,59.105.0.0/17,59.105.64.0,59-105-64-0.adsl.dynamic.seed.net.tw,success,Taiwan,Taichung City,Taichung,24.144,120.6844,
4780,SEEDNet,59.105.0.0/18,59.105.32.0,59-105-32-0.adsl.dynamic.seed.net.tw,success,Taiwan,Taichung City,Taichung,24.144,120.6844,
4780,SEEDNet,59.105.6.0/24,59.105.6.128,59-105-6-128.adsl.dynamic.seed.net.tw,success,Taiwan,Taichung City,Taichung,24.144,120.6844,
4780,SEEDNet,59.105.32.0/19,59.105.48.0,59-105-48-0.adsl.dynamic.seed.net.tw,success,Taiwan,Taichung City,Taichung,24.144,120.6844,
4780,SEEDNet,59.105.64.0/18,59.105.96.0,59-105-96-0.adsl.dynamic.seed.net.tw,success,Taiwan,Taichung City,Taichung,24.144,120.6844,
4780,SEEDNet,59.105.64.0/19,59.105.80.0,59-105-80-0.adsl.dynamic.seed.net.tw,success,Taiwan,Taichung City,Taichung,24.144,120.6844,
4780,SEEDNet,59.105.96.0/19,59.105.112.0,59-105-112-0.adsl.dynamic.seed.net.tw,success,Taiwan,Taichung City,Taichung,24.144,120.6844,
4780,SEEDNet,59.105.128.0/18,59.105.160.0,59-105-160-0.static.seed.net.tw,success,Taiwan,Taiwan,Neihu District,25.0689,121.591,
4780,SEEDNet,59.105.128.0/19,59.105.144.0,59-105-144-0.static.seed.net.tw,success,Taiwan,Taiwan,Neihu District,25.0689,121.591,
4780,SEEDNet,59.105.128.0/17,59.105.192.0,59-105-192-0.static.seed.net.tw,success,Taiwan,Taiwan,Neihu District,25.0689,121.591,
4780,SEEDNet,59.105.160.0/19,59.105.176.0,59-105-176-0.static.seed.net.tw,success,Taiwan,Taiwan,Neihu District,25.0689,121.591,
4780,SEEDNet,59.105.192.0/19,59.105.208.0,59-105-208-0.static.seed.net.tw,success,Taiwan,Taiwan,Neihu District,25.0689,121.591,
4780,SEEDNet,59.105.192.0/18,59.105.224.0,59-105-224-0.static.seed.net.tw,success,Taiwan,Taiwan,Taipei,25.0423,121.567,
4780,SEEDNet,59.105.224.0/19,59.105.240.0,59-105-240-0.adsl.static.seed.net.tw,success,Taiwan,Taiwan,Neihu District,25.0689,121.591,
4780,SEEDNet,61.56.200.0/24,61.56.200.128,tpegapd.wanhai.com,success,Taiwan,Taiwan,Neihu District,25.0689,121.591,
4780,SEEDNet,61.56.245.0/24,61.56.245.128,adsl-61-56-245-128.cj.sparqnet.net,success,Taiwan,Taiwan,Neihu District,25.0689,121.591,
4780,SEEDNet,61.56.249.0/24,61.56.249.128,adsl-61-56-249-128.khon.sparqnet.net,success,Taiwan,Taiwan,Neihu District,25.0689,121.591,
4780,SEEDNet,61.57.208.0/20,61.57.216.0,,success,Taiwan,Taiwan,Taipei,25.0501,121.565,
4780,SEEDNet,61.58.16.0/20,61.58.24.0,,success,Taiwan,Taiwan,Taibao,23.4518,120.255,
4780,SEEDNet,61.58.48.0/20,61.58.56.0,,success,Taiwan,Chiayi,Chiayi City,23.4815,120.4498,
4780,SEEDNet,61.58.156.0/24,61.58.156.128,128-156-58-61.tinp.net.tw,success,Taiwan,Taiwan,Taichung,24.1047,120.681,
4780,SEEDNet,61.58.157.0/24,61.58.157.128,128-157-58-61.tinp.net.tw,success,Taiwan,Taiwan,Taichung,24.1047,120.681,
4780,SEEDNet,61.58.159.0/24,61.58.159.128,128-159-58-61.tinp.net.tw,success,Taiwan,Taiwan,Taichung,24.1047,120.681,
4780,SEEDNet,61.59.0.0/17,61.59.64.0,61-59-64-0.static.seed.net.tw,success,Taiwan,Taiwan,Taipei,25.0423,121.567,
4780,SEEDNet,61.59.0.0/18,61.59.32.0,h0-61-59-32.seed.net.tw,success,Taiwan,Taiwan,Taipei,25.0501,121.565,
4780,SEEDNet,61.59.0.0/19,61.59.16.0,h0-61-59-16.seed.net.tw,success,Taiwan,New Taipei City,Shulin District,24.9876,121.4266,
4780,SEEDNet,61.59.0.0/16,61.59.128.0,61-59-128-0.static.seed.net.tw,success,Taiwan,Taiwan,Taipei,25.0423,121.567,
4780,SEEDNet,61.59.6.0/24,61.59.6.128,h128-61-59-6.seed.net.tw,success,Taiwan,New Taipei City,Shulin District,24.9876,121.4266,
4780,SEEDNet,61.59.12.0/24,61.59.12.128,sw59-12-128.adsl.dynamic.seed.net.tw,success,Taiwan,New Taipei City,Shulin District,24.9876,121.4266,
4780,SEEDNet,61.59.32.0/19,61.59.48.0,61-59-48-0.static.seed.net.tw,success,Taiwan,Taiwan,Taipei,25.0423,121.567,
4780,SEEDNet,61.59.36.0/24,61.59.36.128,h128-61-59-36.seed.net.tw,success,Taiwan,Taiwan,Taipei,25.0501,121.565,
4780,SEEDNet,61.59.37.0/24,61.59.37.128,h128-61-59-37.seed.net.tw,success,Taiwan,Taiwan,Taipei,25.0501,121.565,
4780,SEEDNet,61.59.64.0/19,61.59.80.0,h0-61-59-80.inpaq.com.tw,success,Taiwan,Taiwan,Taipei,25.0501,121.565,
4780,SEEDNet,61.59.64.0/18,61.59.96.0,61-59-96-0.static.seed.net.tw,success,Taiwan,Taiwan,Taipei,25.0423,121.567,
4780,SEEDNet,61.59.81.0/24,61.59.81.128,h128-61-59-81.seed.net.tw,success,Taiwan,Taiwan,Taipei,25.0501,121.565,
4780,SEEDNet,61.59.96.0/19,61.59.112.0,h0-61-59-112.seed.net.tw,success,Taiwan,Taiwan,Taipei,25.0501,121.565,
4780,SEEDNet,61.59.97.0/24,61.59.97.128,h128-61-59-97.seed.net.tw,success,Taiwan,Taiwan,Taipei,25.0501,121.565,
4780,SEEDNet,61.59.101.0/24,61.59.101.128,h128-61-59-101.seed.net.tw,success,Taiwan,Taiwan,Taipei,25.0501,121.565,
4780,SEEDNet,61.59.104.0/24,61.59.104.128,h128-61-59-104.seed.net.tw,success,Taiwan,Taiwan,Taipei,25.0501,121.565,
4780,SEEDNet,61.59.126.0/24,61.59.126.128,h128-61-59-126.seed.net.tw,success,Taiwan,Taiwan,Taipei,25.0501,121.565,
4780,SEEDNet,61.59.128.0/19,61.59.144.0,sw59-144-0.adsl.dynamic.seed.net.tw,success,Taiwan,Taiwan,Taipei,25.0423,121.567,
4780,SEEDNet,61.59.128.0/18,61.59.160.0,61-59-160-0.static.seed.net.tw,success,Taiwan,Taiwan,Taipei,25.0423,121.567,
4780,SEEDNet,61.59.128.0/17,61.59.192.0,61-59-192-0.static.seed.net.tw,success,Taiwan,Taiwan,Taipei,25.0423,121.567,
4780,SEEDNet,61.59.160.0/19,61.59.176.0,61-59-176-0.static.seed.net.tw,success,Taiwan,Taiwan,Taipei,25.0423,121.567,
4780,SEEDNet,61.59.192.0/19,61.59.208.0,61-59-208-0.static.seed.net.tw,success,Taiwan,Taiwan,Taipei,25.0423,121.567,
4780,SEEDNet,61.59.192.0/18,61.59.224.0,sw59-224-0.adsl.dynamic.seed.net.tw,success,Taiwan,Taiwan,Taipei,25.0423,121.567,
4780,SEEDNet,61.59.224.0/19,61.59.240.0,61-59-240-0.static.seed.net.tw,success,Taiwan,Taiwan,Taipei,25.0423,121.567,
4780,SEEDNet,61.61.156.0/22,61.61.158.0,,success,Taiwan,New Taipei City,New Taipei City,25.0693,121.4626,
4780,SEEDNet,61.61.156.0/24,61.61.156.128,,success,Taiwan,New Taipei City,New Taipei City,25.0693,121.4626,
4780,SEEDNet,61.61.157.0/24,61.61.157.128,,success,Taiwan,New Taipei City,New Taipei City,25.0693,121.4626,
4780,SEEDNet,61.61.158.0/24,61.61.158.128,,success,Taiwan,New Taipei City,New Taipei City,25.0693,121.4626,
4780,SEEDNet,61.61.159.0/24,61.61.159.128,,success,Taiwan,New Taipei City,New Taipei City,25.0693,121.4626,
4780,SEEDNet,61.66.52.0/24,61.66.52.128,adsl-61-66-52-128.kh.sparqnet.net,success,Taiwan,Taiwan,Taipei,25.033,121.565,
4780,SEEDNet,61.66.53.0/24,61.66.53.128,adsl-61-66-53-128.kh.sparqnet.net,success,Taiwan,Taiwan,Taipei,25.033,121.565,
4780,SEEDNet,61.66.54.0/24,61.66.54.128,adsl-61-66-54-128.tc.sparqnet.net,success,Taiwan,Taiwan,Taipei,25.033,121.565,
4780,SEEDNet,61.66.55.0/24,61.66.55.128,adsl-61-66-55-128.kh.sparqnet.net,success,Taiwan,Taiwan,Taipei,25.033,121.565,
4780,SEEDNet,61.66.56.0/24,61.66.56.128,adsl-61-66-56-128.khon.sparqnet.net,success,Taiwan,Taiwan,Taipei,25.033,121.565,
4780,SEEDNet,61.66.58.0/24,61.66.58.128,adsl-61-66-58-128.kh.sparqnet.net,success,Taiwan,Taiwan,Taipei,25.033,121.565,
4780,SEEDNet,61.66.60.0/24,61.66.60.128,adsl-61-66-60-128.kh.sparqnet.net,success,Taiwan,Taiwan,Taipei,25.033,121.565,
4780,SEEDNet,61.66.68.0/24,61.66.68.128,adsl-61-66-68-128.kh.sparqnet.net,success,Taiwan,Taiwan,Taipei,25.033,121.565,
4780,SEEDNet,61.66.69.0/24,61.66.69.128,adsl-61-66-69-128.kh.sparqnet.net,success,Taiwan,Taiwan,Taipei,25.033,121.565,
4780,SEEDNet,61.66.71.0/24,61.66.71.128,adsl-61-66-71-128.kh.sparqnet.net,success,Taiwan,Taiwan,Taipei,25.033,121.565,
4780,SEEDNet,61.66.80.0/24,61.66.80.128,adsl-61-66-80-128.nh.sparqnet.net,success,Taiwan,Taiwan,Taipei,25.033,121.565,
4780,SEEDNet,61.66.81.0/24,61.66.81.128,adsl-61-66-81-128.nh.sparqnet.net,success,Taiwan,Taiwan,Taipei,25.033,121.565,
4780,SEEDNet,61.66.92.0/24,61.66.92.128,adsl-61-66-92-128.kh.sparqnet.net,success,Taiwan,Taiwan,Taipei,25.033,121.565,
4780,SEEDNet,61.66.93.0/24,61.66.93.128,adsl-61-66-93-128.kh.sparqnet.net,success,Taiwan,Taiwan,Taipei,25.033,121.565,
4780,SEEDNet,61.66.94.0/24,61.66.94.128,adsl-61-66-94-128.kh.sparqnet.net,success,Taiwan,Taiwan,Taipei,25.033,121.565,
4780,SEEDNet,61.66.95.0/24,61.66.95.128,adsl-61-66-95-128.kh.sparqnet.net,success,Taiwan,Taiwan,Taipei,25.033,121.565,
4780,SEEDNet,61.66.106.0/24,61.66.106.128,,success,Taiwan,Taiwan,Fengyuan,24.2448,120.746,
4780,SEEDNet,61.66.110.0/24,61.66.110.128,,success,Taiwan,Taiwan,Taipei,25.0501,121.565,
4780,SEEDNet,61.66.111.0/24,61.66.111.128,,success,Taiwan,Taiwan,Taipei,25.0501,121.565,
4780,SEEDNet,61.66.161.0/24,61.66.161.128,adsl-61-66-161-128.kh.sparqnet.net,success,Taiwan,Taiwan,Taipei,25.033,121.565,
4780,SEEDNet,61.66.180.0/24,61.66.180.128,adsl-61-66-180-128.kh.sparqnet.net,success,Taiwan,Taiwan,Taipei,25.033,121.565,
4780,SEEDNet,61.66.183.0/24,61.66.183.128,adsl-61-66-183-128.kh.sparqnet.net,success,Taiwan,Taiwan,Taipei,25.033,121.565,
4780,SEEDNet,101.0.232.0/21,101.0.236.0,101-0-236-0.chuan-chan.com.tw,success,Taiwan,New Taipei City,Banqiao,25.0104,121.4684,
4780,SEEDNet,101.0.232.0/22,101.0.234.0,101-0-234-0.chuan-chan.com.tw,success,Taiwan,New Taipei City,New Taipei City,25.0693,121.4626,
4780,SEEDNet,101.0.240.0/20,101.0.248.0,101-0-248-0.chuan-chan.com.tw,success,Taiwan,Taiwan,Neihu District,25.0689,121.591,
4780,SEEDNet,103.25.232.0/22,103.25.234.0,,success,Taiwan,Taiwan,Neihu District,25.0689,121.591,
4780,SEEDNet,104.123.220.0/22,104.123.222.0,a104-123-222-0.deploy.static.akamaitechnologies.com,success,Taiwan,Taiwan,Taipei,25.033,121.565,
4780,SEEDNet,106.104.0.0/18,106.104.32.0,106-104-32-0.adsl.static.seed.net.tw,success,Taiwan,Tainan,Tainan City,22.9917,120.2148,
4780,SEEDNet,106.104.0.0/16,106.104.128.0,106-104-128-0.adsl.static.seed.net.tw,success,Taiwan,Taipei City,Taipei,25.053,121.5259,
4780,SEEDNet,106.104.0.0/19,106.104.16.0,106-104-16-0.adsl.dynamic.seed.net.tw,success,Taiwan,Taipei City,Taipei,25.053,121.5259,
4780,SEEDNet,106.104.4.0/24,106.104.4.128,106-104-4-128.adsl.dynamic.seed.net.tw,success,Taiwan,Taipei City,Taipei,25.053,121.5259,
4780,SEEDNet,106.104.5.0/24,106.104.5.128,106-104-5-128.adsl.dynamic.seed.net.tw,success,Taiwan,Taipei City,Taipei,25.053,121.5259,
4780,SEEDNet,106.104.10.0/24,106.104.10.128,106-104-10-128.adsl.dynamic.seed.net.tw,success,Taiwan,Taipei City,Taipei,25.053,121.5259,
4780,SEEDNet,106.104.14.0/24,106.104.14.128,106-104-14-128.adsl.dynamic.seed.net.tw,success,Taiwan,Taipei City,Taipei,25.053,121.5259,
4780,SEEDNet,106.104.30.0/24,106.104.30.128,106-104-30-128.adsl.dynamic.seed.net.tw,success,Taiwan,Taipei City,Taipei,25.053,121.5259,
4780,SEEDNet,106.104.32.0/19,106.104.48.0,106-104-48-0.adsl.static.seed.net.tw,success,Taiwan,Taiwan,Taipei,25.0423,121.567,
4780,SEEDNet,106.104.33.0/24,106.104.33.128,106-104-33-128.adsl.static.seed.net.tw,success,Taiwan,Tainan,Tainan City,22.9917,120.2148,
4780,SEEDNet,106.104.64.0/18,106.104.96.0,106-104-96-0.adsl.static.seed.net.tw,success,Taiwan,Tainan,Tainan City,22.9917,120.2148,
4780,SEEDNet,106.104.64.0/19,106.104.80.0,106-104-80-0.adsl.static.seed.net.tw,success,Taiwan,Taoyuan,Taoyuan,24.9977,121.2965,
4780,SEEDNet,106.104.69.0/24,106.104.69.128,106-104-69-128.adsl.static.seed.net.tw,success,Taiwan,New Taipei City,New Taipei City,25.0693,121.4626,
4780,SEEDNet,106.104.70.0/24,106.104.70.128,106-104-70-128.adsl.static.seed.net.tw,success,Taiwan,New Taipei City,New Taipei City,25.0693,121.4626,
4780,SEEDNet,106.104.73.0/24,106.104.73.128,106-104-73-128.adsl.static.seed.net.tw,success,Taiwan,Taipei City,Taipei,25.053,121.5259,
4780,SEEDNet,106.104.75.0/24,106.104.75.128,106-104-75-128.adsl.static.seed.net.tw,success,Taiwan,Taipei City,Taipei,25.053,121.5259,
4780,SEEDNet,106.104.78.0/24,106.104.78.128,106-104-78-128.adsl.static.seed.net.tw,success,Taiwan,Hsinchu City,Hsinchu,24.8065,120.9706,
4780,SEEDNet,106.104.85.0/24,106.104.85.128,106-104-85-128.adsl.static.seed.net.tw,success,Taiwan,Taoyuan,Taoyuan,24.9977,121.2965,
4780,SEEDNet,106.104.86.0/24,106.104.86.128,106-104-86-128.adsl.static.seed.net.tw,success,Taiwan,Taoyuan,Taoyuan,24.9977,121.2965,
4780,SEEDNet,106.104.88.0/24,106.104.88.128,106-104-88-128.adsl.static.seed.net.tw,success,Taiwan,Taoyuan,Taoyuan,24.9977,121.2965,
4780,SEEDNet,106.104.96.0/19,106.104.112.0,106-104-112-0.adsl.static.seed.net.tw,success,Taiwan,Taipei City,Taipei,25.053,121.5259,
4780,SEEDNet,106.104.98.0/24,106.104.98.128,106-104-98-128.adsl.static.seed.net.tw,success,Taiwan,Tainan,Tainan City,22.9917,120.2148,
4780,SEEDNet,106.104.99.0/24,106.104.99.128,106-104-99-128.adsl.static.seed.net.tw,success,Taiwan,Tainan,Tainan City,22.9917,120.2148,
4780,SEEDNet,106.104.100.0/24,106.104.100.128,106-104-100-128.adsl.static.seed.net.tw,success,Taiwan,Tainan,Tainan City,22.9917,120.2148,
4780,SEEDNet,106.104.105.0/24,106.104.105.128,106-104-105-128.adsl.static.seed.net.tw,success,Taiwan,Taipei City,Taipei,25.053,121.5259,
4780,SEEDNet,106.104.108.0/24,106.104.108.128,106-104-108-128.adsl.static.seed.net.tw,success,Taiwan,Taipei City,Taipei,25.053,121.5259,
4780,SEEDNet,106.104.113.0/24,106.104.113.128,106-104-113-128.adsl.static.seed.net.tw,success,Taiwan,Taipei City,Taipei,25.053,121.5259,
4780,SEEDNet,106.104.115.0/24,106.104.115.128,106-104-115-128.adsl.static.seed.net.tw,success,Taiwan,Taipei City,Taipei,25.053,121.5259,
4780,SEEDNet,106.104.116.0/24,106.104.116.128,106-104-116-128.adsl.static.seed.net.tw,success,Taiwan,Taipei City,Taipei,25.053,121.5259,
4780,SEEDNet,106.104.117.0/24,106.104.117.128,106-104-117-128.adsl.static.seed.net.tw,success,Taiwan,Taipei City,Taipei,25.053,121.5259,
4780,SEEDNet,106.104.119.0/24,106.104.119.128,106-104-119-128.adsl.static.seed.net.tw,success,Taiwan,Taipei City,Taipei,25.053,121.5259,
4780,SEEDNet,106.104.121.0/24,106.104.121.128,106-104-121-128.adsl.static.seed.net.tw,success,Taiwan,Taipei City,Taipei,25.053,121.5259,
4780,SEEDNet,106.104.122.0/24,106.104.122.128,106-104-122-128.adsl.static.seed.net.tw,success,Taiwan,Taipei City,Taipei,25.053,121.5259,
4780,SEEDNet,106.104.124.0/24,106.104.124.128,106-104-124-128.adsl.static.seed.net.tw,success,Taiwan,Taipei City,Taipei,25.053,121.5259,
4780,SEEDNet,106.104.126.0/24,106.104.126.128,106-104-126-128.adsl.static.seed.net.tw,success,Taiwan,Taipei City,Taipei,25.053,121.5259,
4780,SEEDNet,106.104.128.0/18,106.104.160.0,106-104-160-0.adsl.static.seed.net.tw,success,Taiwan,Kaohsiung,Fongshan District,22.6266,120.361,
4780,SEEDNet,106.104.128.0/24,106.104.128.128,106-104-128-128.adsl.static.seed.net.tw,success,Taiwan,Taipei City,Taipei,25.053,121.5259,
4780,SEEDNet,106.104.128.0/19,106.104.144.0,106-104-144-0.adsl.static.seed.net.tw,success,Taiwan,Taipei City,Taipei,25.053,121.5259,
4780,SEEDNet,106.104.131.0/24,106.104.131.128,106-104-131-128.adsl.static.seed.net.tw,success,Taiwan,Taipei City,Taipei,25.053,121.5259,
4780,SEEDNet,106.104.132.0/24,106.104.132.128,106-104-132-128.adsl.static.seed.net.tw,success,Taiwan,Taipei City,Taipei,25.053,121.5259,
4780,SEEDNet,106.104.136.0/24,106.104.136.128,106-104-136-128.adsl.static.seed.net.tw,success,Taiwan,Taipei City,Taipei,25.053,121.5259,
4780,SEEDNet,106.104.138.0/24,106.104.138.128,106-104-138-128.adsl.static.seed.net.tw,success,Taiwan,Taipei City,Taipei,25.053,121.5259,
4780,SEEDNet,106.104.139.0/24,106.104.139.128,106-104-139-128.adsl.static.seed.net.tw,success,Taiwan,Taipei City,Taipei,25.053,121.5259,
4780,SEEDNet,106.104.148.0/24,106.104.148.128,106-104-148-128.adsl.static.seed.net.tw,success,Taiwan,Taipei City,Taipei,25.053,121.5259,
4780,SEEDNet,106.104.160.0/19,106.104.176.0,106-104-176-0.adsl.static.seed.net.tw,success,Taiwan,Taichung City,Taichung,24.144,120.6844,
4780,SEEDNet,106.104.160.0/24,106.104.160.128,106-104-160-128.adsl.static.seed.net.tw,success,Taiwan,Kaohsiung,Fongshan District,22.6266,120.361,
4780,SEEDNet,106.104.161.0/24,106.104.161.128,106-104-161-128.adsl.static.seed.net.tw,success,Taiwan,Taiwan,Taipei,25.0423,121.567,
4780,SEEDNet,106.104.162.0/24,106.104.162.128,106-104-162-128.adsl.static.seed.net.tw,success,Taiwan,Taiwan,Taipei,25.0423,121.567,
4780,SEEDNet,106.104.163.0/24,106.104.163.128,106-104-163-128.adsl.static.seed.net.tw,success,Taiwan,Taiwan,Taipei,25.0423,121.567,
4780,SEEDNet,106.104.164.0/24,106.104.164.128,106-104-164-128.adsl.static.seed.net.tw,success,Taiwan,Taipei City,Taipei,25.053,121.5259,
4780,SEEDNet,106.104.166.0/24,106.104.166.128,106-104-166-128.adsl.static.seed.net.tw,success,Taiwan,Taipei City,Taipei,25.053,121.5259,
4780,SEEDNet,106.104.167.0/24,106.104.167.128,106-104-167-128.adsl.static.seed.net.tw,success,Taiwan,Taipei City,Taipei,25.053,121.5259,
4780,SEEDNet,106.104.168.0/24,106.104.168.128,106-104-168-128.adsl.static.seed.net.tw,success,Taiwan,Taiwan,Taipei,25.0423,121.567,
4780,SEEDNet,106.104.169.0/24,106.104.169.128,106-104-169-128.adsl.static.seed.net.tw,success,Taiwan,Taiwan,Taipei,25.0423,121.567,
4780,SEEDNet,106.104.170.0/24,106.104.170.128,106-104-170-128.adsl.static.seed.net.tw,success,Taiwan,Taiwan,Taipei,25.0423,121.567,
4780,SEEDNet,106.104.174.0/24,106.104.174.128,106-104-174-128.adsl.static.seed.net.tw,success,Taiwan,Taiwan,Taipei,25.0423,121.567,
4780,SEEDNet,106.104.175.0/24,106.104.175.128,106-104-175-128.adsl.static.seed.net.tw,success,Taiwan,Taiwan,Taipei,25.0423,121.567,
4780,SEEDNet,106.104.176.0/24,106.104.176.128,106-104-176-128.adsl.static.seed.net.tw,success,Taiwan,Taichung City,Taichung,24.144,120.6844,
4780,SEEDNet,106.104.177.0/24,106.104.177.128,106-104-177-128.adsl.static.seed.net.tw,success,Taiwan,Taichung City,Taichung,24.144,120.6844,
4780,SEEDNet,106.104.179.0/24,106.104.179.128,106-104-179-128.adsl.static.seed.net.tw,success,Taiwan,Taichung City,Taichung,24.144,120.6844,
4780,SEEDNet,106.104.192.0/19,106.104.208.0,106-104-208-0.adsl.static.seed.net.tw,success,Taiwan,Taiwan,Taipei,25.0501,121.565,
4780,SEEDNet,106.104.192.0/18,106.104.224.0,106-104-224-0.adsl.static.seed.net.tw,success,Taiwan,Taichung City,Taichung,24.144,120.6844,
4780,SEEDNet,106.104.192.0/24,106.104.192.128,106-104-192-128.adsl.static.seed.net.tw,success,Taiwan,Taiwan,Taipei,25.0501,121.565,
4780,SEEDNet,106.104.193.0/24,106.104.193.128,106-104-193-128.adsl.static.seed.net.tw,success,Taiwan,Taiwan,Taipei,25.0501,121.565,
4780,SEEDNet,106.104.194.0/24,106.104.194.128,106-104-194-128.adsl.static.seed.net.tw,success,Taiwan,Taiwan,Taipei,25.0501,121.565,
4780,SEEDNet,106.104.224.0/19,106.104.240.0,106-104-240-0.adsl.static.seed.net.tw,success,Taiwan,Taiwan,Taipei,25.0501,121.565,
4780,SEEDNet,106.105.16.0/21,106.105.20.0,106.105.20.0.adsl.dynamic.seed.net.tw,success,Taiwan,Chiayi,Chiayi City,23.4815,120.4498,
4780,SEEDNet,106.105.17.0/24,106.105.17.128,106.105.17.128.adsl.dynamic.seed.net.tw,success,Taiwan,Chiayi,Chiayi City,23.4815,120.4498,
4780,SEEDNet,106.105.18.0/24,106.105.18.128,106.105.18.128.adsl.dynamic.seed.net.tw,success,Taiwan,Chiayi,Chiayi City,23.4815,120.4498,
4780,SEEDNet,106.105.19.0/24,106.105.19.128,106.105.19.128.adsl.dynamic.seed.net.tw,success,Taiwan,Chiayi,Chiayi City,23.4815,120.4498,
4780,SEEDNet,106.105.32.0/24,106.105.32.128,106.105.32.128.adsl.dynamic.seed.net.tw,success,Taiwan,Changhua,Chang-hua,24.0761,120.5648,
4780,SEEDNet,106.105.34.0/24,106.105.34.128,106.105.34.128.adsl.dynamic.seed.net.tw,success,Taiwan,Changhua,Chang-hua,24.0761,120.5648,
4780,SEEDNet,106.105.35.0/24,106.105.35.128,106.105.35.128.adsl.dynamic.seed.net.tw,success,Taiwan,Changhua,Chang-hua,24.0761,120.5648,
4780,SEEDNet,106.105.36.0/24,106.105.36.128,106.105.36.128.adsl.dynamic.seed.net.tw,success,Taiwan,Changhua,Chang-hua,24.0761,120.5648,
4780,SEEDNet,106.105.37.0/24,106.105.37.128,106.105.37.128.adsl.dynamic.seed.net.tw,success,Taiwan,Changhua,Chang-hua,24.0761,120.5648,
4780,SEEDNet,106.105.38.0/24,106.105.38.128,106.105.38.128.adsl.dynamic.seed.net.tw,success,Taiwan,Changhua,Chang-hua,24.0761,120.5648,
4780,SEEDNet,106.105.39.0/24,106.105.39.128,106.105.39.128.adsl.dynamic.seed.net.tw,success,Taiwan,Changhua,Chang-hua,24.0761,120.5648,
4780,SEEDNet,106.105.40.0/24,106.105.40.128,106.105.40.128.adsl.dynamic.seed.net.tw,success,Taiwan,Taiwan,Neihu District,25.0689,121.591,
4780,SEEDNet,106.105.64.0/24,106.105.64.128,106.105.64.128.adsl.dynamic.seed.net.tw,success,Taiwan,Taiwan,Wufeng District,24.0637,120.698,
4780,SEEDNet,106.106.2.0/24,106.106.2.128,106.106.2.128.adsl.dynamic.seed.net.tw,success,Taiwan,Taiwan,Taipei,25.0423,121.567,
4780,SEEDNet,106.106.192.0/24,106.106.192.128,106.106.192.128.adsl.dynamic.seed.net.tw,success,Taiwan,Taiwan,Taipei,25.0423,121.567,
4780,SEEDNet,106.106.193.0/24,106.106.193.128,106.106.193.128.adsl.dynamic.seed.net.tw,success,Taiwan,Taiwan,Taipei,25.0423,121.567,
4780,SEEDNet,106.106.194.0/24,106.106.194.128,106.106.194.128.adsl.dynamic.seed.net.tw,success,Taiwan,Taiwan,Taipei,25.0423,121.567,
4780,SEEDNet,106.106.197.0/24,106.106.197.128,106.106.197.128.adsl.dynamic.seed.net.tw,success,Taiwan,Taiwan,Taipei,25.0423,121.567,
4780,SEEDNet,106.106.198.0/24,106.106.198.128,106.106.198.128.adsl.dynamic.seed.net.tw,success,Taiwan,Taiwan,Taipei,25.0423,121.567,
4780,SEEDNet,106.106.199.0/24,106.106.199.128,106.106.199.128.adsl.dynamic.seed.net.tw,success,Taiwan,Taiwan,Taipei,25.0423,121.567,
4780,SEEDNet,106.106.200.0/24,106.106.200.128,106.106.200.128.adsl.dynamic.seed.net.tw,success,Taiwan,Taiwan,Taipei,25.0423,121.567,
4780,SEEDNet,106.106.201.0/24,106.106.201.128,106.106.201.128.adsl.dynamic.seed.net.tw,success,Taiwan,Taiwan,Taipei,25.0423,121.567,
4780,SEEDNet,106.106.202.0/24,106.106.202.128,106.106.202.128.adsl.dynamic.seed.net.tw,success,Taiwan,Taiwan,Taipei,25.0423,121.567,
4780,SEEDNet,106.106.204.0/24,106.106.204.128,106.106.204.128.adsl.dynamic.seed.net.tw,success,Taiwan,Taiwan,Taipei,25.0423,121.567,
4780,SEEDNet,106.106.205.0/24,106.106.205.128,106.106.205.128.adsl.dynamic.seed.net.tw,success,Taiwan,Taiwan,Taipei,25.0423,121.567,
4780,SEEDNet,106.106.210.0/24,106.106.210.128,106.106.210.128.adsl.dynamic.seed.net.tw,success,Taiwan,Taiwan,Taipei,25.0423,121.567,
4780,SEEDNet,106.106.211.0/24,106.106.211.128,106.106.211.128.adsl.dynamic.seed.net.tw,success,Taiwan,Taiwan,Taipei,25.0423,121.567,
4780,SEEDNet,106.106.212.0/24,106.106.212.128,106.106.212.128.adsl.dynamic.seed.net.tw,success,Taiwan,Taiwan,Taipei,25.0423,121.567,
4780,SEEDNet,106.106.213.0/24,106.106.213.128,106.106.213.128.adsl.dynamic.seed.net.tw,success,Taiwan,Taiwan,Taipei,25.0423,121.567,
4780,SEEDNet,106.106.220.0/24,106.106.220.128,106.106.220.128.adsl.dynamic.seed.net.tw,success,Taiwan,Taiwan,Taipei,25.0423,121.567,
4780,SEEDNet,106.106.221.0/24,106.106.221.128,106.106.221.128.adsl.dynamic.seed.net.tw,success,Taiwan,Taiwan,Taipei,25.0423,121.567,
4780,SEEDNet,106.106.222.0/24,106.106.222.128,106.106.222.128.adsl.dynamic.seed.net.tw,success,Taiwan,Taiwan,Taipei,25.0423,121.567,
4780,SEEDNet,106.106.229.0/24,106.106.229.128,106.106.229.128.adsl.dynamic.seed.net.tw,success,Taiwan,Taiwan,Taipei,25.0423,121.567,
4780,SEEDNet,106.106.230.0/24,106.106.230.128,106.106.230.128.adsl.dynamic.seed.net.tw,success,Taiwan,Taiwan,Taipei,25.0423,121.567,
4780,SEEDNet,106.106.236.0/24,106.106.236.128,106.106.236.128.adsl.dynamic.seed.net.tw,success,Taiwan,Taiwan,Taipei,25.0423,121.567,
4780,SEEDNet,106.106.237.0/24,106.106.237.128,106.106.237.128.adsl.dynamic.seed.net.tw,success,Taiwan,Taiwan,Taipei,25.0423,121.567,
4780,SEEDNet,106.106.238.0/24,106.106.238.128,106.106.238.128.adsl.dynamic.seed.net.tw,success,Taiwan,Taiwan,Taipei,25.0423,121.567,
4780,SEEDNet,106.106.244.0/24,106.106.244.128,106.106.244.128.adsl.dynamic.seed.net.tw,success,Taiwan,Taiwan,Taipei,25.0423,121.567,
4780,SEEDNet,106.106.245.0/24,106.106.245.128,106.106.245.128.adsl.dynamic.seed.net.tw,success,Taiwan,Taiwan,Taipei,25.0423,121.567,
4780,SEEDNet,106.106.246.0/24,106.106.246.128,106.106.246.128.adsl.dynamic.seed.net.tw,success,Taiwan,Taiwan,Taipei,25.0423,121.567,
4780,SEEDNet,106.106.252.0/24,106.106.252.128,106.106.252.128.adsl.dynamic.seed.net.tw,success,Taiwan,Taiwan,Taipei,25.0423,121.567,
4780,SEEDNet,106.106.253.0/24,106.106.253.128,106.106.253.128.adsl.dynamic.seed.net.tw,success,Taiwan,Taiwan,Taipei,25.0423,121.567,
4780,SEEDNet,106.106.254.0/24,106.106.254.128,106.106.254.128.adsl.dynamic.seed.net.tw,success,Taiwan,Taiwan,Taipei,25.0423,121.567,
4780,SEEDNet,106.107.183.0/24,106.107.183.128,106.107.183.128.adsl.dynamic.seed.net.tw,success,Taiwan,Taichung City,Taichung City,24.1547,120.6716,
4780,SEEDNet,106.107.184.0/24,106.107.184.128,106.107.184.128.adsl.dynamic.seed.net.tw,success,Taiwan,Taichung City,Taichung,24.144,120.6844,
4780,SEEDNet,106.107.190.0/24,106.107.190.128,106.107.190.128.adsl.dynamic.seed.net.tw,success,Taiwan,Taichung City,Taichung,24.144,120.6844,
4780,SEEDNet,106.107.191.0/24,106.107.191.128,106.107.191.128.adsl.dynamic.seed.net.tw,success,Taiwan,Taichung City,Taichung,24.144,120.6844,
4780,SEEDNet,106.107.233.0/24,106.107.233.128,106.107.233.128.adsl.dynamic.seed.net.tw,success,Taiwan,Taichung City,Taichung,24.144,120.6844,
4780,SEEDNet,106.107.241.0/24,106.107.241.128,106.107.241.128.adsl.dynamic.seed.net.tw,success,Taiwan,Taichung City,Taichung,24.144,120.6844,
4780,SEEDNet,106.107.248.0/24,106.107.248.128,106.107.248.128.adsl.dynamic.seed.net.tw,success,Taiwan,Taichung City,Taichung,24.144,120.6844,
4780,SEEDNet,112.104.0.0/15,112.105.0.0,112-105-0-0.adsl.dynamic.seed.net.tw,success,Taiwan,Yunlin,Yunlin,23.7113,120.3897,
4780,SEEDNet,112.104.0.0/19,112.104.16.0,112-104-16-0.adsl.dynamic.seed.net.tw,success,Taiwan,Taipei City,Neihu District,25.0811,121.5839,
4780,SEEDNet,112.104.0.0/17,112.104.64.0,112-104-64-0.adsl.dynamic.seed.net.tw,success,Taiwan,Taipei City,Taipei,25.053,121.5259,
4780,SEEDNet,112.104.0.0/18,112.104.32.0,112-104-32-0.adsl.dynamic.seed.net.tw,success,Taiwan,Taipei City,Taipei,25.053,121.5259,
4780,SEEDNet,112.104.0.0/16,112.104.128.0,112-104-128-0.adsl.dynamic.seed.net.tw,success,Taiwan,Taichung City,Taichung,24.144,120.6844,
4780,SEEDNet,112.104.10.0/24,112.104.10.128,112-104-10-128.adsl.dynamic.seed.net.tw,success,Taiwan,New Taipei City,New Taipei City,25.0693,121.4626,
4780,SEEDNet,112.104.14.0/24,112.104.14.128,112-104-14-128.adsl.dynamic.seed.net.tw,success,Taiwan,New Taipei City,New Taipei City,25.0693,121.4626,
4780,SEEDNet,112.104.21.0/24,112.104.21.128,112-104-21-128.adsl.dynamic.seed.net.tw,success,Taiwan,Taipei City,Neihu District,25.0811,121.5839,
4780,SEEDNet,112.104.29.0/24,112.104.29.128,112-104-29-128.adsl.dynamic.seed.net.tw,success,Taiwan,Taipei City,Neihu District,25.0811,121.5839,
4780,SEEDNet,112.104.32.0/19,112.104.48.0,112-104-48-0.adsl.dynamic.seed.net.tw,success,Taiwan,Taipei City,Taipei,25.053,121.5259,
4780,SEEDNet,112.104.52.0/24,112.104.52.128,112-104-52-128.static.seed.net.tw,success,Taiwan,Taipei City,Taipei,25.053,121.5259,
4780,SEEDNet,112.104.54.0/24,112.104.54.128,112-104-54-128.static.seed.net.tw,success,Taiwan,Taipei City,Taipei,25.053,121.5259,
4780,SEEDNet,112.104.55.0/24,112.104.55.128,112-104-55-128.static.seed.net.tw,success,Taiwan,Taipei City,Taipei,25.053,121.5259,
4780,SEEDNet,112.104.64.0/18,112.104.96.0,112-104-96-0.adsl.dynamic.seed.net.tw,success,Taiwan,Taipei City,Taipei,25.053,121.5259,
4780,SEEDNet,112.104.64.0/19,112.104.80.0,112-104-80-0.adsl.dynamic.seed.net.tw,success,Taiwan,Taipei City,Taipei,25.053,121.5259,
4780,SEEDNet,112.104.87.0/24,112.104.87.128,112-104-87-128.adsl.dynamic.seed.net.tw,success,Taiwan,Taipei City,Taipei,25.053,121.5259,
4780,SEEDNet,112.104.96.0/19,112.104.112.0,112-104-112-0.adsl.dynamic.seed.net.tw,success,Taiwan,New Taipei City,New Taipei City,25.0693,121.4626,
4780,SEEDNet,112.104.98.0/24,112.104.98.128,112-104-98-128.adsl.dynamic.seed.net.tw,success,Taiwan,Taipei City,Taipei,25.053,121.5259,
4780,SEEDNet,112.104.128.0/19,112.104.144.0,112-104-144-0.adsl.dynamic.seed.net.tw,success,Taiwan,Taichung City,Taichung,24.144,120.6844,
4780,SEEDNet,112.104.128.0/18,112.104.160.0,112-104-160-0.adsl.dynamic.seed.net.tw,success,Taiwan,Tainan,Tainan City,22.9917,120.2148,
4780,SEEDNet,112.104.128.0/17,112.104.192.0,112-104-192-0.adsl.dynamic.seed.net.tw,success,Taiwan,Taichung City,Taichung,24.144,120.6844,
4780,SEEDNet,112.104.138.0/24,112.104.138.128,112-104-138-128.adsl.dynamic.seed.net.tw,success,Taiwan,Taichung City,Taichung,24.144,120.6844,
4780,SEEDNet,112.104.139.0/24,112.104.139.128,112-104-139-128.adsl.dynamic.seed.net.tw,success,Taiwan,Taichung City,Taichung,24.144,120.6844,
4780,SEEDNet,112.104.140.0/24,112.104.140.128,112-104-140-128.adsl.dynamic.seed.net.tw,success,Taiwan,Taichung City,Taichung,24.144,120.6844,
4780,SEEDNet,112.104.147.0/24,112.104.147.128,112-104-147-128.adsl.dynamic.seed.net.tw,success,Taiwan,Taichung City,Taichung,24.144,120.6844,
4780,SEEDNet,112.104.148.0/24,112.104.148.128,112-104-148-128.adsl.dynamic.seed.net.tw,success,Taiwan,Taichung City,Taichung,24.144,120.6844,
4780,SEEDNet,112.104.149.0/24,112.104.149.128,112-104-149-128.adsl.dynamic.seed.net.tw,success,Taiwan,Taichung City,Taichung,24.144,120.6844,
4780,SEEDNet,112.104.154.0/24,112.104.154.128,112-104-154-128.adsl.dynamic.seed.net.tw,success,Taiwan,Miaoli,Miaoli,24.5641,120.8275,
4780,SEEDNet,112.104.160.0/19,112.104.176.0,112-104-176-0.adsl.dynamic.seed.net.tw,success,Taiwan,Kaohsiung,Kaohsiung,22.6148,120.3139,
4780,SEEDNet,112.104.167.0/24,112.104.167.128,112-104-167-128.adsl.dynamic.seed.net.tw,success,Taiwan,Tainan,Tainan City,22.9917,120.2148,
4780,SEEDNet,112.104.169.0/24,112.104.169.128,112-104-169-128.adsl.dynamic.seed.net.tw,success,Taiwan,Tainan,Tainan City,22.9917,120.2148,
4780,SEEDNet,112.104.171.0/24,112.104.171.128,112-104-171-128.adsl.dynamic.seed.net.tw,success,Taiwan,Tainan,Tainan City,22.9917,120.2148,
4780,SEEDNet,112.104.187.0/24,112.104.187.128,112-104-187-128.adsl.dynamic.seed.net.tw,success,Taiwan,Kaohsiung,Kaohsiung,22.6148,120.3139,
4780,SEEDNet,112.104.189.0/24,112.104.189.128,112-104-189-128.adsl.dynamic.seed.net.tw,success,Taiwan,Kaohsiung,Kaohsiung,22.6148,120.3139,
4780,SEEDNet,112.104.191.0/24,112.104.191.128,112-104-191-128.adsl.dynamic.seed.net.tw,success,Taiwan,Kaohsiung,Kaohsiung,22.6148,120.3139,
4780,SEEDNet,112.104.192.0/19,112.104.208.0,112-104-208-0.adsl.dynamic.seed.net.tw,success,Taiwan,Taichung City,Taichung,24.144,120.6844,
4780,SEEDNet,112.104.192.0/18,112.104.224.0,112-104-224-0.adsl.dynamic.seed.net.tw,success,Taiwan,Taichung City,Taichung,24.144,120.6844,
4780,SEEDNet,112.104.224.0/19,112.104.240.0,112-104-240-0.adsl.dynamic.seed.net.tw,success,Taiwan,Taichung City,Taichung,24.144,120.6844,
4780,SEEDNet,112.104.240.0/24,112.104.240.128,112-104-240-128.adsl.dynamic.seed.net.tw,success,Taiwan,Taichung City,Taichung,24.144,120.6844,
4780,SEEDNet,112.105.0.0/16,112.105.128.0,112-105-128-0.adsl.dynamic.seed.net.tw,success,Taiwan,Taichung City,Taichung,24.144,120.6844,
4780,SEEDNet,112.105.0.0/17,112.105.64.0,112-105-64-0.adsl.dynamic.seed.net.tw,success,Taiwan,Tainan,Tainan City,22.9917,120.2148,
4780,SEEDNet,112.105.8.0/24,112.105.8.128,112-105-8-128.adsl.dynamic.seed.net.tw,success,Taiwan,Yunlin,Yunlin,23.7113,120.3897,
4780,SEEDNet,112.105.64.0/24,112.105.64.128,112-105-64-128.adsl.dynamic.seed.net.tw,success,Taiwan,Tainan,Tainan City,22.9917,120.2148,
4780,SEEDNet,112.105.64.0/19,112.105.80.0,112-105-80-0.adsl.dynamic.seed.net.tw,success,Taiwan,Tainan,Tainan City,22.9917,120.2148,
4780,SEEDNet,112.105.64.0/18,112.105.96.0,112-105-96-0.adsl.dynamic.seed.net.tw,success,Taiwan,Tainan,Tainan City,22.9917,120.2148,
4780,SEEDNet,112.105.65.0/24,112.105.65.128,112-105-65-128.adsl.dynamic.seed.net.tw,success,Taiwan,Tainan,Tainan City,22.9917,120.2148,
4780,SEEDNet,112.105.69.0/24,112.105.69.128,112-105-69-128.adsl.dynamic.seed.net.tw,success,Taiwan,Tainan,Tainan City,22.9917,120.2148,
4780,SEEDNet,112.105.70.0/24,112.105.70.128,112-105-70-128.adsl.dynamic.seed.net.tw,success,Taiwan,Tainan,Tainan City,22.9917,120.2148,
4780,SEEDNet,112.105.71.0/24,112.105.71.128,112-105-71-128.adsl.dynamic.seed.net.tw,success,Taiwan,Tainan,Tainan City,22.9917,120.2148,
4780,SEEDNet,112.105.96.0/19,112.105.112.0,112-105-112-0.adsl.dynamic.seed.net.tw,success,Taiwan,Taichung City,Taichung,24.144,120.6844,
4780,SEEDNet,112.105.120.0/24,112.105.120.128,112-105-120-128.adsl.dynamic.seed.net.tw,success,Taiwan,Taichung City,Taichung,24.144,120.6844,
4780,SEEDNet,112.105.121.0/24,112.105.121.128,112-105-121-128.adsl.dynamic.seed.net.tw,success,Taiwan,Taichung City,Taichung,24.144,120.6844,
4780,SEEDNet,112.105.122.0/24,112.105.122.128,112-105-122-128.adsl.dynamic.seed.net.tw,success,Taiwan,Taichung City,Taichung,24.144,120.6844,
4780,SEEDNet,112.105.128.0/17,112.105.192.0,112-105-192-0.adsl.dynamic.seed.net.tw,success,Taiwan,Taichung City,Taichung,24.144,120.6844,
4780,SEEDNet,112.105.128.0/18,112.105.160.0,112-105-160-0.adsl.dynamic.seed.net.tw,success,Taiwan,Taichung City,Taichung,24.144,120.6844,
4780,SEEDNet,112.105.128.0/19,112.105.144.0,112-105-144-0.adsl.dynamic.seed.net.tw,success,Taiwan,Taichung City,Taichung,24.144,120.6844,
4780,SEEDNet,112.105.130.0/24,112.105.130.128,112-105-130-128.adsl.dynamic.seed.net.tw,success,Taiwan,Taichung City,Taichung,24.144,120.6844,
4780,SEEDNet,112.105.131.0/24,112.105.131.128,112-105-131-128.adsl.dynamic.seed.net.tw,success,Taiwan,Taichung City,Taichung,24.144,120.6844,
4780,SEEDNet,112.105.132.0/24,112.105.132.128,112-105-132-128.adsl.dynamic.seed.net.tw,success,Taiwan,Taichung City,Taichung,24.144,120.6844,
4780,SEEDNet,112.105.133.0/24,112.105.133.128,112-105-133-128.adsl.dynamic.seed.net.tw,success,Taiwan,Taichung City,Taichung,24.144,120.6844,
4780,SEEDNet,112.105.134.0/24,112.105.134.128,112-105-134-128.adsl.dynamic.seed.net.tw,success,Taiwan,Taichung City,Taichung,24.144,120.6844,
4780,SEEDNet,112.105.152.0/24,112.105.152.128,112-105-152-128.adsl.dynamic.seed.net.tw,success,Taiwan,Taichung City,Taichung,24.144,120.6844,
4780,SEEDNet,112.105.153.0/24,112.105.153.128,112-105-153-128.adsl.dynamic.seed.net.tw,success,Taiwan,Taichung City,Taichung,24.144,120.6844,
4780,SEEDNet,112.105.154.0/24,112.105.154.128,112-105-154-128.adsl.dynamic.seed.net.tw,success,Taiwan,Taichung City,Taichung,24.144,120.6844,
4780,SEEDNet,112.105.160.0/19,112.105.176.0,112-105-176-0.adsl.dynamic.seed.net.tw,success,Taiwan,Taichung City,Taichung,24.144,120.6844,
4780,SEEDNet,112.105.192.0/19,112.105.208.0,112-105-208-0.adsl.dynamic.seed.net.tw,success,Taiwan,Taichung City,Taichung,24.144,120.6844,
4780,SEEDNet,112.105.192.0/18,112.105.224.0,112-105-224-0.adsl.dynamic.seed.net.tw,success,Taiwan,Taichung City,Taichung,24.144,120.6844,
4780,SEEDNet,112.105.224.0/19,112.105.240.0,112-105-240-0.adsl.dynamic.seed.net.tw,success,Taiwan,Taichung City,Taichung,24.144,120.6844,
4780,SEEDNet,112.105.248.0/24,112.105.248.128,112-105-248-128.adsl.dynamic.seed.net.tw,success,Taiwan,Taichung City,Taichung,24.144,120.6844,
4780,SEEDNet,113.196.37.0/24,113.196.37.128,,success,Taiwan,Taiwan,Taipei,25.0423,121.567,
4780,SEEDNet,113.196.115.0/24,113.196.115.128,113.196.115.128.ll.static.sparqnet.net,success,Taiwan,Taiwan,Neihu District,25.0689,121.591,
4780,SEEDNet,122.146.3.0/24,122.146.3.128,,success,Taiwan,Taipei City,Taipei,25.053,121.5259,
4780,SEEDNet,122.146.28.0/24,122.146.28.128,122-146-28-128.static.sparqnet.net,success,Taiwan,New Taipei City,New Taipei City,25.0693,121.4626,
4780,SEEDNet,122.146.45.0/24,122.146.45.128,122-146-45-128.adsl.static.sparqnet.net,success,Taiwan,Taipei City,Taipei,25.053,121.5259,
4780,SEEDNet,122.146.70.0/24,122.146.70.128,122-146-70-128.adsl.static.sparqnet.net,success,Taiwan,Taipei City,Taipei,25.053,121.5259,
4780,SEEDNet,122.146.71.0/24,122.146.71.128,122-146-71-128.adsl.static.sparqnet.net,success,Taiwan,Taipei City,Taipei,25.053,121.5259,
4780,SEEDNet,122.146.89.0/24,122.146.89.128,122-146-89-128.adsl.static.sparqnet.net,success,Taiwan,Hsinchu County,Zhubei,24.8351,121.0056,
4780,SEEDNet,122.146.91.0/24,122.146.91.128,122-146-91-128.adsl.static.sparqnet.net,success,Taiwan,Hsinchu County,Zhubei,24.8351,121.0056,
4780,SEEDNet,122.146.92.0/24,122.146.92.128,122-146-92-128.adsl.static.sparqnet.net,success,Taiwan,Hsinchu County,Zhubei,24.8351,121.0056,
4780,SEEDNet,122.146.96.0/24,122.146.96.128,122-146-96-128.static.sparqnet.net,success,Taiwan,Taiwan,Taipei,25.0501,121.565,
4780,SEEDNet,122.146.97.0/24,122.146.97.128,,success,Taiwan,Taipei,Yingge District,24.9493,121.337,
4780,SEEDNet,122.146.224.0/24,122.146.224.128,122-146-224-128.adsl.dynamic.sparqnet.net,success,Taiwan,Tainan,Tainan City,22.9917,120.2148,
4780,SEEDNet,122.146.225.0/24,122.146.225.128,122-146-225-128.adsl.dynamic.sparqnet.net,success,Taiwan,Tainan,Tainan City,22.9917,120.2148,
4780,SEEDNet,122.146.226.0/24,122.146.226.128,122-146-226-128.adsl.dynamic.sparqnet.net,success,Taiwan,Tainan,Tainan City,22.9917,120.2148,
4780,SEEDNet,122.146.227.0/24,122.146.227.128,122-146-227-128.adsl.dynamic.sparqnet.net,success,Taiwan,Tainan,Tainan City,22.9917,120.2148,
4780,SEEDNet,122.146.228.0/24,122.146.228.128,122-146-228-128.adsl.static.sparqnet.net,success,Taiwan,Tainan,Tainan City,22.9917,120.2148,
4780,SEEDNet,122.146.231.0/24,122.146.231.128,122-146-231-128.adsl.static.sparqnet.net,success,Taiwan,Tainan,Tainan City,22.9917,120.2148,
4780,SEEDNet,122.146.232.0/24,122.146.232.128,122-146-232-128.adsl.static.sparqnet.net,success,Taiwan,Tainan,Tainan City,22.9917,120.2148,
4780,SEEDNet,122.146.236.0/24,122.146.236.128,122-146-236-128.adsl.static.sparqnet.net,success,Taiwan,Tainan,Tainan City,22.9917,120.2148,
4780,SEEDNet,122.146.237.0/24,122.146.237.128,122-146-237-128.adsl.static.sparqnet.net,success,Taiwan,Tainan,Tainan City,22.9917,120.2148,
4780,SEEDNet,122.146.238.0/24,122.146.238.128,122-146-238-128.adsl.static.sparqnet.net,success,Taiwan,Tainan,Tainan City,22.9917,120.2148,
4780,SEEDNet,122.146.239.0/24,122.146.239.128,122-146-239-128.adsl.static.sparqnet.net,success,Taiwan,Tainan,Tainan City,22.9917,120.2148,
4780,SEEDNet,122.146.240.0/24,122.146.240.128,122-146-240-128.skh.dynamic.sparqnet.net,success,Taiwan,Tainan,Tainan City,22.9917,120.2148,
4780,SEEDNet,122.146.241.0/24,122.146.241.128,122-146-241-128.skh.dynamic.sparqnet.net,success,Taiwan,Tainan,Tainan City,22.9917,120.2148,
4780,SEEDNet,122.146.242.0/24,122.146.242.128,122-146-242-128.skh.dynamic.sparqnet.net,success,Taiwan,Tainan,Tainan City,22.9917,120.2148,
4780,SEEDNet,122.146.243.0/24,122.146.243.128,122-146-243-128.skh.dynamic.sparqnet.net,success,Taiwan,Tainan,Tainan City,22.9917,120.2148,
4780,SEEDNet,122.146.244.0/24,122.146.244.128,122-146-244-128.adsl.dynamic.sparqnet.net,success,Taiwan,Tainan,Tainan City,22.9917,120.2148,
4780,SEEDNet,122.146.245.0/24,122.146.245.128,122-146-245-128.adsl.dynamic.sparqnet.net,success,Taiwan,Tainan,Tainan City,22.9917,120.2148,
4780,SEEDNet,122.146.246.0/24,122.146.246.128,122-146-246-128.adsl.dynamic.sparqnet.net,success,Taiwan,Tainan,Tainan City,22.9917,120.2148,
4780,SEEDNet,122.146.247.0/24,122.146.247.128,122-146-247-128.adsl.dynamic.sparqnet.net,success,Taiwan,Tainan,Tainan City,22.9917,120.2148,
4780,SEEDNet,122.146.248.0/24,122.146.248.128,122-146-248-128.adsl.static.sparqnet.net,success,Taiwan,Tainan,Tainan City,22.9917,120.2148,
4780,SEEDNet,122.146.249.0/24,122.146.249.128,,success,Taiwan,Tainan,Tainan City,22.9917,120.2148,
4780,SEEDNet,122.146.251.0/24,122.146.251.128,122-146-251-128.adsl.static.sparqnet.net,success,Taiwan,Tainan,Tainan City,22.9917,120.2148,
4780,SEEDNet,122.146.252.0/24,122.146.252.128,122-146-252-128.adsl.static.sparqnet.net,success,Taiwan,Tainan,Tainan City,22.9917,120.2148,
4780,SEEDNet,122.146.253.0/24,122.146.253.128,122-146-253-128.adsl.static.sparqnet.net,success,Taiwan,Tainan,Tainan City,22.9917,120.2148,
4780,SEEDNet,122.146.254.0/24,122.146.254.128,122-146-254-128.adsl.static.sparqnet.net,success,Taiwan,Tainan,Tainan City,22.9917,120.2148,
4780,SEEDNet,122.146.255.0/24,122.146.255.128,122-146-255-128.adsl.static.sparqnet.net,success,Taiwan,Tainan,Tainan City,22.9917,120.2148,
4780,SEEDNet,122.147.34.0/24,122.147.34.128,122-147-34-128.static.sparqnet.net,success,Taiwan,Taiwan,Taipei,25.033,121.565,
4780,SEEDNet,122.147.206.0/24,122.147.206.128,122-147-206-128.static.sparqnet.net,success,Taiwan,Taipei City,Taipei,25.053,121.5259,
4780,SEEDNet,122.147.210.0/24,122.147.210.128,122-147-210-128.static.sparqnet.net,success,Taiwan,New Taipei City,Da'an,25.0283,121.5352,
4780,SEEDNet,122.147.216.0/24,122.147.216.128,122-147-216-128.static.sparqnet.net,success,Taiwan,New Taipei City,Da'an,25.0283,121.5352,
4780,SEEDNet,123.51.133.0/24,123.51.133.128,,success,Taiwan,Taoyuan,Taoyuan District,24.9889,121.3176,
4780,SEEDNet,123.51.143.0/24,123.51.143.128,,success,Taiwan,Taoyuan,Taoyuan District,24.9889,121.3176,
4780,SEEDNet,123.51.149.0/24,123.51.149.128,,success,Taiwan,Taipei City,Taipei,25.053,121.5259,
4780,SEEDNet,123.51.151.0/24,123.51.151.128,,success,Taiwan,Taipei City,Taipei,25.053,121.5259,
4780,SEEDNet,123.51.155.0/24,123.51.155.128,,success,Taiwan,Hualien County,Hualien City,23.9807,121.6115,
4780,SEEDNet,123.51.159.0/24,123.51.159.128,,success,Taiwan,New Taipei City,New Taipei City,25.0693,121.4626,
4780,SEEDNet,123.51.163.0/24,123.51.163.128,123-51-163-128.adsl.static.sparqnet.net,success,Taiwan,New Taipei City,Sanchong District,25.0705,121.4904,
4780,SEEDNet,123.51.169.0/24,123.51.169.128,,success,Taiwan,New Taipei City,Sanchong District,25.0705,121.4904,
4780,SEEDNet,123.51.173.0/24,123.51.173.128,,success,Taiwan,New Taipei City,Sanchong District,25.0705,121.4904,
4780,SEEDNet,123.51.181.0/24,123.51.181.128,,success,Taiwan,Hsinchu County,Zhubei,24.8351,121.0056,
4780,SEEDNet,123.51.222.0/24,123.51.222.128,123-51-222-128.adsl.static.sparqnet.net,success,Taiwan,New Taipei City,New Taipei City,25.0693,121.4626,
4780,SEEDNet,123.51.246.0/24,123.51.246.128,,success,Taiwan,Taipei City,Taipei,25.053,121.5259,
4780,SEEDNet,123.51.253.0/24,123.51.253.128,,success,Taiwan,Taipei City,Taipei,25.053,121.5259,
4780,SEEDNet,123.204.0.0/19,123.204.16.0,123-204-16-0.dynamic.seed.net.tw,success,Taiwan,Taoyuan,Taoyuan District,24.9889,121.3176,
4780,SEEDNet,123.204.0.0/18,123.204.32.0,123-204-32-0.dynamic.seed.net.tw,success,Taiwan,Taipei City,Taipei,25.053,121.5259,
4780,SEEDNet,123.204.0.0/16,123.204.128.0,123-204-128-0.adsl.dynamic.seed.net.tw,success,Taiwan,New Taipei City,New Taipei City,25.0693,121.4626,
4780,SEEDNet,123.204.0.0/15,123.205.0.0,123-205-0-0.adsl.dynamic.seed.net.tw,success,Taiwan,Taichung City,Taichung,24.144,120.6844,
4780,SEEDNet,123.204.1.0/24,123.204.1.128,123-204-1-128.dynamic.seed.net.tw,success,Taiwan,Taipei City,Taipei,25.053,121.5259,
4780,SEEDNet,123.204.3.0/24,123.204.3.128,123-204-3-128.dynamic.seed.net.tw,success,Taiwan,Taipei City,Taipei,25.053,121.5259,
4780,SEEDNet,123.204.4.0/24,123.204.4.128,123-204-4-128.dynamic.seed.net.tw,success,Taiwan,Taipei City,Taipei,25.053,121.5259,
4780,SEEDNet,123.204.5.0/24,123.204.5.128,123-204-5-128.dynamic.seed.net.tw,success,Taiwan,Taipei City,Taipei,25.053,121.5259,
4780,SEEDNet,123.204.6.0/24,123.204.6.128,123-204-6-128.dynamic.seed.net.tw,success,Taiwan,Taipei City,Taipei,25.053,121.5259,
4780,SEEDNet,123.204.8.0/24,123.204.8.128,123-204-8-128.dynamic.seed.net.tw,success,Taiwan,Taipei City,Taipei,25.053,121.5259,
4780,SEEDNet,123.204.9.0/24,123.204.9.128,123-204-9-128.dynamic.seed.net.tw,success,Taiwan,Taipei City,Taipei,25.053,121.5259,
4780,SEEDNet,123.204.10.0/24,123.204.10.128,123-204-10-128.dynamic.seed.net.tw,success,Taiwan,Taipei City,Taipei,25.053,121.5259,
4780,SEEDNet,123.204.11.0/24,123.204.11.128,123-204-11-128.dynamic.seed.net.tw,success,Taiwan,Taipei City,Taipei,25.053,121.5259,
4780,SEEDNet,123.204.13.0/24,123.204.13.128,123-204-13-128.dynamic.seed.net.tw,success,Taiwan,Taipei City,Taipei,25.053,121.5259,
4780,SEEDNet,123.204.18.0/24,123.204.18.128,123-204-18-128.dynamic.seed.net.tw,success,Taiwan,Taoyuan,Taoyuan District,24.9889,121.3176,
4780,SEEDNet,123.204.19.0/24,123.204.19.128,123-204-19-128.dynamic.seed.net.tw,success,Taiwan,Taoyuan,Taoyuan District,24.9889,121.3176,
4780,SEEDNet,123.204.23.0/24,123.204.23.128,123-204-23-128.dynamic.seed.net.tw,success,Taiwan,Taoyuan,Taoyuan District,24.9889,121.3176,
4780,SEEDNet,123.204.25.0/24,123.204.25.128,123-204-25-128.dynamic.seed.net.tw,success,Taiwan,Taoyuan,Taoyuan District,24.9889,121.3176,
4780,SEEDNet,123.204.32.0/19,123.204.48.0,123-204-48-0.static.seed.net.tw,success,Taiwan,Taipei City,Taipei,25.053,121.5259,
4780,SEEDNet,123.204.41.0/24,123.204.41.128,123-204-41-128.static.seed.net.tw,success,Taiwan,Taipei City,Taipei,25.053,121.5259,
4780,SEEDNet,123.204.43.0/24,123.204.43.128,123-204-43-128.static.seed.net.tw,success,Taiwan,Taipei City,Taipei,25.053,121.5259,
4780,SEEDNet,123.204.46.0/24,123.204.46.128,123-204-46-128.static.seed.net.tw,success,Taiwan,Taipei City,Taipei,25.053,121.5259,
4780,SEEDNet,123.204.47.0/24,123.204.47.128,123-204-47-128.static.seed.net.tw,success,Taiwan,Taipei City,Taipei,25.053,121.5259,
4780,SEEDNet,123.204.49.0/24,123.204.49.128,123-204-49-128.static.seed.net.tw,success,Taiwan,Taipei City,Taipei,25.053,121.5259,
4780,SEEDNet,123.204.51.0/24,123.204.51.128,123-204-51-128.static.seed.net.tw,success,Taiwan,Taipei City,Taipei,25.053,121.5259,
4780,SEEDNet,123.204.64.0/19,123.204.80.0,123-204-80-0.adsl.dynamic.seed.net.tw,success,Taiwan,Taichung City,Taichung,24.144,120.6844,
4780,SEEDNet,123.204.64.0/18,123.204.96.0,123-204-96-0.adsl.dynamic.seed.net.tw,success,Taiwan,Taichung City,Taichung,24.144,120.6844,
4780,SEEDNet,123.204.70.0/24,123.204.70.128,123-204-70-128.adsl.dynamic.seed.net.tw,success,Taiwan,Taichung City,Taichung,24.144,120.6844,
4780,SEEDNet,123.204.84.0/24,123.204.84.128,123-204-84-128.static.seed.net.tw,success,Taiwan,Taichung City,Taichung,24.144,120.6844,
4780,SEEDNet,123.204.88.0/24,123.204.88.128,123-204-88-128.static.seed.net.tw,success,Taiwan,Taichung City,Taichung,24.144,120.6844,
4780,SEEDNet,123.204.89.0/24,123.204.89.128,123-204-89-128.static.seed.net.tw,success,Taiwan,Taichung City,Taichung,24.144,120.6844,
4780,SEEDNet,123.204.95.0/24,123.204.95.128,123-204-95-128.static.seed.net.tw,success,Taiwan,Taichung City,Taichung,24.144,120.6844,
4780,SEEDNet,123.204.96.0/19,123.204.112.0,123-204-112-0.adsl.dynamic.seed.net.tw,success,Taiwan,Taichung City,Taichung,24.144,120.6844,
4780,SEEDNet,123.204.104.0/24,123.204.104.128,123-204-104-128.adsl.dynamic.seed.net.tw,success,Taiwan,Taichung City,Taichung,24.144,120.6844,
4780,SEEDNet,123.204.123.0/24,123.204.123.128,123-204-123-128.adsl.dynamic.seed.net.tw,success,Taiwan,Taichung City,Taichung,24.144,120.6844,
4780,SEEDNet,123.204.128.0/19,123.204.144.0,123-204-144-0.adsl.dynamic.seed.net.tw,success,Taiwan,New Taipei City,New Taipei City,25.0693,121.4626,
4780,SEEDNet,123.204.128.0/18,123.204.160.0,123-204-160-0.adsl.dynamic.seed.net.tw,success,Taiwan,New Taipei City,New Taipei City,25.0693,121.4626,
4780,SEEDNet,123.204.132.0/24,123.204.132.128,123-204-132-128.adsl.dynamic.seed.net.tw,success,Taiwan,New Taipei City,New Taipei City,25.0693,121.4626,
4780,SEEDNet,123.204.134.0/24,123.204.134.128,123-204-134-128.adsl.dynamic.seed.net.tw,success,Taiwan,New Taipei City,New Taipei City,25.0693,121.4626,
4780,SEEDNet,123.204.136.0/24,123.204.136.128,123-204-136-128.adsl.dynamic.seed.net.tw,success,Taiwan,New Taipei City,New Taipei City,25.0693,121.4626,
4780,SEEDNet,123.204.137.0/24,123.204.137.128,123-204-137-128.adsl.dynamic.seed.net.tw,success,Taiwan,New Taipei City,New Taipei City,25.0693,121.4626,
4780,SEEDNet,123.204.139.0/24,123.204.139.128,123-204-139-128.adsl.dynamic.seed.net.tw,success,Taiwan,New Taipei City,New Taipei City,25.0693,121.4626,
4780,SEEDNet,123.204.141.0/24,123.204.141.128,123-204-141-128.adsl.dynamic.seed.net.tw,success,Taiwan,New Taipei City,New Taipei City,25.0693,121.4626,
4780,SEEDNet,123.204.160.0/19,123.204.176.0,123-204-176-0.adsl.dynamic.seed.net.tw,success,Taiwan,New Taipei City,New Taipei City,25.0693,121.4626,
4780,SEEDNet,123.204.170.0/24,123.204.170.128,123-204-170-128.adsl.dynamic.seed.net.tw,success,Taiwan,New Taipei City,New Taipei City,25.0693,121.4626,
4780,SEEDNet,123.204.172.0/24,123.204.172.128,123-204-172-128.adsl.dynamic.seed.net.tw,success,Taiwan,New Taipei City,New Taipei City,25.0693,121.4626,
4780,SEEDNet,123.204.182.0/24,123.204.182.128,123-204-182-128.static.seed.net.tw,success,Taiwan,New Taipei City,New Taipei City,25.0693,121.4626,
4780,SEEDNet,123.204.185.0/24,123.204.185.128,123-204-185-128.static.seed.net.tw,success,Taiwan,New Taipei City,New Taipei City,25.0693,121.4626,
4780,SEEDNet,123.204.192.0/19,123.204.208.0,123-204-208-0.adsl.dynamic.seed.net.tw,success,Taiwan,Taichung City,Taichung,24.144,120.6844,
4780,SEEDNet,123.204.192.0/18,123.204.224.0,123-204-224-0.adsl.dynamic.seed.net.tw,success,Taiwan,Taichung City,Taichung,24.144,120.6844,
4780,SEEDNet,123.204.198.0/24,123.204.198.128,123-204-198-128.adsl.dynamic.seed.net.tw,success,Taiwan,Taichung City,Taichung,24.144,120.6844,
4780,SEEDNet,123.204.199.0/24,123.204.199.128,123-204-199-128.adsl.dynamic.seed.net.tw,success,Taiwan,Taichung City,Taichung,24.144,120.6844,
4780,SEEDNet,123.204.216.0/24,123.204.216.128,123-204-216-128.adsl.dynamic.seed.net.tw,success,Taiwan,Taichung City,Taichung,24.144,120.6844,
4780,SEEDNet,123.204.224.0/19,123.204.240.0,123-204-240-0.adsl.dynamic.seed.net.tw,success,Taiwan,Taichung City,Taichung,24.144,120.6844,
4780,SEEDNet,123.204.228.0/24,123.204.228.128,123-204-228-128.adsl.dynamic.seed.net.tw,success,Taiwan,Taichung City,Taichung,24.144,120.6844,
4780,SEEDNet,123.204.229.0/24,123.204.229.128,123-204-229-128.adsl.dynamic.seed.net.tw,success,Taiwan,Taichung City,Taichung,24.144,120.6844,
4780,SEEDNet,123.204.230.0/24,123.204.230.128,123-204-230-128.adsl.dynamic.seed.net.tw,success,Taiwan,Taichung City,Taichung,24.144,120.6844,
4780,SEEDNet,123.204.232.0/24,123.204.232.128,123-204-232-128.adsl.dynamic.seed.net.tw,success,Taiwan,Taichung City,Taichung,24.144,120.6844,
4780,SEEDNet,123.204.237.0/24,123.204.237.128,123-204-237-128.adsl.dynamic.seed.net.tw,success,Taiwan,Taichung City,Taichung,24.144,120.6844,
4780,SEEDNet,123.204.238.0/24,123.204.238.128,123-204-238-128.adsl.dynamic.seed.net.tw,success,Taiwan,Taichung City,Taichung,24.144,120.6844,
4780,SEEDNet,123.204.250.0/24,123.204.250.128,123-204-250-128.static.seed.net.tw,success,Taiwan,Taichung City,Taichung,24.144,120.6844,
4780,SEEDNet,123.204.252.0/24,123.204.252.128,123-204-252-128.static.seed.net.tw,success,Taiwan,Taichung City,Taichung,24.144,120.6844,
4780,SEEDNet,123.205.0.0/24,123.205.0.128,123-205-0-128.adsl.dynamic.seed.net.tw,success,Taiwan,Taichung City,Taichung,24.144,120.6844,
4780,SEEDNet,123.205.0.0/16,123.205.128.0,123-205-128-0.adsl.dynamic.seed.net.tw,success,Taiwan,Tainan,Tainan City,22.9917,120.2148,
4780,SEEDNet,123.205.15.0/24,123.205.15.128,123-205-15-128.adsl.dynamic.seed.net.tw,success,Taiwan,Taichung City,Taichung,24.144,120.6844,
4780,SEEDNet,123.205.32.0/19,123.205.48.0,123-205-48-0.adsl.dynamic.seed.net.tw,success,Taiwan,Taiwan,Taichung,24.1182,120.679,
4780,SEEDNet,123.205.56.0/24,123.205.56.128,123-205-56-128.adsl.dynamic.seed.net.tw,success,Taiwan,Taiwan,Taichung,24.1182,120.679,
4780,SEEDNet,123.205.64.0/19,123.205.80.0,123-205-80-0.adsl.dynamic.seed.net.tw,success,Taiwan,Yunlin,Yunlin,23.7113,120.3897,
4780,SEEDNet,123.205.76.0/24,123.205.76.128,123-205-76-128.adsl.dynamic.seed.net.tw,success,Taiwan,Yunlin,Yunlin,23.7113,120.3897,
4780,SEEDNet,123.205.81.0/24,123.205.81.128,123-205-81-128.adsl.dynamic.seed.net.tw,success,Taiwan,Yunlin,Yunlin,23.7113,120.3897,
4780,SEEDNet,123.205.105.0/24,123.205.105.128,123-205-105-128.adsl.dynamic.seed.net.tw,success,Taiwan,Yunlin,Douliu,23.7125,120.545,
4780,SEEDNet,123.205.192.0/19,123.205.208.0,123-205-208-0.static.seed.net.tw,success,Taiwan,Taiwan,Neihu District,25.0689,121.591,
4780,SEEDNet,123.205.192.0/18,123.205.224.0,123-205-224-0.adsl.dynamic.seed.net.tw,success,Taiwan,Taichung City,Taichung,24.144,120.6844,
4780,SEEDNet,123.205.210.0/24,123.205.210.128,123-205-210-128.adsl.dynamic.seed.net.tw,success,Taiwan,Taiwan,Neihu District,25.0689,121.591,
4780,SEEDNet,123.205.224.0/19,123.205.240.0,123-205-240-0.adsl.dynamic.seed.net.tw,success,Taiwan,Taiwan,Taipei,25.0423,121.567,
4780,SEEDNet,123.205.227.0/24,123.205.227.128,123-205-227-128.adsl.dynamic.seed.net.tw,success,Taiwan,Taichung City,Taichung,24.144,120.6844,
4780,SEEDNet,123.205.228.0/24,123.205.228.128,123-205-228-128.adsl.dynamic.seed.net.tw,success,Taiwan,Taichung City,Taichung,24.144,120.6844,
4780,SEEDNet,123.205.229.0/24,123.205.229.128,123-205-229-128.adsl.dynamic.seed.net.tw,success,Taiwan,Taichung City,Taichung,24.144,120.6844,
4780,SEEDNet,123.205.245.0/24,123.205.245.128,123-205-245-128.static.seed.net.tw,success,Taiwan,Taiwan,Taipei,25.0423,121.567,
4780,SEEDNet,123.205.246.0/24,123.205.246.128,123-205-246-128.static.seed.net.tw,success,Taiwan,Taiwan,Yilan,24.757,121.753,
4780,SEEDNet,123.205.249.0/24,123.205.249.128,123-205-249-128.static.seed.net.tw,success,Taiwan,Taiwan,Neihu District,25.0689,121.591,
4780,SEEDNet,123.205.250.0/24,123.205.250.128,123-205-250-128.adsl.dynamic.seed.net.tw,success,Taiwan,Taiwan,Neihu District,25.0689,121.591,
4780,SEEDNet,123.205.251.0/24,123.205.251.128,123-205-251-128.adsl.dynamic.seed.net.tw,success,Taiwan,Taiwan,Taipei,25.033,121.565,
4780,SEEDNet,123.205.252.0/24,123.205.252.128,123-205-252-128.adsl.dynamic.seed.net.tw,success,Taiwan,Taiwan,Taipei,25.0423,121.567,
4780,SEEDNet,123.205.253.0/24,123.205.253.128,123-205-253-128.adsl.dynamic.seed.net.tw,success,Taiwan,Taiwan,Neihu District,25.0689,121.591,
4780,SEEDNet,123.205.254.0/24,123.205.254.128,123-205-254-128.adsl.dynamic.seed.net.tw,success,Taiwan,Taiwan,Taipei,25.0423,121.567,
4780,SEEDNet,123.205.255.0/24,123.205.255.128,123-205-255-128.adsl.dynamic.seed.net.tw,success,Taiwan,Taiwan,Neihu District,25.0689,121.591,
4780,SEEDNet,139.175.0.0/18,139.175.32.0,,success,Taiwan,Taiwan,Taipei,25.0501,121.565,
4780,SEEDNet,139.175.0.0/16,139.175.128.0,,success,Taiwan,Taiwan,Taipei,25.0501,121.565,
4780,SEEDNet,139.175.0.0/19,139.175.16.0,,success,Taiwan,Taiwan,Taipei,25.0501,121.565,
4780,SEEDNet,139.175.1.0/24,139.175.1.128,ks1-128.dialup.seed.net.tw,success,Taiwan,Taiwan,Taipei,25.0501,121.565,
4780,SEEDNet,139.175.9.0/24,139.175.9.128,ks9-128.dialup.seed.net.tw,success,Taiwan,Taiwan,Taipei,25.0501,121.565,
4780,SEEDNet,139.175.11.0/24,139.175.11.128,,success,Taiwan,Taiwan,Taipei,25.0501,121.565,
4780,SEEDNet,139.175.24.0/24,139.175.24.128,,success,Taiwan,Taiwan,Taipei,25.0501,121.565,
4780,SEEDNet,139.175.25.0/24,139.175.25.128,,success,Taiwan,Taiwan,Taipei,25.0501,121.565,
4780,SEEDNet,139.175.32.0/19,139.175.48.0,,success,Taiwan,Taiwan,Taipei,25.0501,121.565,
4780,SEEDNet,139.175.35.0/24,139.175.35.128,,success,Taiwan,Taiwan,Taipei,25.0501,121.565,
4780,SEEDNet,139.175.36.0/24,139.175.36.128,hcnbg-128.seed.net.tw,success,Taiwan,Taiwan,Taipei,25.0501,121.565,
4780,SEEDNet,139.175.38.0/24,139.175.38.128,sh38-128.seed.net.tw,success,Taiwan,Taiwan,Taipei,25.0501,121.565,
4780,SEEDNet,139.175.39.0/24,139.175.39.128,sh39-128.seed.net.tw,success,Taiwan,Taiwan,Taipei,25.0501,121.565,
4780,SEEDNet,139.175.41.0/24,139.175.41.128,,success,Taiwan,Taiwan,Taipei,25.0423,121.567,
4780,SEEDNet,139.175.51.0/24,139.175.51.128,,success,Taiwan,Taiwan,Taipei,25.0501,121.565,
4780,SEEDNet,139.175.56.0/24,139.175.56.128,r56-128.seed.net.tw,success,Taiwan,Taiwan,Taipei,25.0501,121.565,
4780,SEEDNet,139.175.57.0/24,139.175.57.128,r57-128.seed.net.tw,success,Taiwan,Taiwan,Taipei,25.0501,121.565,
4780,SEEDNet,139.175.58.0/24,139.175.58.128,r58-128.seed.net.tw,success,Taiwan,Taiwan,Taipei,25.0501,121.565,
4780,SEEDNet,139.175.59.0/24,139.175.59.128,r59-128.seed.net.tw,success,Taiwan,Taiwan,Taipei,25.0501,121.565,
4780,SEEDNet,139.175.61.0/24,139.175.61.128,,success,Taiwan,Taiwan,Taipei,25.0501,121.565,
4780,SEEDNet,139.175.62.0/24,139.175.62.128,,success,Taiwan,Taiwan,Taipei,25.0501,121.565,
4780,SEEDNet,139.175.64.0/19,139.175.80.0,,success,Taiwan,Taiwan,Taipei,25.0501,121.565,
4780,SEEDNet,139.175.64.0/18,139.175.96.0,,success,Taiwan,Taiwan,Taipei,25.0501,121.565,
4780,SEEDNet,139.175.68.0/24,139.175.68.128,,success,Taiwan,Taiwan,Taipei,25.0501,121.565,
4780,SEEDNet,139.175.74.0/24,139.175.74.128,,success,Taiwan,Taiwan,Taipei,25.0501,121.565,
4780,SEEDNet,139.175.86.0/24,139.175.86.128,139-175-86-128.dialup.dynamic.seed.net.tw,success,Taiwan,Taiwan,Taipei,25.0501,121.565,
4780,SEEDNet,139.175.87.0/24,139.175.87.128,139-175-87-128.dialup.dynamic.seed.net.tw,success,Taiwan,Taiwan,Taipei,25.0501,121.565,
4780,SEEDNet,139.175.96.0/19,139.175.112.0,,success,Taiwan,Taiwan,Taipei,25.0501,121.565,
4780,SEEDNet,139.175.123.0/24,139.175.123.128,,success,Taiwan,Taiwan,Taipei,25.0501,121.565,
4780,SEEDNet,139.175.128.0/18,139.175.160.0,,success,Taiwan,Taiwan,Taipei,25.0501,121.565,
4780,SEEDNet,139.175.128.0/19,139.175.144.0,,success,Taiwan,Taiwan,Taipei,25.0501,121.565,
4780,SEEDNet,139.175.152.0/24,139.175.152.128,m152-128.dialup.seed.net.tw,success,Taiwan,Taiwan,Taipei,25.0501,121.565,
4780,SEEDNet,139.175.153.0/24,139.175.153.128,tc153-128.dialup.seed.net.tw,success,Taiwan,Taiwan,Taipei,25.0501,121.565,
4780,SEEDNet,139.175.154.0/24,139.175.154.128,,success,Taiwan,Taiwan,Taipei,25.0501,121.565,
4780,SEEDNet,139.175.160.0/19,139.175.176.0,,success,Taiwan,Taiwan,Taipei,25.0501,121.565,
4780,SEEDNet,139.175.164.0/22,139.175.166.0,,success,Taiwan,Taiwan,Taipei,25.0501,121.565,
4780,SEEDNet,139.175.192.0/18,139.175.224.0,,success,Taiwan,Taiwan,Taipei,25.0501,121.565,
4780,SEEDNet,139.175.192.0/19,139.175.208.0,,success,Taiwan,Taiwan,Taipei,25.0501,121.565,
4780,SEEDNet,139.175.224.0/19,139.175.240.0,tp240-0.dialup.seed.net.tw,success,Taiwan,Taiwan,Taipei,25.0501,121.565,
4780,SEEDNet,139.175.235.0/24,139.175.235.128,sj235-128.dialup.seed.net.tw,success,Taiwan,Taiwan,Taipei,25.0501,121.565,
4780,SEEDNet,139.175.236.0/24,139.175.236.128,sj236-128.dialup.seed.net.tw,success,Taiwan,Taiwan,Taipei,25.0423,121.567,
4780,SEEDNet,139.175.236.0/23,139.175.237.0,,success,Taiwan,Taiwan,Taipei,25.0423,121.567,
4780,SEEDNet,139.175.237.0/24,139.175.237.128,r237-128.seed.net.tw,success,Taiwan,Taiwan,Taipei,25.0423,121.567,
4780,SEEDNet,139.175.238.0/24,139.175.238.128,tp238-128.dialup.seed.net.tw,success,Taiwan,Taiwan,Taipei,25.0423,121.567,
4780,SEEDNet,139.175.240.0/24,139.175.240.128,tp240-128.dialup.seed.net.tw,success,Taiwan,Taiwan,Taipei,25.0501,121.565,
4780,SEEDNet,139.175.249.0/24,139.175.249.128,n249-128.seed.net.tw,success,Taiwan,Taiwan,Taipei,25.0501,121.565,
4780,SEEDNet,139.175.253.0/24,139.175.253.128,esipnbg-128.seed.net.tw,success,Taiwan,Taiwan,Taipei,25.0501,121.565,
4780,SEEDNet,175.180.0.0/19,175.180.16.0,175-180-16-0.adsl.dynamic.seed.net.tw,success,Taiwan,Tainan,Tainan City,22.9917,120.2148,
4780,SEEDNet,175.180.0.0/18,175.180.32.0,175-180-32-0.adsl.dynamic.seed.net.tw,success,Taiwan,Tainan,Tainan City,22.9917,120.2148,
4780,SEEDNet,175.180.0.0/16,175.180.128.0,175-180-128-0.adsl.dynamic.seed.net.tw,success,Taiwan,New Taipei City,New Taipei City,25.0693,121.4626,
4780,SEEDNet,175.180.64.0/19,175.180.80.0,175-180-80-0.adsl.dynamic.seed.net.tw,success,Taiwan,Taiwan,Taipei,25.0423,121.567,
4780,SEEDNet,175.180.64.0/18,175.180.96.0,175-180-96-0.adsl.dynamic.seed.net.tw,success,Taiwan,Tainan,Tainan City,22.9917,120.2148,
4780,SEEDNet,175.180.77.0/24,175.180.77.128,175-180-77-128.adsl.dynamic.seed.net.tw,success,Taiwan,Tainan,Tainan City,22.9917,120.2148,
4780,SEEDNet,175.180.79.0/24,175.180.79.128,175-180-79-128.adsl.dynamic.seed.net.tw,success,Taiwan,Tainan,Tainan City,22.9917,120.2148,
4780,SEEDNet,175.180.80.0/24,175.180.80.128,175-180-80-128.adsl.dynamic.seed.net.tw,success,Taiwan,Taiwan,Taipei,25.0423,121.567,
4780,SEEDNet,175.180.86.0/24,175.180.86.128,175-180-86-128.adsl.dynamic.seed.net.tw,success,Taiwan,Taiwan,Taipei,25.0423,121.567,
4780,SEEDNet,175.180.87.0/24,175.180.87.128,175-180-87-128.adsl.dynamic.seed.net.tw,success,Taiwan,Taiwan,Tainan City,22.9908,120.213,
4780,SEEDNet,175.180.88.0/24,175.180.88.128,175-180-88-128.adsl.dynamic.seed.net.tw,success,Taiwan,Taiwan,Taipei,25.0423,121.567,
4780,SEEDNet,175.180.99.0/24,175.180.99.128,175-180-99-128.adsl.dynamic.seed.net.tw,success,Taiwan,Tainan,Tainan City,22.9917,120.2148,
4780,SEEDNet,175.180.103.0/24,175.180.103.128,175-180-103-128.adsl.dynamic.seed.net.tw,success,Taiwan,Tainan,Tainan City,22.9917,120.2148,
4780,SEEDNet,175.180.126.0/24,175.180.126.128,175-180-126-128.adsl.dynamic.seed.net.tw,success,Taiwan,Tainan,Tainan City,22.9917,120.2148,
4780,SEEDNet,175.180.128.0/18,175.180.160.0,175-180-160-0.adsl.dynamic.seed.net.tw,success,Taiwan,Tainan,Tainan City,22.9917,120.2148,
4780,SEEDNet,175.180.128.0/24,175.180.128.128,175-180-128-128.adsl.dynamic.seed.net.tw,success,Taiwan,New Taipei City,New Taipei City,25.0693,121.4626,
4780,SEEDNet,175.180.131.0/24,175.180.131.128,175-180-131-128.adsl.dynamic.seed.net.tw,success,Taiwan,New Taipei City,New Taipei City,25.0693,121.4626,
4780,SEEDNet,175.180.134.0/24,175.180.134.128,175-180-134-128.adsl.dynamic.seed.net.tw,success,Taiwan,New Taipei City,New Taipei City,25.0693,121.4626,
4780,SEEDNet,175.180.136.0/24,175.180.136.128,175-180-136-128.adsl.dynamic.seed.net.tw,success,Taiwan,New Taipei City,New Taipei City,25.0693,121.4626,
4780,SEEDNet,175.180.139.0/24,175.180.139.128,175-180-139-128.adsl.dynamic.seed.net.tw,success,Taiwan,New Taipei City,New Taipei City,25.0693,121.4626,
4780,SEEDNet,175.180.142.0/24,175.180.142.128,175-180-142-128.adsl.dynamic.seed.net.tw,success,Taiwan,New Taipei City,New Taipei City,25.0693,121.4626,
4780,SEEDNet,175.180.143.0/24,175.180.143.128,175-180-143-128.adsl.dynamic.seed.net.tw,success,Taiwan,New Taipei City,New Taipei City,25.0693,121.4626,
4780,SEEDNet,175.180.192.0/18,175.180.224.0,175-180-224-0.adsl.dynamic.seed.net.tw,success,Taiwan,Tainan,Tainan City,22.9917,120.2148,
4780,SEEDNet,175.180.240.0/24,175.180.240.128,175-180-240-128.adsl.dynamic.seed.net.tw,success,Taiwan,Tainan,Tainan City,22.9917,120.2148,
4780,SEEDNet,175.181.0.0/16,175.181.128.0,175-181-128-0.adsl.dynamic.seed.net.tw,success,Taiwan,Hsinchu City,Hsinchu,24.8065,120.9706,
4780,SEEDNet,175.181.0.0/19,175.181.16.0,175-181-16-0.adsl.dynamic.seed.net.tw,success,Taiwan,Taoyuan,Zhongli District,24.9604,121.2392,
4780,SEEDNet,175.181.0.0/18,175.181.32.0,175-181-32-0.adsl.dynamic.seed.net.tw,success,Taiwan,Taoyuan,Zhongli District,24.9604,121.2392,
4780,SEEDNet,175.181.29.0/24,175.181.29.128,175-181-29-128.adsl.dynamic.seed.net.tw,success,Taiwan,Taoyuan,Zhongli District,24.9604,121.2392,
4780,SEEDNet,175.181.37.0/24,175.181.37.128,175-181-37-128.adsl.dynamic.seed.net.tw,success,Taiwan,Taoyuan,Zhongli District,24.9604,121.2392,
4780,SEEDNet,175.181.39.0/24,175.181.39.128,175-181-39-128.adsl.dynamic.seed.net.tw,success,Taiwan,Taoyuan,Zhongli District,24.9604,121.2392,
4780,SEEDNet,175.181.41.0/24,175.181.41.128,175-181-41-128.adsl.dynamic.seed.net.tw,success,Taiwan,Taoyuan,Zhongli District,24.9604,121.2392,
4780,SEEDNet,175.181.46.0/24,175.181.46.128,175-181-46-128.adsl.dynamic.seed.net.tw,success,Taiwan,Taoyuan,Zhongli District,24.9604,121.2392,
4780,SEEDNet,175.181.64.0/19,175.181.80.0,175-181-80-0.adsl.dynamic.seed.net.tw,success,Taiwan,Taoyuan,Zhongli District,24.9604,121.2392,
4780,SEEDNet,175.181.64.0/18,175.181.96.0,175-181-96-0.adsl.dynamic.seed.net.tw,success,Taiwan,Taoyuan,Zhongli District,24.9604,121.2392,
4780,SEEDNet,175.181.70.0/24,175.181.70.128,175-181-70-128.adsl.dynamic.seed.net.tw,success,Taiwan,Taoyuan,Zhongli District,24.9604,121.2392,
4780,SEEDNet,175.181.96.0/24,175.181.96.128,175-181-96-128.adsl.dynamic.seed.net.tw,success,Taiwan,Taoyuan,Zhongli District,24.9604,121.2392,
4780,SEEDNet,175.181.97.0/24,175.181.97.128,175-181-97-128.adsl.dynamic.seed.net.tw,success,Taiwan,Taoyuan,Zhongli District,24.9604,121.2392,
4780,SEEDNet,175.181.100.0/24,175.181.100.128,175-181-100-128.adsl.dynamic.seed.net.tw,success,Taiwan,Taoyuan,Zhongli District,24.9604,121.2392,
4780,SEEDNet,175.181.101.0/24,175.181.101.128,175-181-101-128.adsl.dynamic.seed.net.tw,success,Taiwan,Taoyuan,Zhongli District,24.9604,121.2392,
4780,SEEDNet,175.181.102.0/24,175.181.102.128,175-181-102-128.adsl.dynamic.seed.net.tw,success,Taiwan,Taoyuan,Zhongli District,24.9604,121.2392,
4780,SEEDNet,175.181.103.0/24,175.181.103.128,175-181-103-128.adsl.dynamic.seed.net.tw,success,Taiwan,Taoyuan,Zhongli District,24.9604,121.2392,
4780,SEEDNet,175.181.104.0/24,175.181.104.128,175-181-104-128.adsl.dynamic.seed.net.tw,success,Taiwan,Taoyuan,Zhongli District,24.9604,121.2392,
4780,SEEDNet,175.181.112.0/24,175.181.112.128,175-181-112-128.adsl.dynamic.seed.net.tw,success,Taiwan,Kaohsiung,Kaohsiung,22.6148,120.3139,
4780,SEEDNet,175.181.116.0/24,175.181.116.128,175-181-116-128.adsl.dynamic.seed.net.tw,success,Taiwan,Kaohsiung,Kaohsiung,22.6148,120.3139,
4780,SEEDNet,175.181.128.0/18,175.181.160.0,175-181-160-0.adsl.dynamic.seed.net.tw,success,Taiwan,Taipei City,Taipei,25.053,121.5259,
4780,SEEDNet,175.181.134.0/24,175.181.134.128,175-181-134-128.adsl.dynamic.seed.net.tw,success,Taiwan,Hsinchu City,Hsinchu,24.8065,120.9706,
4780,SEEDNet,175.181.144.0/24,175.181.144.128,175-181-144-128.adsl.dynamic.seed.net.tw,success,Taiwan,Taipei City,Taipei,25.053,121.5259,
4780,SEEDNet,175.181.145.0/24,175.181.145.128,175-181-145-128.adsl.dynamic.seed.net.tw,success,Taiwan,Taipei City,Taipei,25.053,121.5259,
4780,SEEDNet,175.181.154.0/24,175.181.154.128,175-181-154-128.adsl.dynamic.seed.net.tw,success,Taiwan,Taipei City,Taipei,25.053,121.5259,
4780,SEEDNet,175.181.157.0/24,175.181.157.128,175-181-157-128.adsl.dynamic.seed.net.tw,success,Taiwan,Taipei City,Taipei,25.053,121.5259,
4780,SEEDNet,175.181.158.0/24,175.181.158.128,175-181-158-128.adsl.dynamic.seed.net.tw,success,Taiwan,Taipei City,Taipei,25.053,121.5259,
4780,SEEDNet,175.181.159.0/24,175.181.159.128,175-181-159-128.adsl.dynamic.seed.net.tw,success,Taiwan,Taipei City,Taipei,25.053,121.5259,
4780,SEEDNet,175.181.177.0/24,175.181.177.128,175-181-177-128.adsl.dynamic.seed.net.tw,success,Taiwan,Taipei City,Taipei,25.053,121.5259,
4780,SEEDNet,175.181.178.0/24,175.181.178.128,175-181-178-128.adsl.dynamic.seed.net.tw,success,Taiwan,Taipei City,Taipei,25.053,121.5259,
4780,SEEDNet,175.181.181.0/24,175.181.181.128,175-181-181-128.adsl.dynamic.seed.net.tw,success,Taiwan,Taipei City,Taipei,25.053,121.5259,
4780,SEEDNet,175.181.182.0/24,175.181.182.128,175-181-182-128.adsl.dynamic.seed.net.tw,success,Taiwan,Taipei City,Taipei,25.053,121.5259,
4780,SEEDNet,175.181.187.0/24,175.181.187.128,175-181-187-128.adsl.dynamic.seed.net.tw,success,Taiwan,Taipei City,Taipei,25.053,121.5259,
4780,SEEDNet,175.181.192.0/18,175.181.224.0,175-181-224-0.adsl.dynamic.seed.net.tw,success,Taiwan,Taipei City,Taipei,25.053,121.5259,
4780,SEEDNet,175.181.231.0/24,175.181.231.128,175-181-231-128.adsl.dynamic.seed.net.tw,success,Taiwan,Taipei City,Taipei,25.053,121.5259,
4780,SEEDNet,175.181.232.0/24,175.181.232.128,175-181-232-128.adsl.dynamic.seed.net.tw,success,Taiwan,Taipei City,Taipei,25.053,121.5259,
4780,SEEDNet,175.181.233.0/24,175.181.233.128,175-181-233-128.adsl.dynamic.seed.net.tw,success,Taiwan,Taipei City,Taipei,25.053,121.5259,
4780,SEEDNet,175.181.243.0/24,175.181.243.128,175-181-243-128.adsl.dynamic.seed.net.tw,success,Taiwan,Tainan,Tainan City,22.9917,120.2148,
4780,SEEDNet,175.181.244.0/24,175.181.244.128,175-181-244-128.adsl.dynamic.seed.net.tw,success,Taiwan,Tainan,Tainan City,22.9917,120.2148,
4780,SEEDNet,175.182.0.0/18,175.182.32.0,175-182-32-0.adsl.dynamic.seed.net.tw,success,Taiwan,Kaohsiung,Kaohsiung,22.6148,120.3139,
4780,SEEDNet,175.182.0.0/16,175.182.128.0,175-182-128-0.adsl.dynamic.seed.net.tw,success,Taiwan,Taoyuan,Taoyuan District,24.9889,121.3176,
4780,SEEDNet,175.182.6.0/24,175.182.6.128,175-182-6-128.adsl.dynamic.seed.net.tw,success,Taiwan,Taoyuan,Taoyuan District,24.9889,121.3176,
4780,SEEDNet,175.182.7.0/24,175.182.7.128,175-182-7-128.adsl.dynamic.seed.net.tw,success,Taiwan,Taoyuan,Taoyuan District,24.9889,121.3176,
4780,SEEDNet,175.182.8.0/24,175.182.8.128,175-182-8-128.adsl.dynamic.seed.net.tw,success,Taiwan,Taoyuan,Taoyuan District,24.9889,121.3176,
4780,SEEDNet,175.182.9.0/24,175.182.9.128,175-182-9-128.adsl.dynamic.seed.net.tw,success,Taiwan,Taoyuan,Taoyuan District,24.9889,121.3176,
4780,SEEDNet,175.182.10.0/24,175.182.10.128,175-182-10-128.adsl.dynamic.seed.net.tw,success,Taiwan,Taoyuan,Taoyuan District,24.9889,121.3176,
4780,SEEDNet,175.182.12.0/24,175.182.12.128,175-182-12-128.adsl.dynamic.seed.net.tw,success,Taiwan,Taoyuan,Taoyuan District,24.9889,121.3176,
4780,SEEDNet,175.182.25.0/24,175.182.25.128,175-182-25-128.adsl.dynamic.seed.net.tw,success,Taiwan,Kaohsiung,Kaohsiung,22.6148,120.3139,
4780,SEEDNet,175.182.31.0/24,175.182.31.128,175-182-31-128.adsl.dynamic.seed.net.tw,success,Taiwan,Kaohsiung,Kaohsiung,22.6148,120.3139,
4780,SEEDNet,175.182.32.0/24,175.182.32.128,175-182-32-128.adsl.dynamic.seed.net.tw,success,Taiwan,Kaohsiung,Kaohsiung,22.6148,120.3139,
4780,SEEDNet,175.182.36.0/24,175.182.36.128,175-182-36-128.adsl.dynamic.seed.net.tw,success,Taiwan,Taichung City,Taichung,24.144,120.6844,
4780,SEEDNet,175.182.37.0/24,175.182.37.128,175-182-37-128.adsl.dynamic.seed.net.tw,success,Taiwan,Taichung City,Taichung,24.144,120.6844,
4780,SEEDNet,175.182.38.0/24,175.182.38.128,175-182-38-128.adsl.dynamic.seed.net.tw,success,Taiwan,Taichung City,Taichung,24.144,120.6844,
4780,SEEDNet,175.182.39.0/24,175.182.39.128,175-182-39-128.adsl.dynamic.seed.net.tw,success,Taiwan,Taichung City,Taichung,24.144,120.6844,
4780,SEEDNet,175.182.40.0/24,175.182.40.128,175-182-40-128.adsl.dynamic.seed.net.tw,success,Taiwan,Taichung City,Xitun,24.183,120.6419,
4780,SEEDNet,175.182.41.0/24,175.182.41.128,175-182-41-128.adsl.dynamic.seed.net.tw,success,Taiwan,Taichung City,Xitun,24.183,120.6419,
4780,SEEDNet,175.182.64.0/24,175.182.64.128,175-182-64-128.adsl.dynamic.seed.net.tw,success,Taiwan,Taipei City,Taipei,25.053,121.5259,
4780,SEEDNet,175.182.64.0/18,175.182.96.0,175-182-96-0.adsl.dynamic.seed.net.tw,success,Taiwan,Taipei City,Taipei,25.053,121.5259,
4780,SEEDNet,175.182.65.0/24,175.182.65.128,175-182-65-128.adsl.dynamic.seed.net.tw,success,Taiwan,Taipei City,Taipei,25.053,121.5259,
4780,SEEDNet,175.182.68.0/24,175.182.68.128,175-182-68-128.adsl.dynamic.seed.net.tw,success,Taiwan,Taipei City,Taipei,25.053,121.5259,
4780,SEEDNet,175.182.75.0/24,175.182.75.128,175-182-75-128.adsl.dynamic.seed.net.tw,success,Taiwan,Taipei City,Taipei,25.053,121.5259,
4780,SEEDNet,175.182.95.0/24,175.182.95.128,175-182-95-128.adsl.dynamic.seed.net.tw,success,Taiwan,Taipei City,Taipei,25.053,121.5259,
4780,SEEDNet,175.182.108.0/24,175.182.108.128,175-182-108-128.adsl.dynamic.seed.net.tw,success,Taiwan,Taipei City,Taipei,25.053,121.5259,
4780,SEEDNet,175.182.109.0/24,175.182.109.128,175-182-109-128.adsl.dynamic.seed.net.tw,success,Taiwan,Taipei City,Taipei,25.053,121.5259,
4780,SEEDNet,175.182.113.0/24,175.182.113.128,175-182-113-128.adsl.dynamic.seed.net.tw,success,Taiwan,New Taipei City,New Taipei City,25.0693,121.4626,
4780,SEEDNet,175.182.128.0/18,175.182.160.0,175-182-160-0.adsl.dynamic.seed.net.tw,success,Taiwan,Kaohsiung,Kaohsiung,22.6148,120.3139,
4780,SEEDNet,175.182.131.0/24,175.182.131.128,175-182-131-128.adsl.dynamic.seed.net.tw,success,Taiwan,Taoyuan,Taoyuan District,24.9889,121.3176,
4780,SEEDNet,175.182.132.0/24,175.182.132.128,175-182-132-128.adsl.dynamic.seed.net.tw,success,Taiwan,Taoyuan,Taoyuan District,24.9889,121.3176,
4780,SEEDNet,175.182.133.0/24,175.182.133.128,175-182-133-128.adsl.dynamic.seed.net.tw,success,Taiwan,Taoyuan,Taoyuan District,24.9889,121.3176,
4780,SEEDNet,175.182.134.0/24,175.182.134.128,175-182-134-128.adsl.dynamic.seed.net.tw,success,Taiwan,Taoyuan,Taoyuan District,24.9889,121.3176,
4780,SEEDNet,175.182.135.0/24,175.182.135.128,175-182-135-128.adsl.dynamic.seed.net.tw,success,Taiwan,Taoyuan,Taoyuan District,24.9889,121.3176,
4780,SEEDNet,175.182.136.0/24,175.182.136.128,175-182-136-128.adsl.dynamic.seed.net.tw,success,Taiwan,Taoyuan,Taoyuan District,24.9889,121.3176,
4780,SEEDNet,175.182.169.0/24,175.182.169.128,175-182-169-128.adsl.dynamic.seed.net.tw,success,Taiwan,Kaohsiung,Kaohsiung,22.6148,120.3139,
4780,SEEDNet,175.182.172.0/24,175.182.172.128,175-182-172-128.adsl.dynamic.seed.net.tw,success,Taiwan,Kaohsiung,Kaohsiung,22.6148,120.3139,
4780,SEEDNet,175.182.180.0/24,175.182.180.128,175-182-180-128.adsl.dynamic.seed.net.tw,success,Taiwan,Taipei City,Taipei,25.053,121.5259,
4780,SEEDNet,175.182.181.0/24,175.182.181.128,175-182-181-128.adsl.dynamic.seed.net.tw,success,Taiwan,Taipei City,Taipei,25.053,121.5259,
4780,SEEDNet,175.182.182.0/24,175.182.182.128,175-182-182-128.adsl.dynamic.seed.net.tw,success,Taiwan,Taipei City,Taipei,25.053,121.5259,
4780,SEEDNet,175.182.183.0/24,175.182.183.128,175-182-183-128.adsl.dynamic.seed.net.tw,success,Taiwan,Taipei City,Taipei,25.053,121.5259,
4780,SEEDNet,175.182.185.0/24,175.182.185.128,175-182-185-128.adsl.dynamic.seed.net.tw,success,Taiwan,Taipei City,Taipei,25.053,121.5259,
4780,SEEDNet,175.182.186.0/24,175.182.186.128,175-182-186-128.adsl.dynamic.seed.net.tw,success,Taiwan,Taipei City,Taipei,25.053,121.5259,
4780,SEEDNet,175.182.188.0/24,175.182.188.128,175-182-188-128.adsl.dynamic.seed.net.tw,success,Taiwan,Taipei City,Taipei,25.053,121.5259,
4780,SEEDNet,175.182.192.0/18,175.182.224.0,175-182-224-0.adsl.dynamic.seed.net.tw,success,Taiwan,Tainan,Tainan City,22.9917,120.2148,
4780,SEEDNet,175.182.198.0/24,175.182.198.128,175-182-198-128.adsl.dynamic.seed.net.tw,success,Taiwan,Tainan,Tainan City,22.9917,120.2148,
4780,SEEDNet,175.182.199.0/24,175.182.199.128,175-182-199-128.adsl.dynamic.seed.net.tw,success,Taiwan,Tainan,Tainan City,22.9917,120.2148,
4780,SEEDNet,175.182.200.0/24,175.182.200.128,175-182-200-128.adsl.dynamic.seed.net.tw,success,Taiwan,Tainan,Tainan City,22.9917,120.2148,
4780,SEEDNet,175.182.217.0/24,175.182.217.128,175-182-217-128.adsl.dynamic.seed.net.tw,success,Taiwan,Kaohsiung,Kaohsiung,22.6148,120.3139,
4780,SEEDNet,175.182.219.0/24,175.182.219.128,175-182-219-128.adsl.dynamic.seed.net.tw,success,Taiwan,Kaohsiung,Kaohsiung,22.6148,120.3139,
4780,SEEDNet,175.182.220.0/24,175.182.220.128,175-182-220-128.adsl.dynamic.seed.net.tw,success,Taiwan,Kaohsiung,Kaohsiung,22.6148,120.3139,
4780,SEEDNet,175.182.224.0/24,175.182.224.128,175-182-224-128.adsl.dynamic.seed.net.tw,success,Taiwan,Tainan,Tainan City,22.9917,120.2148,
4780,SEEDNet,175.182.227.0/24,175.182.227.128,175-182-227-128.adsl.dynamic.seed.net.tw,success,Taiwan,Tainan,Tainan City,22.9917,120.2148,
4780,SEEDNet,175.182.236.0/24,175.182.236.128,175-182-236-128.adsl.dynamic.seed.net.tw,success,Taiwan,Tainan,Tainan City,22.9917,120.2148,
4780,SEEDNet,175.182.252.0/24,175.182.252.128,175-182-252-128.adsl.dynamic.seed.net.tw,success,Taiwan,Tainan,Tainan City,22.9917,120.2148,
4780,SEEDNet,175.182.255.0/24,175.182.255.128,175-182-255-128.adsl.dynamic.seed.net.tw,success,Taiwan,Tainan,Tainan City,22.9917,120.2148,
4780,SEEDNet,175.183.0.0/17,175.183.64.0,175-183-64-0.adsl.dynamic.seed.net.tw,success,Taiwan,Nantou,Nantou City,23.9082,120.6559,
4780,SEEDNet,175.183.15.0/24,175.183.15.128,175-183-15-128.adsl.dynamic.seed.net.tw,success,Taiwan,Taiwan,Taichung,24.1182,120.679,
4780,SEEDNet,175.183.32.0/24,175.183.32.128,175-183-32-128.adsl.dynamic.seed.net.tw,success,Taiwan,Changhua,Chang-hua,24.0761,120.5648,
4780,SEEDNet,175.183.64.0/18,175.183.96.0,175-183-96-0.adsl.dynamic.seed.net.tw,success,Taiwan,Taiwan,Taipei,25.0423,121.567,
4780,SEEDNet,175.183.136.0/23,175.183.137.0,175-183-137-0.adsl.dynamic.seed.net.tw,success,Taiwan,Taiwan,Taipei,25.0423,121.567,
4780,SEEDNet,175.183.254.0/23,175.183.255.0,175-183-255-0.adsl.dynamic.seed.net.tw,success,Taiwan,Taiwan,Taipei,25.0423,121.567,
4780,SEEDNet,175.183.255.0/24,175.183.255.128,175-183-255-128.adsl.dynamic.seed.net.tw,success,Taiwan,Taiwan,Taipei,25.0423,121.567,
4780,SEEDNet,180.214.180.0/24,180.214.180.128,n180-h128.214.180.dynamic.da.net.tw,success,Taiwan,New Taipei City,New Taipei City,25.0693,121.4626,
4780,SEEDNet,192.72.4.0/22,192.72.6.0,,success,Taiwan,Taiwan,Taipei,25.0501,121.565,
4780,SEEDNet,192.72.8.0/21,192.72.12.0,h0-192-72-12.seed.net.tw,success,Taiwan,Taiwan,Neihu District,25.0689,121.591,
4780,SEEDNet,192.72.16.0/20,192.72.24.0,h0-192-72-24.seed.net.tw,success,Taiwan,Taiwan,Taipei,25.0501,121.565,
4780,SEEDNet,192.72.32.0/19,192.72.48.0,h0-192-72-48.seed.net.tw,success,Taiwan,Taiwan,Neihu District,25.0689,121.591,
4780,SEEDNet,192.72.46.0/24,192.72.46.128,h128-192-72-46.seed.net.tw,success,Taiwan,Taiwan,Neihu District,25.0689,121.591,
4780,SEEDNet,192.72.47.0/24,192.72.47.128,,success,Taiwan,Taiwan,Neihu District,25.0689,121.591,
4780,SEEDNet,192.72.49.0/24,192.72.49.128,h128-192-72-49.seed.net.tw,success,Taiwan,Taiwan,Neihu District,25.0689,121.591,
4780,SEEDNet,192.72.50.0/24,192.72.50.128,h128-192-72-50.seed.net.tw,success,Taiwan,Taiwan,Neihu District,25.0689,121.591,
4780,SEEDNet,192.72.51.0/24,192.72.51.128,h128-192-72-51.seed.net.tw,success,Taiwan,Taiwan,Neihu District,25.0689,121.591,
4780,SEEDNet,192.72.52.0/24,192.72.52.128,h128-192-72-52.seed.net.tw,success,Taiwan,Taiwan,Neihu District,25.0689,121.591,
4780,SEEDNet,192.72.53.0/24,192.72.53.128,,success,Taiwan,Taiwan,Neihu District,25.0689,121.591,
4780,SEEDNet,192.72.54.0/24,192.72.54.128,h128-192-72-54.seed.net.tw,success,Taiwan,Taiwan,Neihu District,25.0689,121.591,
4780,SEEDNet,192.72.55.0/24,192.72.55.128,h128-192-72-55.seed.net.tw,success,Taiwan,Taiwan,Neihu District,25.0689,121.591,
4780,SEEDNet,192.72.60.0/24,192.72.60.128,h128-192-72-60.seed.net.tw,success,Taiwan,Taiwan,Neihu District,25.0689,121.591,
4780,SEEDNet,192.72.61.0/24,192.72.61.128,h128-192-72-61.seed.net.tw,success,Taiwan,Taiwan,Neihu District,25.0689,121.591,
4780,SEEDNet,192.72.62.0/24,192.72.62.128,h128-192-72-62.seed.net.tw,success,Taiwan,Taiwan,Neihu District,25.0689,121.591,
4780,SEEDNet,192.72.63.0/24,192.72.63.128,h128-192-72-63.seed.net.tw,success,Taiwan,Taiwan,Neihu District,25.0689,121.591,
4780,SEEDNet,192.72.64.0/18,192.72.96.0,,success,Taiwan,Taiwan,Neihu District,25.0689,121.591,
4780,SEEDNet,192.72.64.0/19,192.72.80.0,,success,Taiwan,Taiwan,Taipei,25.0423,121.567,
4780,SEEDNet,192.72.71.0/24,192.72.71.128,sj71-128.dialup.seed.net.tw,success,Taiwan,Taiwan,Taipei,25.0423,121.567,
4780,SEEDNet,192.72.73.0/24,192.72.73.128,sj73-128.dialup.seed.net.tw,success,Taiwan,Taiwan,Taipei,25.0423,121.567,
4780,SEEDNet,192.72.74.0/24,192.72.74.128,sj74-128.dialup.seed.net.tw,success,Taiwan,Taiwan,Taipei,25.0423,121.567,
4780,SEEDNet,192.72.76.0/24,192.72.76.128,sj76-128.dialup.seed.net.tw,success,Taiwan,Taiwan,Taipei,25.0423,121.567,
4780,SEEDNet,192.72.77.0/24,192.72.77.128,192-72-77-128.dialup.dynamic.seed.net.tw,success,Taiwan,Taiwan,Taipei,25.0423,121.567,
4780,SEEDNet,192.72.79.0/24,192.72.79.128,sj79-128.dialup.seed.net.tw,success,Taiwan,Taiwan,Taipei,25.0423,121.567,
4780,SEEDNet,192.72.82.0/23,192.72.83.0,,success,Taiwan,Taiwan,Taipei,25.0423,121.567,
4780,SEEDNet,192.72.86.0/24,192.72.86.128,h128-192-72-86.seed.net.tw,success,Taiwan,Taiwan,Taipei,25.0423,121.567,
4780,SEEDNet,192.72.89.0/24,192.72.89.128,h128-192-72-89.seed.net.tw,success,Taiwan,Taiwan,Taipei,25.0423,121.567,
4780,SEEDNet,192.72.90.0/24,192.72.90.128,nn90-128.dialup.seed.net.tw,success,Taiwan,Taiwan,Taipei,25.0423,121.567,
4780,SEEDNet,192.72.96.0/19,192.72.112.0,h0-192-72-112.seed.net.tw,success,Taiwan,Taiwan,Taipei,25.0423,121.567,
4780,SEEDNet,192.72.100.0/24,192.72.100.128,,success,Taiwan,Taiwan,Neihu District,25.0689,121.591,
4780,SEEDNet,192.72.107.0/24,192.72.107.128,h128-192-72-107.seed.net.tw,success,Taiwan,Taiwan,Neihu District,25.0689,121.591,
4780,SEEDNet,192.72.108.0/24,192.72.108.128,h128-192-72-108.seed.net.tw,success,Taiwan,Taiwan,Neihu District,25.0689,121.591,
4780,SEEDNet,192.72.110.0/24,192.72.110.128,h128-192-72-110.seed.net.tw,success,Taiwan,Taiwan,Neihu District,25.0689,121.591,
4780,SEEDNet,192.72.112.0/24,192.72.112.128,h128-192-72-112.seed.net.tw,success,Taiwan,Taiwan,Taipei,25.0423,121.567,
4780,SEEDNet,192.72.120.0/24,192.72.120.128,h128-192-72-120.seed.net.tw,success,Taiwan,Taiwan,Neihu District,25.0689,121.591,
4780,SEEDNet,192.72.121.0/24,192.72.121.128,r121-128.seed.net.tw,success,Taiwan,Taiwan,Neihu District,25.0689,121.591,
4780,SEEDNet,192.72.122.0/24,192.72.122.128,r122-128.seed.net.tw,success,Taiwan,Taiwan,Neihu District,25.0689,121.591,
4780,SEEDNet,192.72.123.0/24,192.72.123.128,h128-192-72-123.seed.net.tw,success,Taiwan,Taiwan,Neihu District,25.0689,121.591,
4780,SEEDNet,192.72.125.0/24,192.72.125.128,,success,Taiwan,Taiwan,Neihu District,25.0689,121.591,
4780,SEEDNet,192.72.128.0/19,192.72.144.0,,success,Taiwan,Taiwan,Taipei,25.0423,121.567,
4780,SEEDNet,192.72.128.0/18,192.72.160.0,h0-192-72-160.seed.net.tw,success,Taiwan,Taiwan,Neihu District,25.0689,121.591,
4780,SEEDNet,192.72.130.0/24,192.72.130.128,h128-192-72-130.seed.net.tw,success,Taiwan,Taiwan,Taipei,25.0423,121.567,
4780,SEEDNet,192.72.131.0/24,192.72.131.128,,success,Taiwan,Taiwan,Taipei,25.0423,121.567,
4780,SEEDNet,192.72.133.0/24,192.72.133.128,h128-192-72-133.seed.net.tw,success,Taiwan,Taiwan,Taipei,25.0423,121.567,
4780,SEEDNet,192.72.140.0/24,192.72.140.128,h128-192-72-140.seed.net.tw,success,Taiwan,Taiwan,Taipei,25.0423,121.567,
4780,SEEDNet,192.72.141.0/24,192.72.141.128,h128-192-72-141.seed.net.tw,success,Taiwan,Taiwan,Taipei,25.0423,121.567,
4780,SEEDNet,192.72.146.0/24,192.72.146.128,h128-192-72-146.seed.net.tw,success,Taiwan,Taiwan,Taipei,25.0423,121.567,
4780,SEEDNet,192.72.148.0/24,192.72.148.128,h128-192-72-148.seed.net.tw,success,Taiwan,Taiwan,Taipei,25.0423,121.567,
4780,SEEDNet,192.72.149.0/24,192.72.149.128,h128-192-72-149.seed.net.tw,success,Taiwan,Taiwan,Taipei,25.0423,121.567,
4780,SEEDNet,192.72.151.0/24,192.72.151.128,h128-192-72-151.seed.net.tw,success,Taiwan,Taiwan,Taipei,25.0423,121.567,
4780,SEEDNet,192.72.154.0/24,192.72.154.128,h128-192-72-154.seed.net.tw,success,Taiwan,Taiwan,Neihu District,25.0689,121.591,
4780,SEEDNet,192.72.155.0/24,192.72.155.128,h128-192-72-155.seed.net.tw,success,Taiwan,Taiwan,Neihu District,25.0689,121.591,
4780,SEEDNet,192.72.168.0/24,192.72.168.128,h128-192-72-168.seed.net.tw,success,Taiwan,Taiwan,Neihu District,25.0689,121.591,
4780,SEEDNet,192.72.169.0/24,192.72.169.128,,success,Taiwan,Taiwan,Neihu District,25.0689,121.591,
4780,SEEDNet,192.72.170.0/24,192.72.170.128,,success,Taiwan,Taiwan,Neihu District,25.0689,121.591,
4780,SEEDNet,192.72.171.0/24,192.72.171.128,,success,Taiwan,Taiwan,Neihu District,25.0689,121.591,
4780,SEEDNet,192.72.172.0/24,192.72.172.128,,success,Taiwan,Taiwan,Neihu District,25.0689,121.591,
4780,SEEDNet,192.72.175.0/24,192.72.175.128,,success,Taiwan,Taiwan,Neihu District,25.0689,121.591,
4780,SEEDNet,192.72.177.0/24,192.72.177.128,,success,Taiwan,Taiwan,Neihu District,25.0689,121.591,
4780,SEEDNet,192.72.178.0/24,192.72.178.128,,success,Taiwan,Taiwan,Taipei,25.0423,121.567,
4780,SEEDNet,192.72.179.0/24,192.72.179.128,,success,Taiwan,Taiwan,Taipei,25.0423,121.567,
4780,SEEDNet,192.72.180.0/24,192.72.180.128,,success,Taiwan,Taiwan,Taipei,25.0423,121.567,
4780,SEEDNet,192.72.181.0/24,192.72.181.128,,success,Taiwan,Taiwan,Taipei,25.0423,121.567,
4780,SEEDNet,192.72.183.0/24,192.72.183.128,,success,Taiwan,Taiwan,Taipei,25.0423,121.567,
4780,SEEDNet,192.72.192.0/19,192.72.208.0,,success,Taiwan,Taiwan,Neihu District,25.0689,121.591,
4780,SEEDNet,192.72.216.0/24,192.72.216.128,,success,Taiwan,Taiwan,Neihu District,25.0689,121.591,
4780,SEEDNet,192.72.217.0/24,192.72.217.128,,success,Taiwan,Taiwan,Neihu District,25.0689,121.591,
4780,SEEDNet,192.72.218.0/24,192.72.218.128,,success,Taiwan,Taiwan,Neihu District,25.0689,121.591,
4780,SEEDNet,192.72.219.0/24,192.72.219.128,,success,Taiwan,Taiwan,Neihu District,25.0689,121.591,
4780,SEEDNet,192.72.221.0/24,192.72.221.128,,success,Taiwan,Taiwan,Neihu District,25.0689,121.591,
4780,SEEDNet,192.72.222.0/24,192.72.222.128,,success,Taiwan,Taiwan,Neihu District,25.0689,121.591,
4780,SEEDNet,192.72.223.0/24,192.72.223.128,,success,Taiwan,Taiwan,Neihu District,25.0689,121.591,
4780,SEEDNet,192.72.224.0/20,192.72.232.0,,success,Taiwan,Taiwan,Neihu District,25.0689,121.591,
4780,SEEDNet,192.72.228.0/24,192.72.228.128,,success,Taiwan,Taiwan,Taipei,25.0423,121.567,
4780,SEEDNet,192.72.229.0/24,192.72.229.128,,success,Taiwan,Taiwan,Taipei,25.0423,121.567,
4780,SEEDNet,192.72.238.0/24,192.72.238.128,,success,Taiwan,Taiwan,Neihu District,25.0689,121.591,
4780,SEEDNet,192.72.240.0/21,192.72.244.0,,success,Taiwan,Taiwan,Taipei,25.0423,121.567,
4780,SEEDNet,192.72.248.0/22,192.72.250.0,,success,Taiwan,Taiwan,Taipei,25.0423,121.567,
4780,SEEDNet,203.67.0.0/19,203.67.16.0,h0-203-67-16.seed.net.tw,success,Taiwan,Taipei City,Taipei,25.053,121.5259,
4780,SEEDNet,203.67.0.0/16,203.67.128.0,h0-203-67.yfp.com.tw,success,Taiwan,Taipei City,Taipei,25.053,121.5259,
4780,SEEDNet,203.67.0.0/18,203.67.32.0,,success,Taiwan,Taipei City,Taipei,25.053,121.5259,
4780,SEEDNet,203.67.9.0/24,203.67.9.128,,success,Taiwan,Taipei City,Taipei,25.053,121.5259,
4780,SEEDNet,203.67.32.0/19,203.67.48.0,,success,Taiwan,Taipei City,Taipei,25.053,121.5259,
4780,SEEDNet,203.67.38.0/24,203.67.38.128,,success,Taiwan,Taipei City,Taipei,25.053,121.5259,
4780,SEEDNet,203.67.58.0/24,203.67.58.128,h128-203-67-58.seed.net.tw,success,Taiwan,Taipei City,Taipei,25.053,121.5259,
4780,SEEDNet,203.67.64.0/18,203.67.96.0,203-67-96-0.adsl.dynamic.seed.net.tw,success,Taiwan,Taipei City,Taipei,25.053,121.5259,
4780,SEEDNet,203.67.64.0/19,203.67.80.0,h0-203-67-80.seed.net.tw,success,Taiwan,Taipei City,Taipei,25.053,121.5259,
4780,SEEDNet,203.67.68.0/24,203.67.68.128,h128-203-67-68.seed.net.tw,success,Taiwan,Taipei City,Taipei,25.053,121.5259,
4780,SEEDNet,203.67.96.0/19,203.67.112.0,,success,Taiwan,Taipei City,Taipei,25.053,121.5259,
4780,SEEDNet,203.67.128.0/18,203.67.160.0,203-67-160-0.adsl.dynamic.seed.net.tw,success,Taiwan,Taipei City,Taipei,25.053,121.5259,
4780,SEEDNet,203.67.128.0/19,203.67.144.0,h0-203-67-144.seed.net.tw,success,Taiwan,Taipei City,Taipei,25.053,121.5259,
4780,SEEDNet,203.67.156.0/24,203.67.156.128,203-67-156-128.adsl.dynamic.seed.net.tw,success,Taiwan,Taipei City,Taipei,25.053,121.5259,
4780,SEEDNet,203.67.160.0/19,203.67.176.0,,success,Taiwan,Taipei City,Taipei,25.053,121.5259,
4780,SEEDNet,203.67.170.0/24,203.67.170.128,h128-203-67-170.compal.com,success,Taiwan,Taipei City,Taipei,25.053,121.5259,
4780,SEEDNet,203.67.171.0/24,203.67.171.128,h128-203-67-171.seed.net.tw,success,Taiwan,Taipei City,Taipei,25.053,121.5259,
4780,SEEDNet,203.67.172.0/24,203.67.172.128,h128-203-67-172.seed.net.tw,success,Taiwan,Taipei City,Taipei,25.053,121.5259,
4780,SEEDNet,203.67.174.0/24,203.67.174.128,h128-203-67-174.seed.net.tw,success,Taiwan,Taipei City,Taipei,25.053,121.5259,
4780,SEEDNet,203.67.176.0/24,203.67.176.128,fa176-128.asiawhere.com,success,Taiwan,Taipei City,Taipei,25.053,121.5259,
4780,SEEDNet,203.67.183.0/24,203.67.183.128,128-203-67-183.dcc.com.tw,success,Taiwan,Taipei City,Taipei,25.053,121.5259,
4780,SEEDNet,203.67.192.0/18,203.67.224.0,h0-203-67-224.seed.net.tw,success,Taiwan,Taipei City,Taipei,25.053,121.5259,
4780,SEEDNet,203.67.192.0/19,203.67.208.0,,success,Taiwan,Taipei City,Taipei,25.053,121.5259,
4780,SEEDNet,203.67.212.0/24,203.67.212.128,h128-203-67-212.uscstmoea.gov.tw,success,Taiwan,Taipei City,Taipei,25.053,121.5259,
4780,SEEDNet,203.67.224.0/19,203.67.240.0,,success,Taiwan,Taipei City,Taipei,25.053,121.5259,
4780,SEEDNet,203.67.231.0/24,203.67.231.128,h128-203-67-231.seed.net.tw,success,Taiwan,Taipei City,Taipei,25.053,121.5259,
4780,SEEDNet,203.67.242.0/24,203.67.242.128,h128-203-67-242.xinetron.com.tw,success,Taiwan,Taipei City,Taipei,25.053,121.5259,
4780,SEEDNet,203.67.249.0/24,203.67.249.128,h128-203-67-249.seed.net.tw,success,Taiwan,Taipei City,Taipei,25.053,121.5259,
4780,SEEDNet,203.70.0.0/16,203.70.128.0,sw70-128-0.adsl.seed.net.tw,success,Taiwan,Hsinchu County,Zhubei,24.8351,121.0056,
4780,SEEDNet,203.70.0.0/19,203.70.16.0,,success,Taiwan,New Taipei City,Shenkeng District,24.9999,121.6171,
4780,SEEDNet,203.70.0.0/18,203.70.32.0,h0-203-70-32.network.com.tw,success,Taiwan,New Taipei City,Shenkeng District,24.9999,121.6171,
4780,SEEDNet,203.70.11.0/24,203.70.11.128,h128-203-70-11.itemking.com.tw,success,Taiwan,New Taipei City,Shenkeng District,24.9999,121.6171,
4780,SEEDNet,203.70.16.0/24,203.70.16.128,,success,Taiwan,New Taipei City,Shenkeng District,24.9999,121.6171,
4780,SEEDNet,203.70.17.0/24,203.70.17.128,,success,Taiwan,New Taipei City,Shenkeng District,24.9999,121.6171,
4780,SEEDNet,203.70.21.0/24,203.70.21.128,h128-203-70-21.xerox.com.tw,success,Taiwan,New Taipei City,Shenkeng District,24.9999,121.6171,
4780,SEEDNet,203.70.32.0/19,203.70.48.0,sw70-48-0.adsl.dynamic.seed.net.tw,success,Taiwan,New Taipei City,Shenkeng District,24.9999,121.6171,
4780,SEEDNet,203.70.43.0/24,203.70.43.128,,success,Taiwan,New Taipei City,Shenkeng District,24.9999,121.6171,
4780,SEEDNet,203.70.64.0/18,203.70.96.0,,success,Taiwan,New Taipei City,Shenkeng District,24.9999,121.6171,
4780,SEEDNet,203.70.64.0/19,203.70.80.0,h0-203-70-80.seed.net.tw,success,Taiwan,New Taipei City,Shenkeng District,24.9999,121.6171,
4780,SEEDNet,203.70.96.0/19,203.70.112.0,,success,Taiwan,New Taipei City,Shenkeng District,24.9999,121.6171,
4780,SEEDNet,203.70.119.0/24,203.70.119.128,,success,Taiwan,New Taipei City,Shenkeng District,24.9999,121.6171,
4780,SEEDNet,203.70.128.0/19,203.70.144.0,sw70-144-0.adsl.dynamic.seed.net.tw,success,Taiwan,Hsinchu County,Zhubei,24.8351,121.0056,
4780,SEEDNet,203.70.128.0/18,203.70.160.0,203-70-160-0.adsl.dynamic.seed.net.tw,success,Taiwan,Hsinchu County,Zhubei,24.8351,121.0056,
4780,SEEDNet,203.70.135.0/24,203.70.135.128,h128-203-70-135.seed.net.tw,success,Taiwan,Hsinchu County,Zhubei,24.8351,121.0056,
4780,SEEDNet,203.70.160.0/19,203.70.176.0,,success,Taiwan,Hsinchu County,Zhubei,24.8351,121.0056,
4780,SEEDNet,203.70.163.0/24,203.70.163.128,,success,Taiwan,Hsinchu County,Zhubei,24.8351,121.0056,
4780,SEEDNet,203.70.185.0/24,203.70.185.128,h128-203-70-185.seed.net.tw,success,Taiwan,Hsinchu County,Zhubei,24.8351,121.0056,
4780,SEEDNet,203.70.192.0/18,203.70.224.0,h0-203-70-224.seed.net.tw,success,Taiwan,Hsinchu County,Zhubei,24.8351,121.0056,
4780,SEEDNet,203.70.192.0/19,203.70.208.0,203-70-208-0.adsl.static.seed.net.tw,success,Taiwan,Hsinchu County,Zhubei,24.8351,121.0056,
4780,SEEDNet,203.70.194.0/24,203.70.194.128,h128-203-70-194.adlink.com.tw,success,Taiwan,Hsinchu County,Zhubei,24.8351,121.0056,
4780,SEEDNet,203.70.208.0/24,203.70.208.128,203-70-208-128.adsl.static.seed.net.tw,success,Taiwan,Hsinchu County,Zhubei,24.8351,121.0056,
4780,SEEDNet,203.70.214.0/24,203.70.214.128,h128-203-70-214.futis.com.tw,success,Taiwan,Hsinchu County,Zhubei,24.8351,121.0056,
4780,SEEDNet,203.70.224.0/19,203.70.240.0,203-70-240-0.adsl.dynamic.seed.net.tw,success,Taiwan,Hsinchu County,Zhubei,24.8351,121.0056,
4780,SEEDNet,203.70.224.0/24,203.70.224.128,h128-203-70-224.seed.net.tw,success,Taiwan,Hsinchu County,Zhubei,24.8351,121.0056,
4780,SEEDNet,203.70.231.0/24,203.70.231.128,203-70-231-128.trendtek.com.tw,success,Taiwan,Hsinchu County,Zhubei,24.8351,121.0056,
4780,SEEDNet,203.73.0.0/18,203.73.32.0,h0-203-73-32.itctwn.com.tw,success,Taiwan,Taiwan,Taipei,25.0501,121.565,
4780,SEEDNet,203.73.0.0/16,203.73.128.0,h0-203-73-128.seed.net.tw,success,Taiwan,Hsinchu County,Zhubei,24.8351,121.0056,
4780,SEEDNet,203.73.0.0/19,203.73.16.0,203-73-16-0.adsl.dynamic.seed.net.tw,success,Taiwan,Taiwan,Taipei,25.0423,121.567,
4780,SEEDNet,203.73.3.0/24,203.73.3.128,h128-203-73-3.seed.net.tw,success,Taiwan,Taiwan,Taipei,25.0501,121.565,
4780,SEEDNet,203.73.21.0/24,203.73.21.128,,success,Taiwan,Taiwan,Taipei,25.033,121.565,
4780,SEEDNet,203.73.25.0/24,203.73.25.128,,success,Taiwan,Taiwan,Taipei,25.0501,121.565,
4780,SEEDNet,203.73.32.0/19,203.73.48.0,203-73-48-0.adsl.dynamic.seed.net.tw,success,Taiwan,Taiwan,Taipei,25.0423,121.567,
4780,SEEDNet,203.73.62.0/24,203.73.62.128,utm.cambus.com.tw,success,Taiwan,Taiwan,Taipei,25.0501,121.565,
4780,SEEDNet,203.73.64.0/24,203.73.64.128,h128-203-73-64.seed.net.tw,success,Taiwan,Taipei,Xizhi District,25.0662,121.66,
4780,SEEDNet,203.73.64.0/18,203.73.96.0,,success,Taiwan,Taiwan,Taipei,25.0501,121.565,
4780,SEEDNet,203.73.64.0/19,203.73.80.0,sw73-80-0.adsl.dynamic.seed.net.tw,success,Taiwan,Taiwan,Taipei,25.0501,121.565,
4780,SEEDNet,203.73.83.0/24,203.73.83.128,compus.com.tw,success,Taiwan,Taiwan,Taipei,25.0501,121.565,
4780,SEEDNet,203.73.94.0/24,203.73.94.128,h128-203-73-94.seed.net.tw,success,Taiwan,Taiwan,Taipei,25.0501,121.565,
4780,SEEDNet,203.73.96.0/19,203.73.112.0,203-73-112-0.static.seed.net.tw,success,Taiwan,Taiwan,Taipei,25.0501,121.565,
4780,SEEDNet,203.73.96.0/24,203.73.96.128,,success,Taiwan,Taiwan,Taipei,25.0501,121.565,
4780,SEEDNet,203.73.110.0/24,203.73.110.128,,success,Taiwan,Taiwan,Taipei,25.033,121.565,
4780,SEEDNet,203.73.112.0/24,203.73.112.128,203-73-112-128.static.seed.net.tw,success,Taiwan,Taiwan,Taipei,25.0501,121.565,
4780,SEEDNet,203.73.128.0/18,203.73.160.0,h0-203-73-160.seed.net.tw,success,Taiwan,Hsinchu County,Zhubei,24.8351,121.0056,
4780,SEEDNet,203.73.128.0/19,203.73.144.0,203-73-144-0.adsl.dynamic.seed.net.tw,success,Taiwan,Hsinchu County,Zhubei,24.8351,121.0056,
4780,SEEDNet,203.73.131.0/24,203.73.131.128,h128-203-73-131.seed.net.tw,success,Taiwan,Hsinchu County,Zhubei,24.8351,121.0056,
4780,SEEDNet,203.73.157.0/24,203.73.157.128,,success,Taiwan,Hsinchu County,Zhubei,24.8351,121.0056,
4780,SEEDNet,203.73.160.0/19,203.73.176.0,,success,Taiwan,Hsinchu County,Zhubei,24.8351,121.0056,
4780,SEEDNet,203.73.169.0/24,203.73.169.128,,success,Taiwan,Hsinchu County,Zhubei,24.8351,121.0056,
4780,SEEDNet,203.73.192.0/19,203.73.208.0,h0-203-73-208.seed.net.tw,success,Taiwan,Taipei City,Taipei,25.053,121.5259,
4780,SEEDNet,203.73.192.0/18,203.73.224.0,203-73-224-0.adsl.dynamic.seed.net.tw,success,Taiwan,Taipei City,Taipei,25.053,121.5259,
4780,SEEDNet,203.73.224.0/19,203.73.240.0,h0-203-73-240.dayshine.com.tw,success,Taiwan,Taipei City,Taipei,25.053,121.5259,
4780,SEEDNet,203.73.226.0/24,203.73.226.128,h128-203-73-226.seed.net.tw,success,Taiwan,Taipei City,Taipei,25.053,121.5259,
4780,SEEDNet,203.73.234.0/24,203.73.234.128,h128-203-73-234.adsl.dynamic.seed.net.tw,success,Taiwan,Taipei City,Taipei,25.053,121.5259,
4780,SEEDNet,203.73.238.0/24,203.73.238.128,h128-203-73-238.seed.net.tw,success,Taiwan,Taipei City,Taipei,25.053,121.5259,
4780,SEEDNet,210.64.0.0/16,210.64.128.0,210-64-128-0.adsl.dynamic.seed.net.tw,success,Taiwan,Taoyuan,Taoyuan District,24.9889,121.3176,
4780,SEEDNet,210.64.0.0/19,210.64.16.0,210-64-16-0.static.seed.net.tw,success,Taiwan,Taiwan,Taipei,25.0501,121.565,
4780,SEEDNet,210.64.0.0/18,210.64.32.0,210-64-32-0.adsl.dynamic.seed.net.tw,success,Taiwan,Taiwan,Taipei,25.0501,121.565,
4780,SEEDNet,210.64.8.0/24,210.64.8.128,h128-210-64-8.seed.net.tw,success,Taiwan,Taiwan,Taipei,25.033,121.565,
4780,SEEDNet,210.64.9.0/24,210.64.9.128,,success,Taiwan,Taiwan,Taipei,25.033,121.565,
4780,SEEDNet,210.64.18.0/24,210.64.18.128,210-64-18-128.adsl.dynamic.seed.net.tw,success,Taiwan,Taiwan,Taipei,25.0501,121.565,
4780,SEEDNet,210.64.24.0/24,210.64.24.128,,success,Taiwan,Taiwan,Taipei,25.033,121.565,
4780,SEEDNet,210.64.32.0/19,210.64.48.0,210-64-48-0.adsl.dynamic.seed.net.tw,success,Taiwan,Taiwan,Taipei,25.033,121.565,
4780,SEEDNet,210.64.49.0/24,210.64.49.128,210-64-49-128.adsl.dynamic.seed.net.tw,success,Taiwan,Taiwan,Taipei,25.033,121.565,
4780,SEEDNet,210.64.53.0/24,210.64.53.128,210-64-53-128.adsl.static.seed.net.tw,success,Taiwan,Taiwan,Taipei,25.0501,121.565,
4780,SEEDNet,210.64.64.0/19,210.64.80.0,h0-210-64-80.seed.net.tw,success,Taiwan,Taiwan,Taipei,25.0501,121.565,
4780,SEEDNet,210.64.64.0/18,210.64.96.0,210-64-96-0.adsl.dynamic.seed.net.tw,success,Taiwan,Tainan,Yongkang District,23.0204,120.2591,
4780,SEEDNet,210.64.69.0/24,210.64.69.128,sw64-69-128.adsl.seed.net.tw,success,Taiwan,Taiwan,Taipei,25.0501,121.565,
4780,SEEDNet,210.64.96.0/19,210.64.112.0,,success,Taiwan,Taiwan,Taipei,25.0423,121.567,
4780,SEEDNet,210.64.124.0/24,210.64.124.128,h128-210-64-124.seed.net.tw,success,Taiwan,Taiwan,Taipei,25.0501,121.565,
4780,SEEDNet,210.64.128.0/18,210.64.160.0,,success,Taiwan,Taoyuan,Taoyuan District,24.9889,121.3176,
4780,SEEDNet,210.64.128.0/19,210.64.144.0,h0-210-64-144.seed.net.tw,success,Taiwan,Taoyuan,Taoyuan District,24.9889,121.3176,
4780,SEEDNet,210.64.146.0/24,210.64.146.128,,success,Taiwan,Taoyuan,Taoyuan District,24.9889,121.3176,
4780,SEEDNet,210.64.160.0/19,210.64.176.0,210-64-176-0.adsl.dynamic.seed.net.tw,success,Taiwan,Taoyuan,Taoyuan District,24.9889,121.3176,
4780,SEEDNet,210.64.169.0/24,210.64.169.128,210-64-169-128.adsl.dynamic.seed.net.tw,success,Taiwan,Taoyuan,Taoyuan District,24.9889,121.3176,
4780,SEEDNet,210.64.170.0/24,210.64.170.128,210-64-170-128.urnetlink.com,success,Taiwan,Taoyuan,Taoyuan District,24.9889,121.3176,
4780,SEEDNet,210.64.189.0/24,210.64.189.128,h128-210-64-189.seed.net.tw,success,Taiwan,Taoyuan,Taoyuan District,24.9889,121.3176,
4780,SEEDNet,210.64.192.0/19,210.64.208.0,h0-210-64-208.or.com.tw,success,Taiwan,Taoyuan,Taoyuan District,24.9889,121.3176,
4780,SEEDNet,210.64.192.0/18,210.64.224.0,h0-210-64-224.seed.net.tw,success,Taiwan,Taoyuan,Taoyuan District,24.9889,121.3176,
4780,SEEDNet,210.64.214.0/24,210.64.214.128,h128-210-64-214.seed.net.tw,success,Taiwan,Taoyuan,Taoyuan District,24.9889,121.3176,
4780,SEEDNet,210.64.215.0/24,210.64.215.128,,success,Taiwan,Taoyuan,Taoyuan District,24.9889,121.3176,
4780,SEEDNet,210.64.216.0/24,210.64.216.128,,success,Taiwan,Taoyuan,Taoyuan District,24.9889,121.3176,
4780,SEEDNet,210.64.224.0/19,210.64.240.0,,success,Taiwan,Taoyuan,Taoyuan District,24.9889,121.3176,
4780,SEEDNet,210.66.0.0/19,210.66.16.0,,success,Taiwan,Chiyayi County,Chiyayi County,23.4633,120.5817,
4780,SEEDNet,210.66.0.0/16,210.66.128.0,h210-66-128-0.host-dial.seed.net.tw,success,Taiwan,Chiayi,Chiayi City,23.4815,120.4498,
4780,SEEDNet,210.66.0.0/18,210.66.32.0,h0-210-66-32.seed.net.tw,success,Taiwan,Chiyayi County,Chiyayi County,23.4633,120.5817,
4780,SEEDNet,210.66.32.0/19,210.66.48.0,h0-210-66-48.seed.net.tw,success,Taiwan,Chiyayi County,Chiyayi County,23.4633,120.5817,
4780,SEEDNet,210.66.46.0/24,210.66.46.128,,success,Taiwan,Chiyayi County,Chiyayi County,23.4633,120.5817,
4780,SEEDNet,210.66.47.0/24,210.66.47.128,h128-210-66-47.seed.net.tw,success,Taiwan,Chiyayi County,Chiyayi County,23.4633,120.5817,
4780,SEEDNet,210.66.48.0/22,210.66.50.0,,success,Taiwan,Chiyayi County,Chiyayi County,23.4633,120.5817,
4780,SEEDNet,210.66.48.0/24,210.66.48.128,h128-210-66-48.seed.net.tw,success,Taiwan,Chiyayi County,Chiyayi County,23.4633,120.5817,
4780,SEEDNet,210.66.49.0/24,210.66.49.128,h128-210-66-49.seed.net.tw,success,Taiwan,Chiyayi County,Chiyayi County,23.4633,120.5817,
4780,SEEDNet,210.66.50.0/24,210.66.50.128,,success,Taiwan,Chiyayi County,Chiyayi County,23.4633,120.5817,
4780,SEEDNet,210.66.51.0/24,210.66.51.128,,success,Taiwan,Chiyayi County,Chiyayi County,23.4633,120.5817,
4780,SEEDNet,210.66.53.0/24,210.66.53.128,,success,Taiwan,Chiyayi County,Chiyayi County,23.4633,120.5817,
4780,SEEDNet,210.66.64.0/22,210.66.66.0,sw66-66-0.adsl.dynamic.seed.net.tw,success,Taiwan,Chiayi,Chiayi City,23.4815,120.4498,
4780,SEEDNet,210.66.64.0/18,210.66.96.0,h0-210-66-96.compal.com,success,Taiwan,Chiayi,Chiayi City,23.4815,120.4498,
4780,SEEDNet,210.66.64.0/19,210.66.80.0,210-66-80-0.adsl.dynamic.seed.net.tw,success,Taiwan,Chiayi,Chiayi City,23.4815,120.4498,
4780,SEEDNet,210.66.64.0/24,210.66.64.128,sw66-64-128.adsl.seed.net.tw,success,Taiwan,Chiayi,Chiayi City,23.4815,120.4498,
4780,SEEDNet,210.66.65.0/24,210.66.65.128,sw66-65-128.adsl.seed.net.tw,success,Taiwan,Chiayi,Chiayi City,23.4815,120.4498,
4780,SEEDNet,210.66.66.0/24,210.66.66.128,sw66-66-128.adsl.dynamic.seed.net.tw,success,Taiwan,Chiayi,Chiayi City,23.4815,120.4498,
4780,SEEDNet,210.66.67.0/24,210.66.67.128,sw66-67-128.adsl.seed.net.tw,success,Taiwan,Chiayi,Chiayi City,23.4815,120.4498,
4780,SEEDNet,210.66.88.0/22,210.66.90.0,sw66-90-0.adsl.seed.net.tw,success,Taiwan,Chiayi,Chiayi City,23.4815,120.4498,
4780,SEEDNet,210.66.88.0/24,210.66.88.128,210-66-88-128.adsl.dynamic.seed.net.tw,success,Taiwan,Chiayi,Chiayi City,23.4815,120.4498,
4780,SEEDNet,210.66.89.0/24,210.66.89.128,210-66-89-128.adsl.dynamic.seed.net.tw,success,Taiwan,Chiayi,Chiayi City,23.4815,120.4498,
4780,SEEDNet,210.66.90.0/24,210.66.90.128,sw66-90-128.adsl.seed.net.tw,success,Taiwan,Chiayi,Chiayi City,23.4815,120.4498,
4780,SEEDNet,210.66.91.0/24,210.66.91.128,210-66-91-128.adsl.dynamic.seed.net.tw,success,Taiwan,Chiayi,Chiayi City,23.4815,120.4498,
4780,SEEDNet,210.66.92.0/22,210.66.94.0,210-66-94-0.adsl.dynamic.seed.net.tw,success,Taiwan,Chiayi,Chiayi City,23.4815,120.4498,
4780,SEEDNet,210.66.92.0/24,210.66.92.128,210-66-92-128.adsl.dynamic.seed.net.tw,success,Taiwan,Chiayi,Chiayi City,23.4815,120.4498,
4780,SEEDNet,210.66.93.0/24,210.66.93.128,210-66-93-128.adsl.dynamic.seed.net.tw,success,Taiwan,Chiayi,Chiayi City,23.4815,120.4498,
4780,SEEDNet,210.66.94.0/24,210.66.94.128,210-66-94-128.adsl.dynamic.seed.net.tw,success,Taiwan,Chiayi,Chiayi City,23.4815,120.4498,
4780,SEEDNet,210.66.95.0/24,210.66.95.128,210-66-95-128.adsl.dynamic.seed.net.tw,success,Taiwan,Chiayi,Chiayi City,23.4815,120.4498,
4780,SEEDNet,210.66.96.0/19,210.66.112.0,h0-210-66-112.ttch.com.tw,success,Taiwan,Chiayi,Chiayi City,23.4815,120.4498,
4780,SEEDNet,210.66.99.0/24,210.66.99.128,h128-210-66-99.rechi.com,success,Taiwan,Chiayi,Chiayi City,23.4815,120.4498,
4780,SEEDNet,210.66.102.0/24,210.66.102.128,,success,Taiwan,Chiayi,Chiayi City,23.4815,120.4498,
4780,SEEDNet,210.66.104.0/24,210.66.104.128,,success,Taiwan,Chiayi,Chiayi City,23.4815,120.4498,
4780,SEEDNet,210.66.104.0/22,210.66.106.0,,success,Taiwan,Chiayi,Chiayi City,23.4815,120.4498,
4780,SEEDNet,210.66.105.0/24,210.66.105.128,,success,Taiwan,Chiayi,Chiayi City,23.4815,120.4498,
4780,SEEDNet,210.66.106.0/24,210.66.106.128,,success,Taiwan,Chiayi,Chiayi City,23.4815,120.4498,
4780,SEEDNet,210.66.107.0/24,210.66.107.128,h128-210-66-107.seed.net.tw,success,Taiwan,Chiayi,Chiayi City,23.4815,120.4498,
4780,SEEDNet,210.66.128.0/19,210.66.144.0,h0-210-66-144.seed.net.tw,success,Taiwan,Chiyayi County,Chiyayi County,23.4633,120.5817,
4780,SEEDNet,210.66.128.0/24,210.66.128.128,h210-66-128-128.host-dial.seed.net.tw,success,Taiwan,Chiayi,Chiayi City,23.4815,120.4498,
4780,SEEDNet,210.66.128.0/22,210.66.130.0,210-66-130-0.adsl.dynamic.seed.net.tw,success,Taiwan,Chiayi,Chiayi City,23.4815,120.4498,
4780,SEEDNet,210.66.128.0/18,210.66.160.0,h0-210-66-160.seed.net.tw,success,Taiwan,Chiyayi County,Chiyayi County,23.4633,120.5817,
4780,SEEDNet,210.66.129.0/24,210.66.129.128,210-66-129-128.adsl.dynamic.seed.net.tw,success,Taiwan,Chiayi,Chiayi City,23.4815,120.4498,
4780,SEEDNet,210.66.130.0/24,210.66.130.128,210-66-130-128.adsl.dynamic.seed.net.tw,success,Taiwan,Chiayi,Chiayi City,23.4815,120.4498,
4780,SEEDNet,210.66.131.0/24,210.66.131.128,210-66-131-128.adsl.dynamic.seed.net.tw,success,Taiwan,Chiayi,Chiayi City,23.4815,120.4498,
4780,SEEDNet,210.66.132.0/22,210.66.134.0,h210-66-134-0.host-dial.seed.net.tw,success,Taiwan,Chiayi,Chiayi City,23.4815,120.4498,
4780,SEEDNet,210.66.136.0/22,210.66.138.0,210-66-138-0.adsl.dynamic.seed.net.tw,success,Taiwan,Chiayi,Chiayi City,23.4815,120.4498,
4780,SEEDNet,210.66.160.0/19,210.66.176.0,h0-210-66-176.seed.net.tw,success,Taiwan,Chiyayi County,Chiyayi County,23.4633,120.5817,
4780,SEEDNet,210.66.164.0/22,210.66.166.0,,success,Taiwan,Chiyayi County,Chiyayi County,23.4633,120.5817,
4780,SEEDNet,210.66.168.0/22,210.66.170.0,h0-210-66-170.ndc.com.tw,success,Taiwan,Chiyayi County,Chiyayi County,23.4633,120.5817,
4780,SEEDNet,210.66.174.0/24,210.66.174.128,,success,Taiwan,Chiyayi County,Chiyayi County,23.4633,120.5817,
4780,SEEDNet,210.66.176.0/24,210.66.176.128,h128-210-66-176.seed.net.tw,success,Taiwan,Chiyayi County,Chiyayi County,23.4633,120.5817,
4780,SEEDNet,210.66.177.0/24,210.66.177.128,,success,Taiwan,Chiyayi County,Chiyayi County,23.4633,120.5817,
4780,SEEDNet,210.66.191.0/24,210.66.191.128,h128-210-66-191.seed.net.tw,success,Taiwan,Chiyayi County,Chiyayi County,23.4633,120.5817,
4780,SEEDNet,210.66.192.0/19,210.66.208.0,,success,Taiwan,Chiyayi County,Chiyayi County,23.4633,120.5817,
4780,SEEDNet,210.66.192.0/18,210.66.224.0,h0-210-66-224.seed.net.tw,success,Taiwan,Chiyayi County,Chiyayi County,23.4633,120.5817,
4780,SEEDNet,210.66.193.0/24,210.66.193.128,,success,Taiwan,Chiyayi County,Chiyayi County,23.4633,120.5817,
4780,SEEDNet,210.66.207.0/24,210.66.207.128,h128-210-66-207.seed.net.tw,success,Taiwan,Chiyayi County,Chiyayi County,23.4633,120.5817,
4780,SEEDNet,210.66.219.0/24,210.66.219.128,h128-210-66-219.static.seed.net.tw,success,Taiwan,Chiyayi County,Chiyayi County,23.4633,120.5817,
4780,SEEDNet,210.66.224.0/19,210.66.240.0,,success,Taiwan,Chiyayi County,Chiyayi County,23.4633,120.5817,
4780,SEEDNet,210.66.225.0/24,210.66.225.128,,success,Taiwan,Chiyayi County,Chiyayi County,23.4633,120.5817,
4780,SEEDNet,210.66.244.0/22,210.66.246.0,210-66-246-0.adsl.dynamic.seed.net.tw,success,Taiwan,Chiyayi County,Chiyayi County,23.4633,120.5817,
4780,SEEDNet,210.66.248.0/22,210.66.250.0,h0-210-66-250.seed.net.tw,success,Taiwan,Chiyayi County,Chiyayi County,23.4633,120.5817,
4780,SEEDNet,210.68.0.0/16,210.68.128.0,210-68-128-0.adsl.dynamic.seed.net.tw,success,Taiwan,Taipei City,Taipei,25.053,121.5259,
4780,SEEDNet,210.68.0.0/18,210.68.32.0,210-68-32-0.adsl.dynamic.seed.net.tw,success,Taiwan,Taipei City,Neihu District,25.0811,121.5839,
4780,SEEDNet,210.68.0.0/19,210.68.16.0,210-68-16-0.static.seed.net.tw,success,Taiwan,Taipei City,Taipei,25.053,121.5259,
4780,SEEDNet,210.68.1.0/24,210.68.1.128,h128-210-68-1.seed.net.tw,success,Taiwan,Taipei City,Taipei,25.053,121.5259,
4780,SEEDNet,210.68.18.0/24,210.68.18.128,210-68-18-128.farglory.com.tw,success,Taiwan,Taipei City,Taipei,25.053,121.5259,
4780,SEEDNet,210.68.19.0/24,210.68.19.128,210-68-19-128.adsl.dynamic.seed.net.tw,success,Taiwan,Taipei City,Taipei,25.053,121.5259,
4780,SEEDNet,210.68.32.0/19,210.68.48.0,210-68-48-0.idc.seed.net.tw,success,Taiwan,Taipei City,Taipei,25.053,121.5259,
4780,SEEDNet,210.68.40.0/24,210.68.40.128,sw68-40-128.adsl.seed.net.tw,success,Taiwan,Taipei City,Neihu District,25.0811,121.5839,
4780,SEEDNet,210.68.57.0/24,210.68.57.128,,success,Taiwan,Taipei City,Taipei,25.053,121.5259,
4780,SEEDNet,210.68.64.0/19,210.68.80.0,210-68-80-0.adsl.dynamic.seed.net.tw,success,Taiwan,Taipei City,Taipei,25.053,121.5259,
4780,SEEDNet,210.68.64.0/18,210.68.96.0,h0-210-68-96.seed.net.tw,success,Taiwan,Taipei City,Taipei,25.053,121.5259,
4780,SEEDNet,210.68.65.0/24,210.68.65.128,210-68-65-128.adsl.dynamic.seed.net.tw,success,Taiwan,Taipei City,Taipei,25.053,121.5259,
4780,SEEDNet,210.68.68.0/24,210.68.68.128,210-68-68-128.adsl.dynamic.seed.net.tw,success,Taiwan,Taipei City,Taipei,25.053,121.5259,
4780,SEEDNet,210.68.74.0/24,210.68.74.128,210-68-74-128.adsl.dynamic.seed.net.tw,success,Taiwan,Taipei City,Taipei,25.053,121.5259,
4780,SEEDNet,210.68.77.0/24,210.68.77.128,h128-210-68-77.seed.net.tw,success,Taiwan,Taipei City,Taipei,25.053,121.5259,
4780,SEEDNet,210.68.79.0/24,210.68.79.128,210-68-79-128.adsl.dynamic.seed.net.tw,success,Taiwan,Taipei City,Taipei,25.053,121.5259,
4780,SEEDNet,210.68.80.0/24,210.68.80.128,210-68-80-128.adsl.dynamic.seed.net.tw,success,Taiwan,Taipei City,Taipei,25.053,121.5259,
4780,SEEDNet,210.68.81.0/24,210.68.81.128,h128-210-68-81.yfy.com.tw,success,Taiwan,Taipei City,Taipei,25.053,121.5259,
4780,SEEDNet,210.68.95.0/24,210.68.95.128,h128-210-68-95.seed.net.tw,success,Taiwan,Taipei City,Taipei,25.053,121.5259,
4780,SEEDNet,210.68.96.0/19,210.68.112.0,210-68-112-0.adsl.dynamic.seed.net.tw,success,Taiwan,Taipei City,Taipei,25.053,121.5259,
4780,SEEDNet,210.68.122.0/24,210.68.122.128,,success,Taiwan,Taipei City,Taipei,25.053,121.5259,
4780,SEEDNet,210.68.123.0/24,210.68.123.128,210-68-123-128.adsl.dynamic.seed.net.tw,success,Taiwan,Taipei City,Taipei,25.053,121.5259,
4780,SEEDNet,210.68.128.0/19,210.68.144.0,210-68-144-0.static.seed.net.tw,success,Taiwan,Taipei City,Taipei,25.053,121.5259,
4780,SEEDNet,210.68.128.0/18,210.68.160.0,h0-210-68-160.seed.net.tw,success,Taiwan,Taipei City,Taipei,25.053,121.5259,
4780,SEEDNet,210.68.132.0/24,210.68.132.128,210-68-132-128.adsl.dynamic.seed.net.tw,success,Taiwan,Taipei City,Taipei,25.053,121.5259,
4780,SEEDNet,210.68.138.0/24,210.68.138.128,,success,Taiwan,Taipei City,Taipei,25.053,121.5259,
4780,SEEDNet,210.68.144.0/24,210.68.144.128,210-68-144-128.static.seed.net.tw,success,Taiwan,Taipei City,Taipei,25.053,121.5259,
4780,SEEDNet,210.68.145.0/24,210.68.145.128,h128-210-68-145.seed.net.tw,success,Taiwan,Taipei City,Taipei,25.053,121.5259,
4780,SEEDNet,210.68.148.0/24,210.68.148.128,210-68-148-128.static.seed.net.tw,success,Taiwan,Taipei City,Taipei,25.053,121.5259,
4780,SEEDNet,210.68.149.0/24,210.68.149.128,h128-210-68-149.seed.net.tw,success,Taiwan,Taipei City,Taipei,25.053,121.5259,
4780,SEEDNet,210.68.160.0/19,210.68.176.0,,success,Taiwan,Taipei City,Taipei,25.053,121.5259,
4780,SEEDNet,210.68.186.0/24,210.68.186.128,h128-210-68-186.seed.net.tw,success,Taiwan,Taipei City,Taipei,25.053,121.5259,
4780,SEEDNet,210.68.192.0/19,210.68.208.0,,success,Taiwan,Taipei City,Taipei,25.053,121.5259,
4780,SEEDNet,210.68.192.0/18,210.68.224.0,h0-210-68-224.olitopks.com.tw,success,Taiwan,Taipei City,Taipei,25.053,121.5259,
4780,SEEDNet,210.68.203.0/24,210.68.203.128,210-68-203-128.adsl.dynamic.seed.net.tw,success,Taiwan,Taipei City,Taipei,25.053,121.5259,
4780,SEEDNet,210.68.221.0/24,210.68.221.128,,success,Taiwan,Taipei City,Taipei,25.053,121.5259,
4780,SEEDNet,210.68.224.0/19,210.68.240.0,,success,Taiwan,Taipei City,Taipei,25.053,121.5259,
4780,SEEDNet,210.68.245.0/24,210.68.245.128,h128-210-68-245.seed.net.tw,success,Taiwan,Taipei City,Taipei,25.053,121.5259,
4780,SEEDNet,210.85.0.0/22,210.85.2.0,210-85-2-0.cm.dynamic.apol.com.tw,success,Taiwan,Taiwan,Taipei,25.0501,121.565,
4780,SEEDNet,210.243.128.0/19,210.243.144.0,h0-210-243-144.standard.com.tw,success,Taiwan,New Taipei City,New Taipei City,25.0693,121.4626,
4780,SEEDNet,210.243.128.0/17,210.243.192.0,h0-210-243-192.seed.net.tw,success,Taiwan,Hsinchu County,Hsinchu County,24.673,121.1614,
4780,SEEDNet,210.243.128.0/18,210.243.160.0,h0-210-243-160.tcbank.com.tw,success,Taiwan,Hsinchu City,Hsinchu,24.8065,120.9706,
4780,SEEDNet,210.243.157.0/24,210.243.157.128,h128-210-243-157.seed.net.tw,success,Taiwan,New Taipei City,New Taipei City,25.0693,121.4626,
4780,SEEDNet,210.243.160.0/19,210.243.176.0,h0-210-243-176.seed.net.tw,success,Taiwan,Hsinchu City,Hsinchu,24.8065,120.9706,
4780,SEEDNet,210.243.166.0/24,210.243.166.128,,success,Taiwan,Hsinchu City,Hsinchu,24.8065,120.9706,
4780,SEEDNet,210.243.177.0/24,210.243.177.128,h128-210-243-177.seed.net.tw,success,Taiwan,Hsinchu City,Hsinchu,24.8065,120.9706,
4780,SEEDNet,210.243.192.0/18,210.243.224.0,h0-210-243-224.seed.net.tw,success,Taiwan,Hsinchu County,Hsinchu County,24.673,121.1614,
4780,SEEDNet,210.243.192.0/19,210.243.208.0,h0-210-243-208.seed.net.tw,success,Taiwan,Hsinchu County,Hsinchu County,24.673,121.1614,
4780,SEEDNet,210.243.224.0/19,210.243.240.0,h0-210-243-240.seed.net.tw,success,Taiwan,Hsinchu County,Hsinchu County,24.673,121.1614,
4780,SEEDNet,210.244.0.0/17,210.244.64.0,,success,Taiwan,New Taipei City,Banqiao,25.0104,121.4684,
4780,SEEDNet,210.244.0.0/19,210.244.16.0,210-244-16-0.adsl.dynamic.seed.net.tw,success,Taiwan,Taiwan,Neihu District,25.0689,121.591,
4780,SEEDNet,210.244.0.0/18,210.244.32.0,210-244-32-0.adsl.dynamic.seed.net.tw,success,Taiwan,Taiwan,Taipei,25.0423,121.567,
4780,SEEDNet,210.244.4.0/24,210.244.4.128,,success,Taiwan,Taiwan,Taipei,25.0423,121.567,
4780,SEEDNet,210.244.6.0/24,210.244.6.128,,success,Taiwan,Taiwan,Taipei,25.0423,121.567,
4780,SEEDNet,210.244.16.0/24,210.244.16.128,210-244-16-128.adsl.dynamic.seed.net.tw,success,Taiwan,Taiwan,Neihu District,25.0689,121.591,
4780,SEEDNet,210.244.17.0/24,210.244.17.128,210-244-17-128.adsl.dynamic.seed.net.tw,success,Taiwan,Taiwan,Taipei,25.0532,121.533,
4780,SEEDNet,210.244.18.0/24,210.244.18.128,210-244-18-128.dialup.dynamic.seed.net.tw,success,Taiwan,Taiwan,Neihu District,25.0689,121.591,
4780,SEEDNet,210.244.19.0/24,210.244.19.128,210-244-19-128.dialup.dynamic.seed.net.tw,success,Taiwan,Taiwan,Taipei,25.0532,121.533,
4780,SEEDNet,210.244.27.0/24,210.244.27.128,h128-210-244-27.seed.net.tw,success,Taiwan,Taiwan,Taipei,25.0423,121.567,
4780,SEEDNet,210.244.30.0/24,210.244.30.128,,success,Taiwan,Taiwan,Taipei,25.0532,121.533,
4780,SEEDNet,210.244.32.0/19,210.244.48.0,h0-210-244-48.seed.net.tw,success,Taiwan,Taiwan,Neihu District,25.0689,121.591,
4780,SEEDNet,210.244.36.0/24,210.244.36.128,,success,Taiwan,Taiwan,Taipei,25.0423,121.567,
4780,SEEDNet,210.244.39.0/24,210.244.39.128,210-244-39-128.adsl.dynamic.seed.net.tw,success,Taiwan,Taiwan,Taipei,25.0423,121.567,
4780,SEEDNet,210.244.44.0/24,210.244.44.128,,success,Taiwan,Taiwan,Neihu District,25.0689,121.591,
4780,SEEDNet,210.244.45.0/24,210.244.45.128,,success,Taiwan,Taiwan,Neihu District,25.0689,121.591,
4780,SEEDNet,210.244.51.0/24,210.244.51.128,h128-210-244-51.acutecomm.com.tw,success,Taiwan,Taiwan,Taipei,25.0423,121.567,
4780,SEEDNet,210.244.54.0/24,210.244.54.128,,success,Taiwan,Taiwan,Taipei,25.0423,121.567,
4780,SEEDNet,210.244.64.0/19,210.244.80.0,h0-210-244-80.seed.net.tw,success,Taiwan,New Taipei City,Banqiao,25.0104,121.4684,
4780,SEEDNet,210.244.64.0/18,210.244.96.0,h0-210-244-96.seed.net.tw,success,Taiwan,New Taipei City,Banqiao,25.0104,121.4684,
4780,SEEDNet,210.244.71.0/24,210.244.71.128,210-244-71-128.adsl.dynamic.seed.net.tw,success,Taiwan,New Taipei City,Banqiao,25.0104,121.4684,
4780,SEEDNet,210.244.81.0/24,210.244.81.128,h128-210-244-81.seed.net.tw,success,Taiwan,New Taipei City,Banqiao,25.0104,121.4684,
4780,SEEDNet,210.244.96.0/19,210.244.112.0,h0-210-244-112.seed.net.tw,success,Taiwan,New Taipei City,Banqiao,25.0104,121.4684,
4780,SEEDNet,210.244.113.0/24,210.244.113.128,h128-210-244-113.seed.net.tw,success,Taiwan,New Taipei City,Banqiao,25.0104,121.4684,
4780,SEEDNet,211.74.0.0/19,211.74.16.0,swtp74-16-0.adsl.seed.net.tw,success,Taiwan,Taiwan,Taipei,25.0532,121.533,
4780,SEEDNet,211.74.0.0/16,211.74.128.0,swtp128-0.adsl.dynamic.seed.net.tw,success,Taiwan,Taiwan,Taipei,25.0423,121.567,
4780,SEEDNet,211.74.0.0/18,211.74.32.0,swtp74-32-0.adsl.seed.net.tw,success,Taiwan,Taiwan,Taipei,25.0532,121.533,
4780,SEEDNet,211.74.32.0/19,211.74.48.0,sw74-48-0.adsl.dynamic.seed.net.tw,success,Taiwan,Taiwan,Taipei,25.0532,121.533,
4780,SEEDNet,211.74.64.0/19,211.74.80.0,211-74-80-0.adsl.dynamic.seed.net.tw,success,Taiwan,Taiwan,Taipei,25.0532,121.533,
4780,SEEDNet,211.74.64.0/18,211.74.96.0,211-74-96-0.adsl.dynamic.seed.net.tw,success,Taiwan,Taoyuan,Taoyuan District,24.9889,121.3176,
4780,SEEDNet,211.74.96.0/19,211.74.112.0,211-74-112-0.static.seed.net.tw,success,Taiwan,Taoyuan,Taoyuan District,24.9889,121.3176,
4780,SEEDNet,211.74.101.0/24,211.74.101.128,211-74-101-128.adsl.dynamic.seed.net.tw,success,Taiwan,Taoyuan,Taoyuan District,24.9889,121.3176,
4780,SEEDNet,211.74.128.0/19,211.74.144.0,h0.144.74.211.seed.net.tw,success,Taiwan,Taiwan,Taipei,25.0501,121.565,
4780,SEEDNet,211.74.128.0/18,211.74.160.0,h0.160.74.211.seed.net.tw,success,Taiwan,Taiwan,Taipei,25.0501,121.565,
4780,SEEDNet,211.74.133.0/24,211.74.133.128,swtp133-128.adsl.dynamic.seed.net.tw,success,Taiwan,Taiwan,Taipei,25.0423,121.567,
4780,SEEDNet,211.74.160.0/19,211.74.176.0,211-74-176-0.adsl.dynamic.seed.net.tw,success,Taiwan,Taiwan,Taipei,25.0423,121.567,
4780,SEEDNet,211.74.192.0/18,211.74.224.0,211-74-224-0.static.seed.net.tw,success,Taiwan,Taiwan,Taipei,25.0501,121.565,
4780,SEEDNet,211.74.192.0/19,211.74.208.0,211-74-208-0.adsl.dynamic.seed.net.tw,success,Taiwan,Taiwan,Taipei,25.0423,121.567,
4780,SEEDNet,211.74.224.0/19,211.74.240.0,211-74-240-0.adsl.dynamic.seed.net.tw,success,Taiwan,Tainan,Tainan City,22.9917,120.2148,
4780,SEEDNet,211.74.227.0/24,211.74.227.128,211-74-227-128.adsl.dynamic.seed.net.tw,success,Taiwan,Taiwan,Taipei,25.0423,121.567,
4780,SEEDNet,211.78.4.0/24,211.78.4.128,,success,Taiwan,Taiwan,Yongkang District,23.0194,120.278,
4780,SEEDNet,211.78.128.0/24,211.78.128.128,,success,Taiwan,Taiwan,Taipei,25.0423,121.567,
4780,SEEDNet,211.78.140.0/24,211.78.140.128,,success,Taiwan,Taiwan,Taipei,25.0423,121.567,
4780,SEEDNet,211.78.184.0/24,211.78.184.128,adsl-211-78-184-128.khon.sparqnet.net,success,Taiwan,Taiwan,Neihu District,25.0689,121.591,
4780,SEEDNet,211.78.185.0/24,211.78.185.128,adsl-211-78-185-128.khon.sparqnet.net,success,Taiwan,Taiwan,Neihu District,25.0689,121.591,
4780,SEEDNet,211.78.189.0/24,211.78.189.128,adsl-211-78-189-128.jr.sparqnet.net,success,Taiwan,Taiwan,Neihu District,25.0689,121.591,
4780,SEEDNet,211.78.190.0/24,211.78.190.128,adsl-211-78-190-128.jr.sparqnet.net,success,Taiwan,Taiwan,Neihu District,25.0689,121.591,
4780,SEEDNet,211.78.191.0/24,211.78.191.128,adsl-211-78-191-128.jr.sparqnet.net,success,Taiwan,Taiwan,Neihu District,25.0689,121.591,
4780,SEEDNet,218.32.62.0/24,218.32.62.128,,success,Taiwan,New Taipei City,New Taipei City,25.0693,121.4626,
4780,SEEDNet,218.32.239.0/24,218.32.239.128,,success,Taiwan,Taiwan,Taipei,25.0501,121.565,
4780,SEEDNet,218.210.219.0/24,218.210.219.128,,success,Taiwan,Taipei City,Taipei,25.053,121.5259,
4780,SEEDNet,218.210.224.0/24,218.210.224.128,adsl-218-210-224-128.skh.sparqnet.net,success,Taiwan,Taiwan,Taipei,25.0501,121.565,
4780,SEEDNet,218.210.227.0/24,218.210.227.128,,success,Taiwan,Taiwan,Taipei,25.0501,121.565,
4780,SEEDNet,218.210.228.0/24,218.210.228.128,adsl-218-210-228-128.skh.sparqnet.net,success,Taiwan,Taiwan,Taipei,25.0501,121.565,
4780,SEEDNet,218.210.229.0/24,218.210.229.128,adsl-218-210-229-128.kh.sparqnet.net,success,Taiwan,Taiwan,Taipei,25.0501,121.565,
4780,SEEDNet,218.210.234.0/24,218.210.234.128,adsl-218-210-234-128.kh.sparqnet.net,success,Taiwan,Taiwan,Taipei,25.0501,121.565,
4780,SEEDNet,218.210.236.0/24,218.210.236.128,,success,Taiwan,Taiwan,Taipei,25.0501,121.565,
4780,SEEDNet,218.210.238.0/24,218.210.238.128,,success,Taiwan,Taiwan,Taipei,25.0501,121.565,
4780,SEEDNet,218.210.240.0/24,218.210.240.128,,success,Taiwan,Taiwan,Taipei,25.0501,121.565,
4780,SEEDNet,218.210.241.0/24,218.210.241.128,,success,Taiwan,Taiwan,Taipei,25.0501,121.565,
4780,SEEDNet,218.210.242.0/24,218.210.242.128,,success,Taiwan,Taiwan,Taipei,25.0501,121.565,
4780,SEEDNet,218.210.243.0/24,218.210.243.128,,success,Taiwan,Taiwan,Taipei,25.0501,121.565,
4780,SEEDNet,218.210.244.0/24,218.210.244.128,,success,Taiwan,Taiwan,Taipei,25.0501,121.565,
4780,SEEDNet,218.210.245.0/24,218.210.245.128,,success,Taiwan,Taiwan,Taipei,25.0501,121.565,
4780,SEEDNet,218.210.246.0/24,218.210.246.128,adsl-218-210-246-128.kh.sparqnet.net,success,Taiwan,Taiwan,Taipei,25.0501,121.565,
4780,SEEDNet,218.210.247.0/24,218.210.247.128,,success,Taiwan,Taiwan,Taipei,25.0501,121.565,
4780,SEEDNet,218.210.248.0/24,218.210.248.128,adsl-218-210-248-128.skh.sparqnet.net,success,Taiwan,Taiwan,Taipei,25.0501,121.565,
4780,SEEDNet,218.210.249.0/24,218.210.249.128,adsl-218-210-249-128.skh.sparqnet.net,success,Taiwan,Taiwan,Taipei,25.0501,121.565,
4780,SEEDNet,218.210.250.0/24,218.210.250.128,adsl-218-210-250-128.skh.sparqnet.net,success,Taiwan,Taiwan,Taipei,25.0501,121.565,
4780,SEEDNet,218.210.251.0/24,218.210.251.128,adsl-218-210-251-128.skh.sparqnet.net,success,Taiwan,Taiwan,Taipei,25.0501,121.565,
4780,SEEDNet,218.210.252.0/24,218.210.252.128,,success,Taiwan,Taiwan,Taipei,25.0501,121.565,
4780,SEEDNet,218.210.254.0/24,218.210.254.128,,success,Taiwan,Taiwan,Taipei,25.0501,121.565,
4780,SEEDNet,218.210.255.0/24,218.210.255.128,,success,Taiwan,Taiwan,Taipei,25.0501,121.565,
4780,SEEDNet,218.211.26.0/24,218.211.26.128,pppoe-218-211-26-128.nh.sparqnet.net,success,Taiwan,New Taipei City,Banqiao,25.0104,121.4684,
4780,SEEDNet,218.211.35.0/24,218.211.35.128,ll-218-211-35-128.ll.sparqnet.net,success,Taiwan,Taipei City,Taipei,25.053,121.5259,
4780,SEEDNet,218.211.112.0/24,218.211.112.128,,success,Taiwan,New Taipei City,Banqiao,25.0104,121.4684,
4780,SEEDNet,218.211.127.0/24,218.211.127.128,,success,Taiwan,New Taipei City,Banqiao,25.0104,121.4684,
4780,SEEDNet,218.211.192.0/24,218.211.192.128,adsl-218-211-192-128.skh.sparqnet.net,success,Taiwan,New Taipei City,Banqiao,25.0104,121.4684,
4780,SEEDNet,218.211.193.0/24,218.211.193.128,adsl-218-211-193-128.skh.sparqnet.net,success,Taiwan,New Taipei City,Banqiao,25.0104,121.4684,
4780,SEEDNet,218.211.194.0/24,218.211.194.128,adsl-218-211-194-128.kh.sparqnet.net,success,Taiwan,New Taipei City,Banqiao,25.0104,121.4684,
4780,SEEDNet,218.211.195.0/24,218.211.195.128,adsl-218-211-195-128.kh.sparqnet.net,success,Taiwan,New Taipei City,Banqiao,25.0104,121.4684,
4780,SEEDNet,218.211.196.0/24,218.211.196.128,adsl-218-211-196-128.skh.sparqnet.net,success,Taiwan,New Taipei City,Banqiao,25.0104,121.4684,
4780,SEEDNet,218.211.197.0/24,218.211.197.128,adsl-218-211-197-128.skh.sparqnet.net,success,Taiwan,New Taipei City,Banqiao,25.0104,121.4684,
4780,SEEDNet,218.211.198.0/24,218.211.198.128,adsl-218-211-198-128.skh.sparqnet.net,success,Taiwan,New Taipei City,Banqiao,25.0104,121.4684,
4780,SEEDNet,218.211.199.0/24,218.211.199.128,adsl-218-211-199-128.skh.sparqnet.net,success,Taiwan,New Taipei City,Banqiao,25.0104,121.4684,
4780,SEEDNet,218.211.200.0/24,218.211.200.128,adsl-218-211-200-128.scj.dynamic.sparqnet.net,success,Taiwan,New Taipei City,Banqiao,25.0104,121.4684,
4780,SEEDNet,218.211.201.0/24,218.211.201.128,adsl-218-211-201-128.kh.dynamic.sparqnet.net,success,Taiwan,New Taipei City,Banqiao,25.0104,121.4684,
4780,SEEDNet,218.211.202.0/24,218.211.202.128,adsl-218-211-202-128.kh.dynamic.sparqnet.net,success,Taiwan,New Taipei City,Banqiao,25.0104,121.4684,
4780,SEEDNet,218.211.203.0/24,218.211.203.128,adsl-218-211-203-128.kh.dynamic.sparqnet.net,success,Taiwan,New Taipei City,Banqiao,25.0104,121.4684,
4780,SEEDNet,218.211.204.0/24,218.211.204.128,adsl-218-211-204-128.scj.dynamic.sparqnet.net,success,Taiwan,New Taipei City,Banqiao,25.0104,121.4684,
4780,SEEDNet,218.211.205.0/24,218.211.205.128,adsl-218-211-205-128.scj.dynamic.sparqnet.net,success,Taiwan,New Taipei City,Banqiao,25.0104,121.4684,
4780,SEEDNet,218.211.206.0/24,218.211.206.128,adsl-218-211-206-128.scj.dynamic.sparqnet.net,success,Taiwan,New Taipei City,Banqiao,25.0104,121.4684,
4780,SEEDNet,218.211.207.0/24,218.211.207.128,adsl-218-211-207-128.scj.dynamic.sparqnet.net,success,Taiwan,New Taipei City,Banqiao,25.0104,121.4684,
4780,SEEDNet,218.211.208.0/24,218.211.208.128,adsl-218-211-208-128.skh.sparqnet.net,success,Taiwan,New Taipei City,Banqiao,25.0104,121.4684,
4780,SEEDNet,218.211.209.0/24,218.211.209.128,adsl-218-211-209-128.skh.sparqnet.net,success,Taiwan,New Taipei City,Banqiao,25.0104,121.4684,
4780,SEEDNet,218.211.210.0/24,218.211.210.128,adsl-218-211-210-128.skh.sparqnet.net,success,Taiwan,New Taipei City,Banqiao,25.0104,121.4684,
4780,SEEDNet,218.211.211.0/24,218.211.211.128,adsl-218-211-211-128.skh.sparqnet.net,success,Taiwan,New Taipei City,Banqiao,25.0104,121.4684,
4780,SEEDNet,218.211.212.0/24,218.211.212.128,adsl-218-211-212-128.scj.sparqnet.net,success,Taiwan,New Taipei City,Banqiao,25.0104,121.4684,
4780,SEEDNet,218.211.213.0/24,218.211.213.128,adsl-218-211-213-128.scj.sparqnet.net,success,Taiwan,New Taipei City,Banqiao,25.0104,121.4684,
4780,SEEDNet,218.211.214.0/24,218.211.214.128,adsl-218-211-214-128.scj.sparqnet.net,success,Taiwan,New Taipei City,Banqiao,25.0104,121.4684,
4780,SEEDNet,218.211.215.0/24,218.211.215.128,adsl-218-211-215-128.scj.sparqnet.net,success,Taiwan,New Taipei City,Banqiao,25.0104,121.4684,
4780,SEEDNet,218.211.216.0/24,218.211.216.128,,success,Taiwan,New Taipei City,Banqiao,25.0104,121.4684,
4780,SEEDNet,218.211.217.0/24,218.211.217.128,,success,Taiwan,New Taipei City,Banqiao,25.0104,121.4684,
4780,SEEDNet,218.211.218.0/24,218.211.218.128,,success,Taiwan,New Taipei City,Banqiao,25.0104,121.4684,
4780,SEEDNet,218.211.219.0/24,218.211.219.128,,success,Taiwan,New Taipei City,Banqiao,25.0104,121.4684,
4780,SEEDNet,218.211.220.0/24,218.211.220.128,adsl-218-211-220-128.scj.dynamic.sparqnet.net,success,Taiwan,New Taipei City,Banqiao,25.0104,121.4684,
4780,SEEDNet,218.211.221.0/24,218.211.221.128,adsl-218-211-221-128.scj.dynamic.sparqnet.net,success,Taiwan,New Taipei City,Banqiao,25.0104,121.4684,
4780,SEEDNet,218.211.222.0/24,218.211.222.128,adsl-218-211-222-128.scj.dynamic.sparqnet.net,success,Taiwan,New Taipei City,Banqiao,25.0104,121.4684,
4780,SEEDNet,220.228.73.0/24,220.228.73.128,adsl-220-228-73-128.kh.sparqnet.net,success,Taiwan,Hsinchu City,Hsinchu,24.8065,120.9706,
4780,SEEDNet,220.228.75.0/24,220.228.75.128,adsl-220-228-75-128.kh.sparqnet.net,success,Taiwan,Hsinchu City,Hsinchu,24.8065,120.9706,
4780,SEEDNet,220.228.80.0/24,220.228.80.128,adsl-220-228-80-128.kh.sparqnet.net,success,Taiwan,Hsinchu City,Hsinchu,24.8065,120.9706,
4780,SEEDNet,220.228.82.0/24,220.228.82.128,adsl-220-228-82-128.kh.sparqnet.net,success,Taiwan,Hsinchu City,Hsinchu,24.8065,120.9706,
4780,SEEDNet,220.228.83.0/24,220.228.83.128,adsl-220-228-83-128.kh.sparqnet.net,success,Taiwan,Hsinchu City,Hsinchu,24.8065,120.9706,
4780,SEEDNet,220.228.85.0/24,220.228.85.128,adsl-220-228-85-128.kh.sparqnet.net,success,Taiwan,Hsinchu City,Hsinchu,24.8065,120.9706,
4780,SEEDNet,220.228.86.0/24,220.228.86.128,adsl-220-228-86-128.kh.sparqnet.net,success,Taiwan,Hsinchu City,Hsinchu,24.8065,120.9706,
4780,SEEDNet,220.228.87.0/24,220.228.87.128,adsl-220-228-87-128.kh.sparqnet.net,success,Taiwan,Hsinchu City,Hsinchu,24.8065,120.9706,
4780,SEEDNet,220.228.168.0/24,220.228.168.128,220.228.168.128.xuenn.com.tw,success,Taiwan,Hsinchu City,Hsinchu,24.8065,120.9706,
4780,SEEDNet,220.229.12.0/24,220.229.12.128,adsl-220-229-12-128.kh.sparqnet.net,success,Taiwan,Taiwan,Taipei,25.0423,121.567,
4780,SEEDNet,220.229.13.0/24,220.229.13.128,adsl-220-229-13-128.kh.sparqnet.net,success,Taiwan,Taiwan,Taipei,25.0423,121.567,
4780,SEEDNet,220.229.17.0/24,220.229.17.128,adsl-220-229-17-128.kh.sparqnet.net,success,Taiwan,Taiwan,Taipei,25.0423,121.567,
4780,SEEDNet,220.229.18.0/24,220.229.18.128,adsl-220-229-18-128.kh.sparqnet.net,success,Taiwan,Taiwan,Taipei,25.0423,121.567,
4780,SEEDNet,220.229.19.0/24,220.229.19.128,adsl-220-229-19-128.kh.sparqnet.net,success,Taiwan,Taiwan,Taipei,25.0423,121.567,
4780,SEEDNet,220.229.52.0/24,220.229.52.128,220.229.52.128.adsl.static.sparqnet.net,success,Taiwan,Taiwan,Taipei,25.0423,121.567,
4780,SEEDNet,220.229.54.0/24,220.229.54.128,220.229.54.128.adsl.static.sparqnet.net,success,Taiwan,Taiwan,Taipei,25.0423,121.567,
4780,SEEDNet,220.229.55.0/24,220.229.55.128,220.229.55.128.adsl.static.sparqnet.net,success,Taiwan,Taiwan,Taipei,25.0423,121.567,
4780,SEEDNet,220.229.56.0/24,220.229.56.128,220.229.56.128.adsl.static.sparqnet.net,success,Taiwan,Taiwan,Taipei,25.0423,121.567,
4780,SEEDNet,220.229.57.0/24,220.229.57.128,bstelcom.net.tw,success,Taiwan,Taiwan,Taipei,25.0423,121.567,
4780,SEEDNet,220.229.65.0/24,220.229.65.128,,success,Taiwan,Taiwan,Taipei,25.0501,121.565,
4780,SEEDNet,220.229.76.0/24,220.229.76.128,adsl-220-229-76-128.kh.sparqnet.net,success,Taiwan,Taiwan,Taipei,25.0423,121.567,
4780,SEEDNet,220.229.77.0/24,220.229.77.128,adsl-220-229-77-128.kh.sparqnet.net,success,Taiwan,Taiwan,Taipei,25.0423,121.567,
4780,SEEDNet,220.229.79.0/24,220.229.79.128,adsl-220-229-79-128.kh.sparqnet.net,success,Taiwan,Taiwan,Taipei,25.0423,121.567,
4780,SEEDNet,220.229.84.0/24,220.229.84.128,adsl-220-229-84-128.kh.sparqnet.net,success,Taiwan,Taiwan,Taipei,25.0423,121.567,
4780,SEEDNet,220.229.85.0/24,220.229.85.128,adsl-220-229-85-128.kh.sparqnet.net,success,Taiwan,Taiwan,Taipei,25.0423,121.567,
4780,SEEDNet,220.229.87.0/24,220.229.87.128,adsl-220-229-87-128.kh.sparqnet.net,success,Taiwan,Taiwan,Taipei,25.0423,121.567,
4780,SEEDNet,220.229.88.0/24,220.229.88.128,adsl-220-229-88-128.kh.sparqnet.net,success,Taiwan,Taiwan,Taipei,25.0423,121.567,
4780,SEEDNet,220.229.91.0/24,220.229.91.128,adsl-220-229-91-128.kh.sparqnet.net,success,Taiwan,Taiwan,Taipei,25.0423,121.567,
4780,SEEDNet,220.229.147.0/24,220.229.147.128,adsl-220-229-147-128.kh.sparqnet.net,success,Taiwan,Taiwan,Taipei,25.0423,121.567,
4780,SEEDNet,220.229.156.0/24,220.229.156.128,adsl-220-229-156-128.kh.sparqnet.net,success,Taiwan,Taiwan,Taipei,25.0423,121.567,
4780,SEEDNet,220.229.157.0/24,220.229.157.128,adsl-220-229-157-128.kh.sparqnet.net,success,Taiwan,Taiwan,Taipei,25.0423,121.567,
4780,SEEDNet,220.229.158.0/24,220.229.158.128,adsl-220-229-158-128.kh.sparqnet.net,success,Taiwan,Taiwan,Taipei,25.0423,121.567,
4780,SEEDNet,220.229.159.0/24,220.229.159.128,adsl-220-229-159-128.kh.sparqnet.net,success,Taiwan,Taiwan,Taipei,25.0423,121.567,
4780,SEEDNet,220.229.209.0/24,220.229.209.128,,success,Taiwan,Taiwan,Taipei,25.0423,121.567,
4780,SEEDNet,220.229.210.0/24,220.229.210.128,,success,Taiwan,Taiwan,Taipei,25.0423,121.567,
4780,SEEDNet,220.229.211.0/24,220.229.211.128,,success,Taiwan,Taiwan,Taipei,25.0423,121.567,
4780,SEEDNet,220.229.212.0/24,220.229.212.128,,success,Taiwan,Taiwan,Taipei,25.0423,121.567,
4780,SEEDNet,220.229.213.0/24,220.229.213.128,,success,Taiwan,Taiwan,Taipei,25.0423,121.567,
4780,SEEDNet,220.229.215.0/24,220.229.215.128,,success,Taiwan,Taiwan,Taipei,25.0423,121.567,
4780,SEEDNet,220.229.216.0/24,220.229.216.128,,success,Taiwan,Taiwan,Taipei,25.0423,121.567,
4780,SEEDNet,220.229.219.0/24,220.229.219.128,adsl-220-229-219-128.kh.sparqnet.net,success,Taiwan,Taiwan,Taipei,25.0423,121.567,
4780,SEEDNet,220.229.223.0/24,220.229.223.128,,success,Taiwan,Taiwan,Taipei,25.0423,121.567,
4780,SEEDNet,221.169.0.0/17,221.169.64.0,221-169-64-0.static.seed.net.tw,success,Taiwan,Taiwan,Neihu District,25.0689,121.591,
4780,SEEDNet,221.169.0.0/19,221.169.16.0,221-169-16-0.static.seed.net.tw,success,Taiwan,Taiwan,Taipei,25.0423,121.567,
4780,SEEDNet,221.169.0.0/16,221.169.128.0,221-169-128-0.static.seed.net.tw,success,Taiwan,Taiwan,Neihu District,25.0689,121.591,
4780,SEEDNet,221.169.0.0/18,221.169.32.0,221-169-32-0.static.seed.net.tw,success,Taiwan,Taiwan,Neihu District,25.0689,121.591,
4780,SEEDNet,221.169.32.0/19,221.169.48.0,sw169-48-0.static.seed.net.tw,success,Taiwan,Taipei,Tamsui,25.1374,121.509,
4780,SEEDNet,221.169.64.0/19,221.169.80.0,221-169-80-0.static.seed.net.tw,success,Taiwan,Taipei,Tamsui,25.1374,121.509,
4780,SEEDNet,221.169.64.0/18,221.169.96.0,221-169-96-0.static.seed.net.tw,success,Taiwan,Taiwan,Neihu District,25.0689,121.591,
4780,SEEDNet,221.169.96.0/19,221.169.112.0,sw169-112-0.static.seed.net.tw,success,Taiwan,Taiwan,Neihu District,25.0689,121.591,
4780,SEEDNet,221.169.128.0/17,221.169.192.0,sw169-192-0.static.seed.net.tw,success,Taiwan,Taiwan,Neihu District,25.0689,121.591,
4780,SEEDNet,221.169.128.0/18,221.169.160.0,221-169-160-0.static.seed.net.tw,success,Taiwan,Taiwan,Neihu District,25.0689,121.591,
4780,SEEDNet,221.169.128.0/19,221.169.144.0,sw169-144-0.static.seed.net.tw,success,Taiwan,Taiwan,Neihu District,25.0689,121.591,
4780,SEEDNet,221.169.160.0/19,221.169.176.0,sw169-176-0.static.seed.net.tw,success,Taiwan,Taipei,Tamsui,25.1374,121.509,
4780,SEEDNet,221.169.192.0/18,221.169.224.0,sw169-224-0.static.seed.net.tw,success,Taiwan,Taiwan,Neihu District,25.0689,121.591,
4780,SEEDNet,221.169.192.0/19,221.169.208.0,sw169-208-0.static.seed.net.tw,success,Taiwan,Taiwan,Neihu District,25.0689,121.591,
4780,SEEDNet,221.169.224.0/19,221.169.240.0,sw169-240-0.static.seed.net.tw,success,Taiwan,Taiwan,Neihu District,25.0689,121.591,
4780,SEEDNet,222.157.64.0/19,222.157.80.0,,success,Taiwan,Kaohsiung,Kaohsiung,22.6148,120.3139,
4780,SEEDNet,2001:cd8::/32,2001:cd8:8000::,,success,Taiwan,Taiwan,Taipei,25.033,121.565,
4780,SEEDNet,2001:cd8:103::/48,2001:cd8:103:8000::,,success,Taiwan,Taiwan,Taipei,25.033,121.565,
4780,SEEDNet,2001:cd8:4780::/48,2001:cd8:4780:8000::,,success,Taiwan,Taiwan,Taipei,25.033,121.565,
4780,SEEDNet,2001:cd8:e000::/48,2001:cd8:e000:8000::,,success,Taiwan,Taiwan,Taipei,25.033,121.565,
4780,SEEDNet,2001:cd8:e001::/48,2001:cd8:e001:8000::,,success,Taiwan,Taiwan,Taipei,25.033,121.565,
4780,SEEDNet,2001:cd8:e002::/48,2001:cd8:e002:8000::,,success,Taiwan,Taiwan,Taipei,25.033,121.565,
4780,SEEDNet,2001:cd8:e003::/48,2001:cd8:e003:8000::,,success,Taiwan,Taiwan,Taipei,25.033,121.565,
4780,SEEDNet,2001:cd8:e00c::/48,2001:cd8:e00c:8000::,,success,Taiwan,Taiwan,Taipei,25.033,121.565,
4780,SEEDNet,2001:4580::/26,2001:45a0::,,success,Taiwan,Taiwan,Neihu District,25.0936,121.594,
4780,SEEDNet,2001:45b1::/36,2001:45b1:800::,,success,Taiwan,Taiwan,Neihu District,25.0936,121.594,
