ASN,Org,Prefix,Center_IP,PTR_Hostname,Status,Country,Region,City,Latitude,Longitude,Message
1659,TANet,120.96.0.0/11,120.112.0.0,,success,Taiwan,Taipei,Yingge District,24.9493,121.337,
1659,TANet,120.96.144.0/20,120.96.152.0,,success,Taiwan,Taiwan,Dazhi,25.084,121.546,
1659,TANet,120.96.160.0/19,120.96.176.0,,success,Taiwan,Taiwan,Dazhi,25.084,121.546,
1659,TANet,120.96.192.0/20,120.96.200.0,,success,Taiwan,Taiwan,Dazhi,25.084,121.546,
1659,TANet,120.96.208.0/20,120.96.216.0,,success,Taiwan,Taipei,Shulin District,25.0191,121.402,
1659,TANet,120.96.224.0/20,120.96.232.0,,success,Taiwan,Taipei,Shulin District,25.0191,121.402,
1659,TANet,120.107.0.0/18,120.107.32.0,,success,Taiwan,Taiwan,Taichung,24.1737,120.735,
1659,TANet,120.108.56.0/21,120.108.60.0,,success,Taiwan,Taichung City,Taichung,24.144,120.6844,
1659,TANet,120.108.64.0/18,120.108.96.0,,success,Taiwan,Taichung City,Taichung,24.144,120.6844,
1659,TANet,120.109.0.0/18,120.109.32.0,,success,Taiwan,Taipei,Yingge District,24.9493,121.337,
1659,TANet,120.109.64.0/20,120.109.72.0,,success,Taiwan,Taipei,Yingge District,24.9493,121.337,
1659,TANet,120.110.64.0/19,120.110.80.0,,success,Taiwan,Taipei,Yingge District,24.9493,121.337,
1659,TANet,120.110.96.0/20,120.110.104.0,,success,Taiwan,Taipei,Yingge District,24.9493,121.337,
1659,TANet,120.110.112.0/22,120.110.114.0,,success,Taiwan,Taipei,Yingge District,24.9493,121.337,
1659,TANet,120.110.116.0/23,120.110.117.0,,success,Taiwan,Taipei,Yingge District,24.9493,121.337,
1659,TANet,120.113.64.0/18,120.113.96.0,,success,Taiwan,Taiwan,Douliu,23.7026,120.429,
1659,TANet,120.118.0.0/18,120.118.32.0,,success,Taiwan,Taipei,Yingge District,24.9493,121.337,
1659,TANet,120.118.64.0/19,120.118.80.0,,success,Taiwan,Taiwan,Dazhi,25.084,121.546,
1659,TANet,120.118.96.0/20,120.118.104.0,,success,Taiwan,Taiwan,Dazhi,25.084,121.546,
1659,TANet,120.118.118.0/23,120.118.119.0,,success,Taiwan,Taipei,Yingge District,24.9493,121.337,
1659,TANet,120.119.176.0/20,120.119.184.0,,success,Taiwan,Taipei,Yingge District,24.9493,121.337,
1659,TANet,120.124.0.0/18,120.124.32.0,120-124-32-0.ip.vnu.edu.tw,success,Taiwan,New Taipei City,New Taipei City,25.0693,121.4626,
1659,TANet,120.124.64.0/19,120.124.80.0,120-124-80-0.ip.vnu.edu.tw,success,Taiwan,New Taipei City,New Taipei City,25.0693,121.4626,
1659,TANet,120.124.96.0/19,120.124.112.0,,success,Taiwan,New Taipei City,New Taipei City,25.0693,121.4626,
1659,TANet,120.124.128.0/18,120.124.160.0,,success,Taiwan,New Taipei City,New Taipei City,25.0693,121.4626,
1659,TANet,120.124.192.0/21,120.124.196.0,,success,Taiwan,New Taipei City,New Taipei City,25.0693,121.4626,
1659,TANet,120.124.200.0/23,120.124.201.0,,success,Taiwan,New Taipei City,New Taipei City,25.0693,121.4626,
1659,TANet,120.124.204.0/22,120.124.206.0,,success,Taiwan,New Taipei City,New Taipei City,25.0693,121.4626,
1659,TANet,120.124.208.0/20,120.124.216.0,,success,Taiwan,New Taipei City,New Taipei City,25.0693,121.4626,
1659,TANet,120.124.224.0/19,120.124.240.0,,success,Taiwan,New Taipei City,New Taipei City,25.0693,121.4626,
1659,TANet,120.125.0.0/18,120.125.32.0,,success,Taiwan,Taoyuan,Zhongli District,24.9604,121.2392,
1659,TANet,120.125.64.0/20,120.125.72.0,,success,Taiwan,Taoyuan,Zhongli District,24.9604,121.2392,
1659,TANet,120.125.80.0/21,120.125.84.0,,success,Taiwan,Taoyuan,Zhongli District,24.9604,121.2392,
1659,TANet,120.125.88.0/23,120.125.89.0,,success,Taiwan,Taoyuan,Zhongli District,24.9604,121.2392,
1659,TANet,120.125.128.0/18,120.125.160.0,,success,Taiwan,Taoyuan,Zhongli District,24.9604,121.2392,
1659,TANet,134.208.0.0/16,134.208.128.0,,success,Taiwan,Hualien County,Shoufeng,23.8341,121.521,
1659,TANet,140.92.0.0/16,140.92.128.0,,success,Taiwan,Taipei City,Taipei,25.053,121.5259,
1659,TANet,140.92.0.0/17,140.92.64.0,,success,Taiwan,Taiwan,Taipei,25.033,121.565,
1659,TANet,140.92.128.0/17,140.92.192.0,,success,Taiwan,Taipei City,Taipei,25.053,121.5259,
1659,TANet,140.110.0.0/15,140.111.0.0,,success,Taiwan,Taiwan,Longâ€™anpo,25.0253,121.541,
1659,TANet,140.112.0.0/12,140.120.0.0,,success,Taiwan,Taichung City,Taichung,24.144,120.6844,
1659,TANet,140.125.0.0/16,140.125.128.0,,success,Taiwan,Taiwan,Douliu,23.696,120.534,
1659,TANet,140.127.36.0/24,140.127.36.128,,success,Taiwan,Kaohsiung,Kaohsiung,22.6148,120.3139,
1659,TANet,140.127.37.0/24,140.127.37.128,,success,Taiwan,Kaohsiung,Kaohsiung,22.6148,120.3139,
1659,TANet,140.127.38.0/24,140.127.38.128,,success,Taiwan,Kaohsiung,Kaohsiung,22.6148,120.3139,
1659,TANet,140.127.39.0/24,140.127.39.128,,success,Taiwan,Kaohsiung,Kaohsiung,22.6148,120.3139,
1659,TANet,140.127.40.0/24,140.127.40.128,,success,Taiwan,Kaohsiung,Kaohsiung,22.6148,120.3139,
1659,TANet,140.127.41.0/24,140.127.41.128,,success,Taiwan,Kaohsiung,Kaohsiung,22.6148,120.3139,
1659,TANet,140.127.42.0/24,140.127.42.128,,success,Taiwan,Kaohsiung,Kaohsiung,22.6148,120.3139,
1659,TANet,140.127.43.0/24,140.127.43.128,,success,Taiwan,Kaohsiung,Kaohsiung,22.6148,120.3139,
1659,TANet,140.127.44.0/24,140.127.44.128,,success,Taiwan,Kaohsiung,Kaohsiung,22.6148,120.3139,
1659,TANet,140.127.45.0/24,140.127.45.128,,success,Taiwan,Kaohsiung,Kaohsiung,22.6148,120.3139,
1659,TANet,140.127.46.0/24,140.127.46.128,,success,Taiwan,Kaohsiung,Kaohsiung,22.6148,120.3139,
1659,TANet,140.127.47.0/24,140.127.47.128,,success,Taiwan,Kaohsiung,Kaohsiung,22.6148,120.3139,
1659,TANet,140.127.48.0/24,140.127.48.128,,success,Taiwan,Kaohsiung,Kaohsiung,22.6148,120.3139,
1659,TANet,140.127.50.0/24,140.127.50.128,,success,Taiwan,Kaohsiung,Kaohsiung,22.6148,120.3139,
1659,TANet,140.127.51.0/24,140.127.51.128,,success,Taiwan,Kaohsiung,Kaohsiung,22.6148,120.3139,
1659,TANet,140.127.52.0/24,140.127.52.128,,success,Taiwan,Kaohsiung,Kaohsiung,22.6148,120.3139,
1659,TANet,140.127.53.0/24,140.127.53.128,,success,Taiwan,Kaohsiung,Kaohsiung,22.6148,120.3139,
1659,TANet,140.127.56.0/24,140.127.56.128,,success,Taiwan,Kaohsiung,Kaohsiung,22.6148,120.3139,
1659,TANet,140.127.57.0/24,140.127.57.128,,success,Taiwan,Kaohsiung,Kaohsiung,22.6148,120.3139,
1659,TANet,140.127.58.0/24,140.127.58.128,,success,Taiwan,Kaohsiung,Kaohsiung,22.6148,120.3139,
1659,TANet,140.127.59.0/24,140.127.59.128,,success,Taiwan,Kaohsiung,Kaohsiung,22.6148,120.3139,
1659,TANet,140.127.60.0/24,140.127.60.128,,success,Taiwan,Kaohsiung,Kaohsiung,22.6148,120.3139,
1659,TANet,140.127.61.0/24,140.127.61.128,,success,Taiwan,Kaohsiung,Kaohsiung,22.6148,120.3139,
1659,TANet,140.127.63.0/24,140.127.63.128,,success,Taiwan,Kaohsiung,Kaohsiung,22.6148,120.3139,
1659,TANet,140.127.64.0/24,140.127.64.128,,success,Taiwan,Kaohsiung,Kaohsiung,22.6148,120.3139,
1659,TANet,140.127.65.0/24,140.127.65.128,,success,Taiwan,Kaohsiung,Kaohsiung,22.6148,120.3139,
1659,TANet,140.127.67.0/24,140.127.67.128,,success,Taiwan,Kaohsiung,Kaohsiung,22.6148,120.3139,
1659,TANet,140.127.68.0/24,140.127.68.128,,success,Taiwan,Kaohsiung,Kaohsiung,22.6148,120.3139,
1659,TANet,140.127.69.0/24,140.127.69.128,,success,Taiwan,Kaohsiung,Kaohsiung,22.6148,120.3139,
1659,TANet,140.127.70.0/24,140.127.70.128,,success,Taiwan,Kaohsiung,Kaohsiung,22.6148,120.3139,
1659,TANet,140.127.71.0/24,140.127.71.128,,success,Taiwan,Kaohsiung,Kaohsiung,22.6148,120.3139,
1659,TANet,140.127.72.0/24,140.127.72.128,,success,Taiwan,Kaohsiung,Kaohsiung,22.6148,120.3139,
1659,TANet,140.127.73.0/24,140.127.73.128,,success,Taiwan,Kaohsiung,Kaohsiung,22.6148,120.3139,
1659,TANet,140.127.74.0/24,140.127.74.128,,success,Taiwan,Kaohsiung,Kaohsiung,22.6148,120.3139,
1659,TANet,140.127.75.0/24,140.127.75.128,,success,Taiwan,Kaohsiung,Kaohsiung,22.6148,120.3139,
1659,TANet,140.127.76.0/24,140.127.76.128,,success,Taiwan,Kaohsiung,Kaohsiung,22.6148,120.3139,
1659,TANet,140.127.77.0/24,140.127.77.128,www.2014itcom.nknu.edu.tw,success,Taiwan,Kaohsiung,Kaohsiung,22.6148,120.3139,
1659,TANet,140.127.78.0/24,140.127.78.128,,success,Taiwan,Kaohsiung,Kaohsiung,22.6148,120.3139,
1659,TANet,140.127.79.0/24,140.127.79.128,,success,Taiwan,Kaohsiung,Kaohsiung,22.6148,120.3139,
1659,TANet,140.127.80.0/24,140.127.80.128,,success,Taiwan,Kaohsiung,Kaohsiung,22.6148,120.3139,
1659,TANet,140.127.82.0/23,140.127.83.0,,success,Taiwan,Kaohsiung,Kaohsiung,22.6148,120.3139,
1659,TANet,140.127.84.0/23,140.127.85.0,,success,Taiwan,Kaohsiung,Kaohsiung,22.6148,120.3139,
1659,TANet,140.127.176.0/20,140.127.184.0,,success,Taiwan,Kaohsiung,Kaohsiung,22.6148,120.3139,
1659,TANet,140.127.192.0/22,140.127.194.0,,success,Taiwan,Kaohsiung,Kaohsiung,22.6148,120.3139,
1659,TANet,140.127.196.0/24,140.127.196.128,,success,Taiwan,Kaohsiung,Kaohsiung,22.6148,120.3139,
1659,TANet,140.128.0.0/13,140.132.0.0,,success,Taiwan,Taiwan,Daxi,24.8786,121.266,
1659,TANet,140.128.1.0/24,140.128.1.128,,success,Taiwan,Taichung City,Taichung,24.144,120.6844,
1659,TANet,140.128.2.0/23,140.128.3.0,,success,Taiwan,Taichung City,Taichung,24.144,120.6844,
1659,TANet,140.128.4.0/22,140.128.6.0,,success,Taiwan,Taichung City,Taichung,24.144,120.6844,
1659,TANet,140.128.8.0/21,140.128.12.0,,success,Taiwan,Taichung City,Taichung,24.144,120.6844,
1659,TANet,140.128.16.0/20,140.128.24.0,,success,Taiwan,Taichung City,Taichung,24.144,120.6844,
1659,TANet,140.128.32.0/20,140.128.40.0,,success,Taiwan,Taichung City,Taichung,24.144,120.6844,
1659,TANet,140.128.48.0/23,140.128.49.0,,success,Taiwan,Taichung City,Taichung,24.144,120.6844,
1659,TANet,140.128.50.0/24,140.128.50.128,,success,Taiwan,Taichung City,Taichung,24.144,120.6844,
1659,TANet,140.128.96.0/19,140.128.112.0,,success,Taiwan,Taichung City,Taichung,24.144,120.6844,
1659,TANet,140.128.128.0/21,140.128.132.0,,success,Taiwan,Taichung City,Taichung,24.144,120.6844,
1659,TANet,140.128.191.0/24,140.128.191.128,,success,Taiwan,Taichung City,Taichung,24.144,120.6844,
1659,TANet,140.128.192.0/21,140.128.196.0,,success,Taiwan,Taichung City,Taichung,24.144,120.6844,
1659,TANet,140.130.1.0/24,140.130.1.128,,success,Taiwan,Tainan,Tainan City,22.9917,120.2148,
1659,TANet,140.130.2.0/23,140.130.3.0,,success,Taiwan,Tainan,Tainan City,22.9917,120.2148,
1659,TANet,140.130.4.0/22,140.130.6.0,,success,Taiwan,Tainan,Tainan City,22.9917,120.2148,
1659,TANet,140.130.8.0/21,140.130.12.0,,success,Taiwan,Tainan,Tainan City,22.9917,120.2148,
1659,TANet,140.130.16.0/20,140.130.24.0,,success,Taiwan,Tainan,Tainan City,22.9917,120.2148,
1659,TANet,140.130.32.0/21,140.130.36.0,,success,Taiwan,Tainan,Tainan City,22.9917,120.2148,
1659,TANet,140.130.40.0/24,140.130.40.128,,success,Taiwan,Tainan,Tainan City,22.9917,120.2148,
1659,TANet,140.130.101.0/24,140.130.101.128,pc128.wfu.edu.tw,success,Taiwan,Tainan,Tainan City,22.9917,120.2148,
1659,TANet,140.130.102.0/23,140.130.103.0,,success,Taiwan,Tainan,Tainan City,22.9917,120.2148,
1659,TANet,140.130.104.0/21,140.130.108.0,,success,Taiwan,Tainan,Tainan City,22.9917,120.2148,
1659,TANet,140.130.112.0/20,140.130.120.0,,success,Taiwan,Tainan,Tainan City,22.9917,120.2148,
1659,TANet,140.130.128.0/23,140.130.129.0,,success,Taiwan,Tainan,Tainan City,22.9917,120.2148,
1659,TANet,140.130.130.0/24,140.130.130.128,,success,Taiwan,Tainan,Tainan City,22.9917,120.2148,
1659,TANet,140.130.171.0/24,140.130.171.128,171128.cc.ncyu.edu.tw,success,Taiwan,Tainan,Tainan City,22.9917,120.2148,
1659,TANet,140.130.175.0/24,140.130.175.128,,success,Taiwan,Tainan,Tainan City,22.9917,120.2148,
1659,TANet,140.131.1.0/24,140.131.1.128,,success,Taiwan,Taiwan,Taipei,25.0173,121.54,
1659,TANet,140.131.2.0/23,140.131.3.0,,success,Taiwan,Taiwan,Taipei,25.0173,121.54,
1659,TANet,140.131.4.0/22,140.131.6.0,,success,Taiwan,Taiwan,Taipei,25.0173,121.54,
1659,TANet,140.131.8.0/21,140.131.12.0,,success,Taiwan,Taiwan,Taipei,25.0173,121.54,
1659,TANet,140.131.16.0/22,140.131.18.0,,success,Taiwan,Taiwan,Taipei,25.0173,121.54,
1659,TANet,140.131.20.0/24,140.131.20.128,,success,Taiwan,Taiwan,Taipei,25.0173,121.54,
1659,TANet,140.131.150.0/23,140.131.151.0,0.151.131.140.dorm.ip4.au.edu.tw,success,Taiwan,Taiwan,Taipei,25.0173,121.54,
1659,TANet,140.131.152.0/21,140.131.156.0,0.156.131.140.ip4.au.edu.tw,success,Taiwan,Taiwan,Taipei,25.0173,121.54,
1659,TANet,140.131.160.0/19,140.131.176.0,0.176.131.140.ip4.au.edu.tw,success,Taiwan,Taiwan,Taipei,25.0173,121.54,
1659,TANet,140.133.32.0/19,140.133.48.0,,success,Taiwan,Kaohsiung,Kaohsiung,22.6148,120.3139,
1659,TANet,140.134.0.0/16,140.134.128.0,,success,Taiwan,Taichung City,Taichung,24.144,120.6844,
1659,TANet,140.136.0.0/15,140.137.0.0,,success,Taiwan,Taiwan,Neihu District,25.0689,121.591,
1659,TANet,140.138.0.0/16,140.138.128.0,,success,Taiwan,New Taipei City,Banqiao,25.0104,121.4684,
1659,TANet,163.13.0.0/16,163.13.128.0,,success,Taiwan,New Taipei City,New Taipei City,25.0693,121.4626,
1659,TANet,163.14.0.0/15,163.15.0.0,,success,Taiwan,Kaohsiung,Kaohsiung,22.6283,120.265,
1659,TANet,163.15.15.0/24,163.15.15.128,,success,Taiwan,Kaohsiung,Kaohsiung,22.6283,120.265,
1659,TANet,163.15.151.0/24,163.15.151.128,c151-128.ip.kmu.edu.tw,success,Taiwan,Kaohsiung,Kaohsiung,22.6283,120.265,
1659,TANet,163.15.152.0/21,163.15.156.0,,success,Taiwan,Kaohsiung,Kaohsiung,22.6283,120.265,
1659,TANet,163.15.160.0/20,163.15.168.0,,success,Taiwan,Kaohsiung,Kaohsiung,22.6283,120.265,
1659,TANet,163.15.176.0/22,163.15.178.0,,success,Taiwan,Kaohsiung,Kaohsiung,22.6283,120.265,
1659,TANet,163.15.180.0/24,163.15.180.128,c128.kmhk.kmu.edu.tw,success,Taiwan,Kaohsiung,Kaohsiung,22.6283,120.265,
1659,TANet,163.15.185.0/24,163.15.185.128,,success,Taiwan,Kaohsiung,Kaohsiung,22.6283,120.265,
1659,TANet,163.15.188.0/22,163.15.190.0,,success,Taiwan,Kaohsiung,Kaohsiung,22.6283,120.265,
1659,TANet,163.15.192.0/24,163.15.192.128,,success,Taiwan,Kaohsiung,Kaohsiung,22.6283,120.265,
1659,TANet,163.16.0.0/13,163.20.0.0,,success,Taiwan,New Taipei City,New Taipei City,25.0693,121.4626,
1659,TANet,163.24.0.0/14,163.26.0.0,,success,Taiwan,Tainan,Tainan City,22.9917,120.2148,
1659,TANet,163.24.242.0/23,163.24.243.0,,success,Taiwan,Kaohsiung,Kaohsiung,22.6148,120.3139,
1659,TANet,163.24.244.0/22,163.24.246.0,,success,Taiwan,Kaohsiung,Kaohsiung,22.6148,120.3139,
1659,TANet,163.24.248.0/21,163.24.252.0,,success,Taiwan,Kaohsiung,Kaohsiung,22.6148,120.3139,
1659,TANet,163.28.0.0/16,163.28.128.0,,success,Taiwan,Taiwan,Taipei,25.033,121.565,
1659,TANet,163.30.0.0/15,163.31.0.0,,success,Taiwan,Taiwan,Taipei,25.033,121.565,
1659,TANet,163.32.0.0/16,163.32.128.0,,success,Taiwan,Kaohsiung,Zuoying,22.6824,120.2958,
1659,TANet,192.83.166.0/23,192.83.167.0,,success,Taiwan,Taiwan,Taipei,25.0501,121.565,
1659,TANet,192.83.168.0/21,192.83.172.0,,success,Taiwan,Taiwan,Taipei,25.0501,121.565,
1659,TANet,192.83.176.0/20,192.83.184.0,,success,Taiwan,Taiwan,Taipei,25.0501,121.565,
1659,TANet,192.83.191.0/24,192.83.191.128,,success,Taiwan,Taiwan,Taipei,25.0501,121.565,
1659,TANet,192.83.192.0/22,192.83.194.0,,success,Taiwan,Taiwan,Taipei,25.033,121.565,
1659,TANet,192.83.193.0/24,192.83.193.128,,success,Taiwan,Taiwan,Taipei,25.0501,121.565,
1659,TANet,192.83.196.0/24,192.83.196.128,,success,Taiwan,Taiwan,Taipei,25.0501,121.565,
1659,TANet,192.192.0.0/16,192.192.128.0,,success,Taiwan,Taipei,Yingge District,24.9493,121.337,
1659,TANet,192.192.21.0/24,192.192.21.128,,success,Taiwan,Taipei,Yingge District,24.9493,121.337,
1659,TANet,192.192.22.0/24,192.192.22.128,,success,Taiwan,Taipei,Yingge District,24.9493,121.337,
1659,TANet,192.192.23.0/24,192.192.23.128,,success,Taiwan,Taipei,Yingge District,24.9493,121.337,
1659,TANet,192.192.24.0/23,192.192.25.0,,success,Taiwan,Taipei,Yingge District,24.9493,121.337,
1659,TANet,192.192.26.0/24,192.192.26.128,,success,Taiwan,Taipei,Yingge District,24.9493,121.337,
1659,TANet,192.192.48.0/21,192.192.52.0,,success,Taiwan,Taipei,Yingge District,24.9493,121.337,
1659,TANet,192.192.90.0/24,192.192.90.128,,success,Taiwan,Taipei,Yingge District,24.9493,121.337,
1659,TANet,192.192.91.0/24,192.192.91.128,smartbook.ndmctsgh.edu.tw,success,Taiwan,Taipei,Yingge District,24.9493,121.337,
1659,TANet,192.192.92.0/23,192.192.93.0,,success,Taiwan,Taipei,Yingge District,24.9493,121.337,
1659,TANet,192.192.94.0/24,192.192.94.128,,success,Taiwan,Taipei,Yingge District,24.9493,121.337,
1659,TANet,192.192.114.0/23,192.192.115.0,,success,Taiwan,Taipei,Yingge District,24.9493,121.337,
1659,TANet,192.192.120.0/23,192.192.121.0,0.121.192.192.ip4.au.edu.tw,success,Taiwan,Taipei,Yingge District,24.9493,121.337,
1659,TANet,192.192.122.0/24,192.192.122.128,neptune.csie.au.edu.tw,success,Taiwan,Taipei,Yingge District,24.9493,121.337,
1659,TANet,192.192.248.0/22,192.192.250.0,,success,Taiwan,Taipei,Yingge District,24.9493,121.337,
1659,TANet,192.192.255.0/24,192.192.255.128,,success,Taiwan,Taipei,Yingge District,24.9493,121.337,
1659,TANet,203.64.0.0/16,203.64.128.0,,success,Taiwan,Taipei City,Taipei,25.053,121.5259,
1659,TANet,203.64.8.0/21,203.64.12.0,,success,Taiwan,Hualien County,Hualien City,23.9807,121.6115,
1659,TANet,203.64.120.0/21,203.64.124.0,,success,Taiwan,Hualien County,Hualien City,23.9807,121.6115,
1659,TANet,203.64.128.0/21,203.64.132.0,,success,Taiwan,Taipei City,Taipei,25.053,121.5259,
1659,TANet,203.64.207.0/24,203.64.207.128,,success,Taiwan,Taipei City,Taipei,25.053,121.5259,
1659,TANet,203.64.238.0/24,203.64.238.128,,success,Taiwan,Taipei City,Taipei,25.053,121.5259,
1659,TANet,203.68.0.0/16,203.68.128.0,,success,Taiwan,Taiwan,Taipei,25.0501,121.565,
1659,TANet,203.68.94.0/23,203.68.95.0,,success,Taiwan,Kaohsiung,Kaohsiung,22.6771,120.322,
1659,TANet,203.68.96.0/22,203.68.98.0,,success,Taiwan,Taiwan,Taipei,25.0501,121.565,
1659,TANet,203.71.0.0/16,203.71.128.0,,success,Taiwan,Taiwan,Neihu District,25.0689,121.591,
1659,TANet,203.71.10.0/23,203.71.11.0,,success,Taiwan,Taipei,Tamsui,25.172,121.443,
1659,TANet,203.71.12.0/22,203.71.14.0,,success,Taiwan,Taiwan,Neihu District,25.0689,121.591,
1659,TANet,203.72.0.0/21,203.72.4.0,,success,Taiwan,Yilan County,Yilan,24.757,121.753,
1659,TANet,203.72.0.0/16,203.72.128.0,,success,Taiwan,Yilan County,Yilan,24.757,121.753,
1659,TANet,210.59.0.0/17,210.59.64.0,,success,Taiwan,Tainan,Tainan City,22.9917,120.2148,
1659,TANet,210.60.0.0/16,210.60.128.0,,success,Taiwan,Tainan,Tainan City,22.9917,120.2148,
1659,TANet,210.60.8.0/22,210.60.10.0,10.60.210.ip.au.edu.tw,success,Taiwan,Taiwan,Neihu District,25.0689,121.591,
1659,TANet,210.60.12.0/23,210.60.13.0,,success,Taiwan,Taipei,Tamsui,25.172,121.443,
1659,TANet,210.60.28.0/22,210.60.30.0,,success,Taiwan,Taiwan,Taipei,25.0253,121.541,
1659,TANet,210.60.80.0/21,210.60.84.0,,success,Taiwan,Taiwan,Taipei,25.0501,121.565,
1659,TANet,210.60.88.0/22,210.60.90.0,,success,Taiwan,Taiwan,Taichung,24.1946,120.662,
1659,TANet,210.60.92.0/24,210.60.92.128,,success,Taiwan,Taiwan,Neihu District,25.0689,121.591,
1659,TANet,210.60.119.0/24,210.60.119.128,,success,Taiwan,Taiwan,Neihu District,25.0689,121.591,
1659,TANet,210.60.122.0/23,210.60.123.0,,success,Taiwan,Taiwan,Neihu District,25.0709,121.596,
1659,TANet,210.60.124.0/23,210.60.125.0,,success,Taiwan,Taiwan,Neihu District,25.0709,121.596,
1659,TANet,210.60.126.0/24,210.60.126.128,,success,Taiwan,Taiwan,Neihu District,25.0709,121.596,
1659,TANet,210.60.183.0/24,210.60.183.128,,success,Taiwan,Tainan,Tainan City,22.9917,120.2148,
1659,TANet,210.60.184.0/22,210.60.186.0,,success,Taiwan,Tainan,Tainan City,22.9917,120.2148,
1659,TANet,210.60.188.0/23,210.60.189.0,,success,Taiwan,Tainan,Tainan City,22.9917,120.2148,
1659,TANet,210.60.190.0/24,210.60.190.128,,success,Taiwan,Tainan,Tainan City,22.9917,120.2148,
1659,TANet,210.60.221.0/24,210.60.221.128,,success,Taiwan,Tainan,Tainan City,22.9917,120.2148,
1659,TANet,210.60.222.0/24,210.60.222.128,,success,Taiwan,Tainan,Tainan City,22.9917,120.2148,
1659,TANet,210.60.223.0/24,210.60.223.128,,success,Taiwan,Tainan,Tainan City,22.9917,120.2148,
1659,TANet,210.62.64.0/19,210.62.80.0,,success,Taiwan,Taiwan,Neihu District,25.0689,121.591,
1659,TANet,210.62.224.0/20,210.62.232.0,,success,Taiwan,Taiwan,Taipei,25.0501,121.565,
1659,TANet,210.62.240.0/21,210.62.244.0,,success,Taiwan,Taiwan,Taipei,25.0253,121.541,
1659,TANet,210.67.248.0/21,210.67.252.0,,success,Taiwan,Taiwan,Neihu District,25.0689,121.591,
1659,TANet,210.70.0.0/16,210.70.128.0,,success,Taiwan,New Taipei City,New Taipei City,25.0693,121.4626,
1659,TANet,210.70.79.0/24,210.70.79.128,,success,Taiwan,New Taipei City,New Taipei City,25.0693,121.4626,
1659,TANet,210.70.80.0/24,210.70.80.128,,success,Taiwan,New Taipei City,New Taipei City,25.0693,121.4626,
1659,TANet,210.70.82.0/23,210.70.83.0,,success,Taiwan,New Taipei City,New Taipei City,25.0693,121.4626,
1659,TANet,210.70.84.0/22,210.70.86.0,,success,Taiwan,New Taipei City,New Taipei City,25.0693,121.4626,
1659,TANet,210.70.94.0/23,210.70.95.0,,success,Taiwan,New Taipei City,New Taipei City,25.0693,121.4626,
1659,TANet,210.71.0.0/17,210.71.64.0,,success,Taiwan,New Taipei City,New Taipei City,25.0693,121.4626,
1659,TANet,210.240.0.0/16,210.240.128.0,,success,Taiwan,Taitung,Taitung,22.7564,121.1418,
1659,TANet,210.240.202.0/23,210.240.203.0,,success,Taiwan,New Taipei City,New Taipei City,25.0693,121.4626,
1659,TANet,210.240.204.0/24,210.240.204.128,comp204128.nhu.edu.tw,success,Taiwan,New Taipei City,New Taipei City,25.0693,121.4626,
1659,TANet,210.240.205.0/24,210.240.205.128,comp205128.nhu.edu.tw,success,Taiwan,New Taipei City,New Taipei City,25.0693,121.4626,
1659,TANet,210.240.206.0/24,210.240.206.128,,success,Taiwan,New Taipei City,New Taipei City,25.0693,121.4626,
1659,TANet,210.240.207.0/24,210.240.207.128,comp207128.nhu.edu.tw,success,Taiwan,New Taipei City,New Taipei City,25.0693,121.4626,
1659,TANet,210.240.208.0/24,210.240.208.128,comp208128.nhu.edu.tw,success,Taiwan,New Taipei City,New Taipei City,25.0693,121.4626,
1659,TANet,210.240.209.0/24,210.240.209.128,comp209128.nhu.edu.tw,success,Taiwan,New Taipei City,New Taipei City,25.0693,121.4626,
1659,TANet,210.240.210.0/24,210.240.210.128,comp210128.nhu.edu.tw,success,Taiwan,New Taipei City,New Taipei City,25.0693,121.4626,
1659,TANet,210.240.211.0/24,210.240.211.128,comp211128.nhu.edu.tw,success,Taiwan,New Taipei City,New Taipei City,25.0693,121.4626,
1659,TANet,210.240.232.0/21,210.240.236.0,,success,Taiwan,New Taipei City,New Taipei City,25.0693,121.4626,
1659,TANet,210.240.240.0/21,210.240.244.0,,success,Taiwan,New Taipei City,New Taipei City,25.0693,121.4626,
1659,TANet,210.240.248.0/23,210.240.249.0,,success,Taiwan,New Taipei City,New Taipei City,25.0693,121.4626,
1659,TANet,210.243.0.0/18,210.243.32.0,,success,Taiwan,New Taipei City,Beitou,25.1403,121.4948,
1659,TANet,2001:288::/32,2001:288:8000::,,success,Taiwan,Kaohsiung,Kaohsiung,22.6148,120.3139,
