ASN,Org,Prefix,Center_IP,PTR_Hostname,Status,Country,Region,City,Latitude,Longitude,Message
9924,TFN,2.18.16.0/23,2.18.17.0,a2-18-17-0.deploy.static.akamaitechnologies.com,success,Taiwan,Taiwan,Taipei,25.033,121.565,
9924,TFN,2.21.16.0/22,2.21.18.0,a2-21-18-0.deploy.static.akamaitechnologies.com,success,Taiwan,Taiwan,Taipei,25.033,121.565,
9924,TFN,23.202.124.0/22,23.202.126.0,a23-202-126-0.deploy.static.akamaitechnologies.com,success,Taiwan,Taiwan,Taipei,25.033,121.565,
9924,TFN,23.212.60.0/24,23.212.60.128,a23-212-60-128.deploy.static.akamaitechnologies.com,success,Taiwan,Taiwan,Taipei,25.033,121.565,
9924,TFN,43.240.24.0/22,43.240.26.0,,success,Taiwan,Taiwan,Neihu District,25.0689,121.591,
9924,TFN,49.214.0.0/16,49.214.128.0,,success,Taiwan,Taiwan,Taipei,25.0446,121.561,
9924,TFN,49.214.0.0/15,49.215.0.0,,success,Taiwan,Taichung City,Taichung,24.144,120.6844,
9924,TFN,49.215.0.0/16,49.215.128.0,,success,Taiwan,Taichung City,Taichung,24.144,120.6844,
9924,TFN,49.216.0.0/14,49.218.0.0,,success,Taiwan,New Taipei City,New Taipei City,25.0693,121.4626,
9924,TFN,49.216.0.0/16,49.216.128.0,,success,Taiwan,New Taipei City,New Taipei City,25.0693,121.4626,
9924,TFN,49.217.0.0/16,49.217.128.0,,success,Taiwan,Taichung City,Taichung,24.144,120.6844,
9924,TFN,49.218.0.0/16,49.218.128.0,,success,Taiwan,New Taipei City,New Taipei City,25.0693,121.4626,
9924,TFN,49.219.0.0/16,49.219.128.0,,success,Taiwan,Taiwan,Neihu District,25.0689,121.591,
9924,TFN,60.198.0.0/17,60.198.64.0,60-198-64-0.dynamic.tfn.net.tw,success,Taiwan,Taichung City,Taichung,24.144,120.6844,
9924,TFN,60.198.0.0/16,60.198.128.0,60-198-128-0.dynamic.tfn.net.tw,success,Taiwan,Nantou,Caotun,23.9812,120.689,
9924,TFN,60.198.31.0/24,60.198.31.128,60-198-31-128.dynamic.tfn.net.tw,success,Taiwan,Taiwan,Taipei,25.0446,121.561,
9924,TFN,60.198.64.0/18,60.198.96.0,60-198-96-0.dynamic.tfn.net.tw,success,Taiwan,Taichung City,Taichung,24.144,120.6844,
9924,TFN,60.198.128.0/17,60.198.192.0,60-198-192-0.dynamic.tfn.net.tw,success,Taiwan,Taiwan,Taipei,25.0446,121.561,
9924,TFN,60.198.128.0/20,60.198.136.0,60-198-136-0.dynamic.tfn.net.tw,success,Taiwan,Nantou,Caotun,23.9812,120.689,
9924,TFN,60.198.144.0/21,60.198.148.0,60-198-148-0.dynamic.tfn.net.tw,success,Taiwan,Nantou,Caotun,23.9812,120.689,
9924,TFN,60.198.160.0/19,60.198.176.0,60-198-176-0.dynamic.tfn.net.tw,success,Taiwan,Changhua,Chang-hua,24.0761,120.5648,
9924,TFN,60.198.240.0/20,60.198.248.0,60-198-248-0.dynamic.tfn.net.tw,success,Taiwan,Taiwan,Taipei,25.0446,121.561,
9924,TFN,60.199.0.0/24,60.199.0.128,60-199-0-128.static.tfn.net.tw,success,Taiwan,Taiwan,Taipei,25.0446,121.561,
9924,TFN,60.199.0.0/16,60.199.128.0,,success,Taiwan,Taiwan,Taipei,25.0446,121.561,
9924,TFN,60.199.0.0/18,60.199.32.0,,success,Taiwan,Taiwan,Taipei,25.0446,121.561,
9924,TFN,60.199.1.0/24,60.199.1.128,60-199-1-128.static.tfn.net.tw,success,Taiwan,Taiwan,Taipei,25.0446,121.561,
9924,TFN,60.199.2.0/24,60.199.2.128,60-199-2-128.static.tfn.net.tw,success,Taiwan,Taiwan,Taipei,25.0446,121.561,
9924,TFN,60.199.3.0/24,60.199.3.128,60-199-3-128.static.tfn.net.tw,success,Taiwan,Taiwan,Taipei,25.0446,121.561,
9924,TFN,60.199.4.0/24,60.199.4.128,60-199-4-128.static.tfn.net.tw,success,Taiwan,Taiwan,Taipei,25.0446,121.561,
9924,TFN,60.199.5.0/24,60.199.5.128,60-199-5-128.static.tfn.net.tw,success,Taiwan,Taiwan,Taipei,25.0446,121.561,
9924,TFN,60.199.6.0/24,60.199.6.128,60-199-6-128.static.tfn.net.tw,success,Taiwan,Taiwan,Taipei,25.0446,121.561,
9924,TFN,60.199.7.0/24,60.199.7.128,60-199-7-128.static.tfn.net.tw,success,Taiwan,Taiwan,Taipei,25.0446,121.561,
9924,TFN,60.199.8.0/24,60.199.8.128,60-199-8-128.static.tfn.net.tw,success,Taiwan,Taiwan,Taipei,25.0446,121.561,
9924,TFN,60.199.9.0/24,60.199.9.128,60-199-9-128.static.tfn.net.tw,success,Taiwan,Taiwan,Taipei,25.0446,121.561,
9924,TFN,60.199.10.0/24,60.199.10.128,60-199-10-128.static.tfn.net.tw,success,Taiwan,Taiwan,Taipei,25.0446,121.561,
9924,TFN,60.199.11.0/24,60.199.11.128,60-199-11-128.static.tfn.net.tw,success,Taiwan,Taiwan,Taipei,25.0446,121.561,
9924,TFN,60.199.12.0/24,60.199.12.128,60-199-12-128.static.tfn.net.tw,success,Taiwan,Taiwan,Taipei,25.0446,121.561,
9924,TFN,60.199.13.0/24,60.199.13.128,60-199-13-128.static.tfn.net.tw,success,Taiwan,Taiwan,Taipei,25.0446,121.561,
9924,TFN,60.199.14.0/24,60.199.14.128,60-199-14-128.static.tfn.net.tw,success,Taiwan,Taiwan,Taipei,25.0446,121.561,
9924,TFN,60.199.15.0/24,60.199.15.128,60-199-15-128.static.tfn.net.tw,success,Taiwan,Taiwan,Taipei,25.0446,121.561,
9924,TFN,60.199.16.0/24,60.199.16.128,60-199-16-128.static.tfn.net.tw,success,Taiwan,Taiwan,Taipei,25.0446,121.561,
9924,TFN,60.199.17.0/24,60.199.17.128,60-199-17-128.static.tfn.net.tw,success,Taiwan,Taiwan,Taipei,25.0446,121.561,
9924,TFN,60.199.18.0/24,60.199.18.128,60-199-18-128.static.tfn.net.tw,success,Taiwan,Taiwan,Taipei,25.0446,121.561,
9924,TFN,60.199.19.0/24,60.199.19.128,60-199-19-128.static.tfn.net.tw,success,Taiwan,Taiwan,Taipei,25.0446,121.561,
9924,TFN,60.199.20.0/24,60.199.20.128,60-199-20-128.static.tfn.net.tw,success,Taiwan,Taiwan,Taipei,25.0446,121.561,
9924,TFN,60.199.21.0/24,60.199.21.128,60-199-21-128.static.tfn.net.tw,success,Taiwan,Taiwan,Taipei,25.0446,121.561,
9924,TFN,60.199.22.0/24,60.199.22.128,60-199-22-128.static.tfn.net.tw,success,Taiwan,Taiwan,Taipei,25.0446,121.561,
9924,TFN,60.199.23.0/24,60.199.23.128,60-199-23-128.static.tfn.net.tw,success,Taiwan,Taiwan,Taipei,25.0446,121.561,
9924,TFN,60.199.24.0/24,60.199.24.128,60-199-24-128.static.tfn.net.tw,success,Taiwan,Taiwan,Taipei,25.0446,121.561,
9924,TFN,60.199.25.0/24,60.199.25.128,60-199-25-128.static.tfn.net.tw,success,Taiwan,Taiwan,Taipei,25.0446,121.561,
9924,TFN,60.199.26.0/24,60.199.26.128,60-199-26-128.static.tfn.net.tw,success,Taiwan,Taiwan,Taipei,25.0446,121.561,
9924,TFN,60.199.27.0/24,60.199.27.128,60-199-27-128.static.tfn.net.tw,success,Taiwan,Taiwan,Taipei,25.0446,121.561,
9924,TFN,60.199.29.0/24,60.199.29.128,60-199-29-128.static.tfn.net.tw,success,Taiwan,Taiwan,Taipei,25.0446,121.561,
9924,TFN,60.199.30.0/24,60.199.30.128,60-199-30-128.static.tfn.net.tw,success,Taiwan,Taiwan,Taipei,25.0446,121.561,
9924,TFN,60.199.31.0/24,60.199.31.128,60-199-31-128.static.tfn.net.tw,success,Taiwan,Taiwan,Taipei,25.0446,121.561,
9924,TFN,60.199.45.0/24,60.199.45.128,60-199-45-128.static.tfn.net.tw,success,Taiwan,Taiwan,Taipei,25.0446,121.561,
9924,TFN,60.199.46.0/24,60.199.46.128,60-199-46-128.static.tfn.net.tw,success,Taiwan,Taiwan,Taipei,25.0446,121.561,
9924,TFN,60.199.47.0/24,60.199.47.128,60-199-47-128.static.tfn.net.tw,success,Taiwan,Taiwan,Taipei,25.0446,121.561,
9924,TFN,60.199.48.0/21,60.199.52.0,,success,Taiwan,Taiwan,Taipei,25.0446,121.561,
9924,TFN,60.199.49.0/24,60.199.49.128,60-199-49-128.static.tfn.net.tw,success,Taiwan,Taiwan,Taipei,25.0446,121.561,
9924,TFN,60.199.64.0/19,60.199.80.0,,success,Taiwan,Taiwan,Taipei,25.0501,121.565,
9924,TFN,60.199.96.0/20,60.199.104.0,,success,Taiwan,Taiwan,Taipei,25.0446,121.561,
9924,TFN,60.199.104.0/24,60.199.104.128,60-199-104-128.static.tfn.net.tw,success,Taiwan,Taiwan,Taipei,25.0446,121.561,
9924,TFN,60.199.105.0/24,60.199.105.128,60-199-105-128.static.tfn.net.tw,success,Taiwan,Taiwan,Taipei,25.0446,121.561,
9924,TFN,60.199.106.0/24,60.199.106.128,60-199-106-128.static.tfn.net.tw,success,Taiwan,Taiwan,Taipei,25.0446,121.561,
9924,TFN,60.199.107.0/24,60.199.107.128,60-199-107-128.static.tfn.net.tw,success,Taiwan,Taiwan,Taipei,25.0446,121.561,
9924,TFN,60.199.108.0/24,60.199.108.128,60-199-108-128.static.tfn.net.tw,success,Taiwan,Taiwan,Taipei,25.0446,121.561,
9924,TFN,60.199.109.0/24,60.199.109.128,60-199-109-128.static.tfn.net.tw,success,Taiwan,Taiwan,Taipei,25.0446,121.561,
9924,TFN,60.199.110.0/24,60.199.110.128,60-199-110-128.static.tfn.net.tw,success,Taiwan,Taiwan,Taipei,25.0446,121.561,
9924,TFN,60.199.111.0/24,60.199.111.128,60-199-111-128.static.tfn.net.tw,success,Taiwan,Taiwan,Taipei,25.0446,121.561,
9924,TFN,60.199.112.0/20,60.199.120.0,,success,Taiwan,Taiwan,Taipei,25.0446,121.561,
9924,TFN,60.199.117.0/24,60.199.117.128,60-199-117-128.static.tfn.net.tw,success,Taiwan,Taiwan,Taipei,25.0446,121.561,
9924,TFN,60.199.118.0/24,60.199.118.128,60-199-118-128.static.tfn.net.tw,success,Taiwan,Taiwan,Taipei,25.0446,121.561,
9924,TFN,60.199.119.0/24,60.199.119.128,60-199-119-128.static.tfn.net.tw,success,Taiwan,Taiwan,Taipei,25.0446,121.561,
9924,TFN,60.199.120.0/23,60.199.121.0,,success,Taiwan,Taiwan,Taipei,25.0446,121.561,
9924,TFN,60.199.128.0/17,60.199.192.0,,success,Taiwan,Taiwan,Taipei,25.0446,121.561,
9924,TFN,60.199.128.0/18,60.199.160.0,,success,Taiwan,Taiwan,Taipei,25.0446,121.561,
9924,TFN,60.199.128.0/24,60.199.128.128,60-199-128-128.static.tfn.net.tw,success,Taiwan,Taiwan,Taipei,25.0446,121.561,
9924,TFN,60.199.128.0/23,60.199.129.0,,success,Taiwan,Taiwan,Taipei,25.0446,121.561,
9924,TFN,60.199.129.0/24,60.199.129.128,60-199-129-128.static.tfn.net.tw,success,Taiwan,Taiwan,Taipei,25.0446,121.561,
9924,TFN,60.199.130.0/24,60.199.130.128,60-199-130-128.static.tfn.net.tw,success,Taiwan,Taiwan,Taipei,25.0446,121.561,
9924,TFN,60.199.131.0/24,60.199.131.128,60-199-131-128.static.tfn.net.tw,success,Taiwan,Taiwan,Taipei,25.0446,121.561,
9924,TFN,60.199.132.0/24,60.199.132.128,60-199-132-128.static.tfn.net.tw,success,Taiwan,Taiwan,Taipei,25.0446,121.561,
9924,TFN,60.199.133.0/24,60.199.133.128,60-199-133-128.static.tfn.net.tw,success,Taiwan,Taiwan,Taipei,25.0446,121.561,
9924,TFN,60.199.134.0/24,60.199.134.128,60-199-134-128.static.tfn.net.tw,success,Taiwan,Taiwan,Taipei,25.0446,121.561,
9924,TFN,60.199.135.0/24,60.199.135.128,60-199-135-128.static.tfn.net.tw,success,Taiwan,Taiwan,Taipei,25.0446,121.561,
9924,TFN,60.199.136.0/24,60.199.136.128,60-199-136-128.static.tfn.net.tw,success,Taiwan,Taiwan,Taipei,25.0446,121.561,
9924,TFN,60.199.137.0/24,60.199.137.128,60-199-137-128.static.tfn.net.tw,success,Taiwan,Taiwan,Taipei,25.0446,121.561,
9924,TFN,60.199.138.0/24,60.199.138.128,60-199-138-128.static.tfn.net.tw,success,Taiwan,Taiwan,Taipei,25.0446,121.561,
9924,TFN,60.199.139.0/24,60.199.139.128,60-199-139-128.static.tfn.net.tw,success,Taiwan,Taiwan,Taipei,25.0446,121.561,
9924,TFN,60.199.140.0/24,60.199.140.128,,success,Taiwan,Taiwan,Taipei,25.0446,121.561,
9924,TFN,60.199.140.0/23,60.199.141.0,,success,Taiwan,Taiwan,Taipei,25.0446,121.561,
9924,TFN,60.199.141.0/24,60.199.141.128,,success,Taiwan,Taiwan,Taipei,25.0446,121.561,
9924,TFN,60.199.142.0/23,60.199.143.0,,success,Taiwan,Taiwan,Taipei,25.0446,121.561,
9924,TFN,60.199.142.0/24,60.199.142.128,60-199-142-128.static.tfn.net.tw,success,Taiwan,Taiwan,Taipei,25.0446,121.561,
9924,TFN,60.199.143.0/24,60.199.143.128,60-199-143-128.static.tfn.net.tw,success,Taiwan,Taiwan,Taipei,25.0446,121.561,
9924,TFN,60.199.144.0/24,60.199.144.128,60-199-144-128.static.tfn.net.tw,success,Taiwan,Taiwan,Taipei,25.0446,121.561,
9924,TFN,60.199.145.0/24,60.199.145.128,60-199-145-128.static.tfn.net.tw,success,Taiwan,Taiwan,Taipei,25.0446,121.561,
9924,TFN,60.199.147.0/24,60.199.147.128,60-199-147-128.static.tfn.net.tw,success,Taiwan,Taiwan,Taipei,25.0446,121.561,
9924,TFN,60.199.148.0/23,60.199.149.0,,success,Taiwan,Taiwan,Taipei,25.0446,121.561,
9924,TFN,60.199.149.0/24,60.199.149.128,60-199-149-128.static.tfn.net.tw,success,Taiwan,Taiwan,Taipei,25.0446,121.561,
9924,TFN,60.199.150.0/23,60.199.151.0,,success,Taiwan,Taiwan,Taipei,25.0446,121.561,
9924,TFN,60.199.150.0/24,60.199.150.128,60-199-150-128.static.tfn.net.tw,success,Taiwan,Taiwan,Taipei,25.0446,121.561,
9924,TFN,60.199.151.0/24,60.199.151.128,60-199-151-128.static.tfn.net.tw,success,Taiwan,Taiwan,Taipei,25.0446,121.561,
9924,TFN,60.199.152.0/24,60.199.152.128,60-199-152-128.static.tfn.net.tw,success,Taiwan,Taiwan,Taipei,25.0446,121.561,
9924,TFN,60.199.153.0/24,60.199.153.128,60-199-153-128.static.tfn.net.tw,success,Taiwan,Taiwan,Taipei,25.0446,121.561,
9924,TFN,60.199.154.0/24,60.199.154.128,60-199-154-128.static.tfn.net.tw,success,Taiwan,Taiwan,Taipei,25.0446,121.561,
9924,TFN,60.199.155.0/24,60.199.155.128,60-199-155-128.static.tfn.net.tw,success,Taiwan,Taiwan,Taipei,25.0446,121.561,
9924,TFN,60.199.156.0/24,60.199.156.128,60-199-156-128.static.tfn.net.tw,success,Taiwan,Taiwan,Taipei,25.0446,121.561,
9924,TFN,60.199.157.0/24,60.199.157.128,60-199-157-128.static.tfn.net.tw,success,Taiwan,Taiwan,Taipei,25.0446,121.561,
9924,TFN,60.199.158.0/24,60.199.158.128,60-199-158-128.static.tfn.net.tw,success,Taiwan,Taiwan,Taipei,25.0446,121.561,
9924,TFN,60.199.159.0/24,60.199.159.128,60-199-159-128.static.tfn.net.tw,success,Taiwan,Taiwan,Taipei,25.0446,121.561,
9924,TFN,60.199.160.0/19,60.199.176.0,,success,Taiwan,Taiwan,Taipei,25.0446,121.561,
9924,TFN,60.199.160.0/23,60.199.161.0,,success,Taiwan,Taiwan,Taipei,25.0446,121.561,
9924,TFN,60.199.161.0/24,60.199.161.128,60-199-161-128.static.tfn.net.tw,success,Taiwan,Taiwan,Taipei,25.0446,121.561,
9924,TFN,60.199.162.0/24,60.199.162.128,60-199-162-128.static.tfn.net.tw,success,Taiwan,Taiwan,Taipei,25.0446,121.561,
9924,TFN,60.199.163.0/24,60.199.163.128,,success,Taiwan,Taiwan,Taipei,25.0446,121.561,
9924,TFN,60.199.164.0/24,60.199.164.128,60-199-164-128.static.tfn.net.tw,success,Taiwan,Taiwan,Taipei,25.0446,121.561,
9924,TFN,60.199.165.0/24,60.199.165.128,60-199-165-128.static.tfn.net.tw,success,Taiwan,Taiwan,Taipei,25.0446,121.561,
9924,TFN,60.199.166.0/23,60.199.167.0,,success,Taiwan,Taiwan,Taipei,25.0446,121.561,
9924,TFN,60.199.166.0/24,60.199.166.128,60-199-166-128.tfn.coowo.com,success,Taiwan,Taiwan,Taipei,25.0446,121.561,
9924,TFN,60.199.167.0/24,60.199.167.128,60-199-167-128.tfn.coowo.com,success,Taiwan,Taiwan,Taipei,25.0446,121.561,
9924,TFN,60.199.168.0/24,60.199.168.128,60-199-168-128.static.tfn.net.tw,success,Taiwan,Taiwan,Taipei,25.0446,121.561,
9924,TFN,60.199.169.0/24,60.199.169.128,60-199-169-128.static.tfn.net.tw,success,Taiwan,Taiwan,Taipei,25.0446,121.561,
9924,TFN,60.199.170.0/24,60.199.170.128,60-199-170-128.static.tfn.net.tw,success,Taiwan,Taiwan,Taipei,25.0446,121.561,
9924,TFN,60.199.171.0/24,60.199.171.128,60-199-171-128.static.tfn.net.tw,success,Taiwan,Taiwan,Taipei,25.0446,121.561,
9924,TFN,60.199.172.0/24,60.199.172.128,,success,Taiwan,Taiwan,Taipei,25.0446,121.561,
9924,TFN,60.199.173.0/24,60.199.173.128,60-199-173-128.static.tfn.net.tw,success,Taiwan,Taiwan,Taipei,25.0446,121.561,
9924,TFN,60.199.174.0/24,60.199.174.128,60-199-174-128.static.tfn.net.tw,success,Taiwan,Taiwan,Taipei,25.0446,121.561,
9924,TFN,60.199.176.0/24,60.199.176.128,60-199-176-128.static.tfn.net.tw,success,Taiwan,Taiwan,Taipei,25.0446,121.561,
9924,TFN,60.199.178.0/24,60.199.178.128,60-199-178-128.static.tfn.net.tw,success,Taiwan,Taiwan,Taipei,25.0446,121.561,
9924,TFN,60.199.178.0/23,60.199.179.0,,success,Taiwan,Taiwan,Taipei,25.0446,121.561,
9924,TFN,60.199.179.0/24,60.199.179.128,60-199-179-128.static.tfn.net.tw,success,Taiwan,Taiwan,Taipei,25.0446,121.561,
9924,TFN,60.199.180.0/24,60.199.180.128,60-199-180-128.static.tfn.net.tw,success,Taiwan,Taiwan,Taipei,25.0446,121.561,
9924,TFN,60.199.183.0/24,60.199.183.128,,success,Taiwan,Taiwan,Taipei,25.0446,121.561,
9924,TFN,60.199.184.0/24,60.199.184.128,60-199-184-128.static.tfn.net.tw,success,Taiwan,Taiwan,Taipei,25.0446,121.561,
9924,TFN,60.199.185.0/24,60.199.185.128,60-199-185-128.static.tfn.net.tw,success,Taiwan,Taiwan,Taipei,25.0446,121.561,
9924,TFN,60.199.186.0/24,60.199.186.128,60-199-186-128.static.tfn.net.tw,success,Taiwan,Taiwan,Taipei,25.0446,121.561,
9924,TFN,60.199.188.0/24,60.199.188.128,60-199-188-128.static.tfn.net.tw,success,Taiwan,Taiwan,Taipei,25.0446,121.561,
9924,TFN,60.199.190.0/24,60.199.190.128,60-199-190-128.static.tfn.net.tw,success,Taiwan,Taiwan,Taipei,25.0446,121.561,
9924,TFN,60.199.191.0/24,60.199.191.128,60-199-191-128.static.tfn.net.tw,success,Taiwan,Taiwan,Taipei,25.0446,121.561,
9924,TFN,60.199.192.0/18,60.199.224.0,,success,Taiwan,Taiwan,Taipei,25.0446,121.561,
9924,TFN,60.199.192.0/23,60.199.193.0,,success,Taiwan,Taiwan,Taipei,25.0446,121.561,
9924,TFN,60.199.192.0/24,60.199.192.128,60-199-192-128.static.tfn.net.tw,success,Taiwan,Taiwan,Taipei,25.0446,121.561,
9924,TFN,60.199.193.0/24,60.199.193.128,60-199-193-128.static.tfn.net.tw,success,Taiwan,Taiwan,Taipei,25.0446,121.561,
9924,TFN,60.199.194.0/24,60.199.194.128,60-199-194-128.static.tfn.net.tw,success,Taiwan,Taiwan,Taipei,25.0446,121.561,
9924,TFN,60.199.195.0/24,60.199.195.128,60-199-195-128.static.tfn.net.tw,success,Taiwan,Taiwan,Taipei,25.0446,121.561,
9924,TFN,60.199.196.0/24,60.199.196.128,60-199-196-128.static.tfn.net.tw,success,Taiwan,Taiwan,Taipei,25.0446,121.561,
9924,TFN,60.199.196.0/23,60.199.197.0,,success,Taiwan,Taiwan,Taipei,25.0446,121.561,
9924,TFN,60.199.197.0/24,60.199.197.128,60-199-197-128.static.tfn.net.tw,success,Taiwan,Taiwan,Taipei,25.0446,121.561,
9924,TFN,60.199.198.0/24,60.199.198.128,,success,Taiwan,Taiwan,Taipei,25.0446,121.561,
9924,TFN,60.199.199.0/24,60.199.199.128,60-199-199-128.static.tfn.net.tw,success,Taiwan,Taiwan,Taipei,25.0446,121.561,
9924,TFN,60.199.200.0/24,60.199.200.128,60-199-200-128.static.sun.net.tw,success,Taiwan,Taiwan,Taipei,25.0446,121.561,
9924,TFN,60.199.201.0/24,60.199.201.128,60-199-201-128.static.tfn.net.tw,success,Taiwan,Taiwan,Taipei,25.0446,121.561,
9924,TFN,60.199.202.0/24,60.199.202.128,60-199-202-128.static.tfn.net.tw,success,Taiwan,Taiwan,Taipei,25.0446,121.561,
9924,TFN,60.199.203.0/24,60.199.203.128,60-199-203-128.static.tfn.net.tw,success,Taiwan,Taiwan,Taipei,25.0446,121.561,
9924,TFN,60.199.204.0/23,60.199.205.0,,success,Taiwan,Taiwan,Taipei,25.0446,121.561,
9924,TFN,60.199.205.0/24,60.199.205.128,60-199-205-128.static.tfn.net.tw,success,Taiwan,Taiwan,Taipei,25.0446,121.561,
9924,TFN,60.199.206.0/24,60.199.206.128,60-199-206-128.static.tfn.net.tw,success,Taiwan,Taiwan,Taipei,25.0446,121.561,
9924,TFN,60.199.207.0/24,60.199.207.128,60-199-207-128.static.tfn.net.tw,success,Taiwan,Taiwan,Taipei,25.0446,121.561,
9924,TFN,60.199.208.0/24,60.199.208.128,,success,Taiwan,Taiwan,Taipei,25.0446,121.561,
9924,TFN,60.199.209.0/24,60.199.209.128,60-199-209-128.static.tfn.net.tw,success,Taiwan,Taiwan,Taipei,25.0446,121.561,
9924,TFN,60.199.211.0/24,60.199.211.128,60-199-211-128.static.tfn.net.tw,success,Taiwan,Taiwan,Taipei,25.0446,121.561,
9924,TFN,60.199.212.0/24,60.199.212.128,60-199-212-128.static.tfn.net.tw,success,Taiwan,Taiwan,Taipei,25.0446,121.561,
9924,TFN,60.199.213.0/24,60.199.213.128,60-199-213-128.static.tfn.net.tw,success,Taiwan,Taiwan,Taipei,25.0446,121.561,
9924,TFN,60.199.214.0/23,60.199.215.0,,success,Taiwan,Taiwan,Taipei,25.0446,121.561,
9924,TFN,60.199.214.0/24,60.199.214.128,60-199-214-128.static.tfn.net.tw,success,Taiwan,Taiwan,Taipei,25.0446,121.561,
9924,TFN,60.199.216.0/24,60.199.216.128,60-199-216-128.static.tfn.net.tw,success,Taiwan,Taiwan,Taipei,25.0446,121.561,
9924,TFN,60.199.217.0/24,60.199.217.128,,success,Taiwan,Taiwan,Taipei,25.0446,121.561,
9924,TFN,60.199.218.0/24,60.199.218.128,128.static.tfn.net.tw,success,Taiwan,Taiwan,Taipei,25.0446,121.561,
9924,TFN,60.199.219.0/24,60.199.219.128,60-199-219-128.static.tfn.net.tw,success,Taiwan,Taiwan,Taipei,25.0446,121.561,
9924,TFN,60.199.220.0/24,60.199.220.128,60-199-220-128.static.tfn.net.tw,success,Taiwan,Taiwan,Taipei,25.0446,121.561,
9924,TFN,60.199.221.0/24,60.199.221.128,60-199-221-128.static.tfn.net.tw,success,Taiwan,Taiwan,Taipei,25.0446,121.561,
9924,TFN,60.199.222.0/24,60.199.222.128,,success,Taiwan,Taiwan,Taipei,25.0446,121.561,
9924,TFN,60.199.223.0/24,60.199.223.128,60-199-223-128.static.tfn.net.tw,success,Taiwan,Taiwan,Taipei,25.0446,121.561,
9924,TFN,60.199.224.0/24,60.199.224.128,60-199-224-128.static.tfn.net.tw,success,Taiwan,Taiwan,Taipei,25.0446,121.561,
9924,TFN,60.199.226.0/24,60.199.226.128,60-199-226-128.static.tfn.net.tw,success,Taiwan,Taiwan,Taipei,25.0446,121.561,
9924,TFN,60.199.228.0/24,60.199.228.128,60-199-228-128.static.tfn.net.tw,success,Taiwan,Taiwan,Taipei,25.0446,121.561,
9924,TFN,60.199.229.0/24,60.199.229.128,,success,Taiwan,Taiwan,Taipei,25.0446,121.561,
9924,TFN,60.199.230.0/24,60.199.230.128,ip-60-199-230-128.doubleservice.com,success,Taiwan,Taiwan,Taipei,25.0446,121.561,
9924,TFN,60.199.231.0/24,60.199.231.128,60-199-231-128.static.tfn.net.tw,success,Taiwan,Taiwan,Taipei,25.0446,121.561,
9924,TFN,60.199.232.0/23,60.199.233.0,,success,Taiwan,Taiwan,Taipei,25.0446,121.561,
9924,TFN,60.199.232.0/24,60.199.232.128,60-199-232-128.static.tfn.net.tw,success,Taiwan,Taiwan,Taipei,25.0446,121.561,
9924,TFN,60.199.234.0/24,60.199.234.128,60-199-234-128.static.tfn.net.tw,success,Taiwan,Taiwan,Taipei,25.0446,121.561,
9924,TFN,60.199.235.0/24,60.199.235.128,60-199-235-128.static.tfn.net.tw,success,Taiwan,Taiwan,Taipei,25.0446,121.561,
9924,TFN,60.199.236.0/24,60.199.236.128,60-199-236-128.static.tfn.net.tw,success,Taiwan,Taiwan,Taipei,25.0446,121.561,
9924,TFN,60.199.239.0/24,60.199.239.128,60-199-239-128.static.tfn.net.tw,success,Taiwan,Taiwan,Taipei,25.0446,121.561,
9924,TFN,60.199.240.0/24,60.199.240.128,,success,Taiwan,Taiwan,Taipei,25.0446,121.561,
9924,TFN,60.199.241.0/24,60.199.241.128,,success,Taiwan,Taiwan,Taipei,25.0446,121.561,
9924,TFN,60.199.242.0/24,60.199.242.128,,success,Taiwan,Taiwan,Taipei,25.0446,121.561,
9924,TFN,60.199.243.0/24,60.199.243.128,60-199-243-128.static.tfn.net.tw,success,Taiwan,Taiwan,Taipei,25.0446,121.561,
9924,TFN,60.199.244.0/24,60.199.244.128,,success,Taiwan,Taiwan,Taipei,25.0446,121.561,
9924,TFN,60.199.245.0/24,60.199.245.128,,success,Taiwan,Taiwan,Taipei,25.0446,121.561,
9924,TFN,60.199.246.0/24,60.199.246.128,,success,Taiwan,Taiwan,Taipei,25.0446,121.561,
9924,TFN,60.199.247.0/24,60.199.247.128,,success,Taiwan,Taiwan,Taipei,25.0446,121.561,
9924,TFN,60.199.249.0/24,60.199.249.128,60-199-249-128.static.tfn.net.tw,success,Taiwan,Taiwan,Taipei,25.0446,121.561,
9924,TFN,60.199.250.0/24,60.199.250.128,60-199-250-128.static.tfn.net.tw,success,Taiwan,Taiwan,Taipei,25.0446,121.561,
9924,TFN,60.199.251.0/24,60.199.251.128,60-199-251-128.static.tfn.net.tw,success,Taiwan,Taiwan,Taipei,25.0446,121.561,
9924,TFN,60.199.252.0/24,60.199.252.128,,success,Taiwan,Taiwan,Taipei,25.0446,121.561,
9924,TFN,60.199.254.0/24,60.199.254.128,60-199-254-128.static.tfn.net.tw,success,Taiwan,Taiwan,Taipei,25.0446,121.561,
9924,TFN,61.30.0.0/21,61.30.4.0,,success,Taiwan,Taipei City,Taipei,25.053,121.5259,
9924,TFN,61.30.0.0/16,61.30.128.0,,success,Taiwan,Taipei City,Taipei,25.053,121.5259,
9924,TFN,61.30.0.0/18,61.30.32.0,,success,Taiwan,Taipei City,Taipei,25.053,121.5259,
9924,TFN,61.30.8.0/23,61.30.9.0,,success,Taiwan,Taipei City,Taipei,25.053,121.5259,
9924,TFN,61.30.18.0/23,61.30.19.0,,success,Taiwan,Taipei City,Taipei,25.053,121.5259,
9924,TFN,61.30.34.0/23,61.30.35.0,,success,Taiwan,Taipei City,Taipei,25.053,121.5259,
9924,TFN,61.30.36.0/22,61.30.38.0,,success,Taiwan,Taipei City,Taipei,25.053,121.5259,
9924,TFN,61.30.64.0/21,61.30.68.0,,success,Taiwan,Taipei City,Taipei,25.053,121.5259,
9924,TFN,61.30.64.0/18,61.30.96.0,,success,Taiwan,Taipei City,Taipei,25.053,121.5259,
9924,TFN,61.30.72.0/22,61.30.74.0,,success,Taiwan,Taipei City,Taipei,25.053,121.5259,
9924,TFN,61.30.76.0/23,61.30.77.0,,success,Taiwan,Taipei City,Taipei,25.053,121.5259,
9924,TFN,61.30.114.0/23,61.30.115.0,,success,Taiwan,Taipei City,Taipei,25.053,121.5259,
9924,TFN,61.30.116.0/23,61.30.117.0,,success,Taiwan,Taipei City,Taipei,25.053,121.5259,
9924,TFN,61.30.128.0/21,61.30.132.0,,success,Taiwan,Taipei City,Taipei,25.053,121.5259,
9924,TFN,61.30.136.0/22,61.30.138.0,,success,Taiwan,Taipei City,Taipei,25.053,121.5259,
9924,TFN,61.30.152.0/21,61.30.156.0,,success,Taiwan,Taipei City,Taipei,25.053,121.5259,
9924,TFN,61.30.176.0/21,61.30.180.0,,success,Taiwan,Taipei City,Taipei,25.053,121.5259,
9924,TFN,61.30.184.0/23,61.30.185.0,,success,Taiwan,Taipei City,Taipei,25.053,121.5259,
9924,TFN,61.30.190.0/23,61.30.191.0,,success,Taiwan,Taipei City,Taipei,25.053,121.5259,
9924,TFN,61.30.192.0/18,61.30.224.0,,success,Taiwan,Taipei City,Taipei,25.053,121.5259,
9924,TFN,61.30.202.0/23,61.30.203.0,,success,Taiwan,Taipei City,Taipei,25.053,121.5259,
9924,TFN,61.30.204.0/22,61.30.206.0,,success,Taiwan,Taipei City,Taipei,25.053,121.5259,
9924,TFN,61.30.232.0/21,61.30.236.0,,success,Taiwan,Taipei City,Taipei,25.053,121.5259,
9924,TFN,61.30.232.0/24,61.30.232.128,61-30-232-128.static.tfn.net.tw,success,Taiwan,Taipei City,Taipei,25.053,121.5259,
9924,TFN,61.30.233.0/24,61.30.233.128,,success,Taiwan,Taipei City,Taipei,25.053,121.5259,
9924,TFN,61.30.234.0/24,61.30.234.128,61-30-234-128.static.tfn.net.tw,success,Taiwan,Taipei City,Taipei,25.053,121.5259,
9924,TFN,61.30.235.0/24,61.30.235.128,61-30-235-128.static.tfn.net.tw,success,Taiwan,Taipei City,Taipei,25.053,121.5259,
9924,TFN,61.30.236.0/24,61.30.236.128,61-30-236-128.static.tfn.net.tw,success,Taiwan,Taipei City,Taipei,25.053,121.5259,
9924,TFN,61.30.237.0/24,61.30.237.128,,success,Taiwan,Taipei City,Taipei,25.053,121.5259,
9924,TFN,61.30.238.0/24,61.30.238.128,61-30-238-128.static.tfn.net.tw,success,Taiwan,Taipei City,Taipei,25.053,121.5259,
9924,TFN,61.30.239.0/24,61.30.239.128,61-30-239-128.static.tfn.net.tw,success,Taiwan,Taipei City,Taipei,25.053,121.5259,
9924,TFN,61.31.0.0/16,61.31.128.0,,success,Taiwan,Hsinchu County,Hsinchu County,24.673,121.1614,
9924,TFN,61.31.25.0/24,61.31.25.128,61-31-25-128.static.tfn.net.tw,success,Taiwan,Taipei City,Songshan,25.05,121.55,
9924,TFN,61.31.26.0/23,61.31.27.0,,success,Taiwan,Taipei City,Songshan,25.05,121.55,
9924,TFN,61.31.28.0/24,61.31.28.128,61-31-28-128.static.tfn.net.tw,success,Taiwan,Taipei City,Songshan,25.05,121.55,
9924,TFN,61.31.32.0/21,61.31.36.0,,success,Taiwan,Taipei City,Songshan,25.05,121.55,
9924,TFN,61.31.51.0/24,61.31.51.128,61-31-51-128.static.tfn.net.tw,success,Taiwan,Taipei City,Songshan,25.05,121.55,
9924,TFN,61.31.96.0/19,61.31.112.0,,success,Taiwan,Taipei City,Songshan,25.05,121.55,
9924,TFN,61.31.128.0/19,61.31.144.0,,success,Taiwan,Hsinchu County,Hsinchu County,24.673,121.1614,
9924,TFN,61.31.160.0/19,61.31.176.0,,success,Taiwan,Hsinchu County,Hsinchu County,24.673,121.1614,
9924,TFN,61.31.192.0/24,61.31.192.128,,success,Taiwan,Taipei City,Songshan,25.05,121.55,
9924,TFN,61.31.192.0/19,61.31.208.0,,success,Taiwan,Taipei City,Songshan,25.05,121.55,
9924,TFN,61.31.193.0/24,61.31.193.128,,success,Taiwan,Taipei City,Songshan,25.05,121.55,
9924,TFN,61.31.194.0/24,61.31.194.128,61-31-194-128.static.tfn.net.tw,success,Taiwan,Taipei City,Songshan,25.05,121.55,
9924,TFN,61.31.195.0/24,61.31.195.128,61-31-195-128.static.tfn.net.tw,success,Taiwan,Taipei City,Songshan,25.05,121.55,
9924,TFN,61.31.196.0/24,61.31.196.128,61-31-196-128.static.tfn.net.tw,success,Taiwan,Taipei City,Songshan,25.05,121.55,
9924,TFN,61.31.197.0/24,61.31.197.128,61-31-197-128.static.tfn.net.tw,success,Taiwan,Taipei City,Songshan,25.05,121.55,
9924,TFN,61.31.198.0/24,61.31.198.128,wbt128.asiawhere.com,success,Taiwan,Taipei City,Songshan,25.05,121.55,
9924,TFN,61.31.199.0/24,61.31.199.128,61-31-199-128.static.tfn.net.tw,success,Taiwan,Taipei City,Songshan,25.05,121.55,
9924,TFN,61.31.200.0/23,61.31.201.0,,success,Taiwan,Taipei City,Songshan,25.05,121.55,
9924,TFN,61.31.200.0/22,61.31.202.0,,success,Taiwan,Taipei City,Songshan,25.05,121.55,
9924,TFN,61.31.200.0/24,61.31.200.128,61-31-200-128.static.tfn.net.tw,success,Taiwan,Taipei City,Songshan,25.05,121.55,
9924,TFN,61.31.201.0/24,61.31.201.128,61-31-201-128.static.tfn.net.tw,success,Taiwan,Taipei City,Songshan,25.05,121.55,
9924,TFN,61.31.202.0/24,61.31.202.128,61-31-202-128.static.tfn.net.tw,success,Taiwan,Taipei City,Songshan,25.05,121.55,
9924,TFN,61.31.203.0/24,61.31.203.128,,success,Taiwan,Taipei City,Songshan,25.05,121.55,
9924,TFN,61.31.204.0/24,61.31.204.128,61-31-204-128.static.tfn.net.tw,success,Taiwan,Taipei City,Songshan,25.05,121.55,
9924,TFN,61.31.205.0/24,61.31.205.128,61-31-205-128.static.tfn.net.tw,success,Taiwan,Taipei City,Songshan,25.05,121.55,
9924,TFN,61.31.206.0/24,61.31.206.128,,success,Taiwan,Taipei City,Songshan,25.05,121.55,
9924,TFN,61.31.207.0/24,61.31.207.128,61.31.207.*.efax.com,success,Taiwan,Taipei City,Songshan,25.05,121.55,
9924,TFN,61.31.209.0/24,61.31.209.128,61-31-209-128.static.tfn.net.tw,success,Taiwan,Taipei City,Songshan,25.05,121.55,
9924,TFN,61.31.213.0/24,61.31.213.128,61-31-213-128.static.tfn.net.tw,success,Taiwan,Taipei City,Songshan,25.05,121.55,
9924,TFN,61.31.221.0/24,61.31.221.128,61-31-221-128.static.tfn.net.tw,success,Taiwan,Taipei City,Songshan,25.05,121.55,
9924,TFN,61.31.224.0/24,61.31.224.128,w35.i-part.com.tw,success,Taiwan,Taipei City,Songshan,25.05,121.55,
9924,TFN,61.31.224.0/20,61.31.232.0,,success,Taiwan,Taipei City,Songshan,25.05,121.55,
9924,TFN,61.31.225.0/24,61.31.225.128,61-31-225-128.static.tfn.net.tw,success,Taiwan,Taipei City,Songshan,25.05,121.55,
9924,TFN,61.31.226.0/24,61.31.226.128,61-31-226-128.static.tfn.net.tw,success,Taiwan,Taipei City,Songshan,25.05,121.55,
9924,TFN,61.31.227.0/24,61.31.227.128,61-31-227-128.static.tfn.net.tw,success,Taiwan,Taipei City,Songshan,25.05,121.55,
9924,TFN,61.31.228.0/24,61.31.228.128,61-31-228-128.static.tfn.net.tw,success,Taiwan,Taipei City,Songshan,25.05,121.55,
9924,TFN,61.31.229.0/24,61.31.229.128,61-31-229-128.static.tfn.net.tw,success,Taiwan,Taipei City,Songshan,25.05,121.55,
9924,TFN,61.31.230.0/24,61.31.230.128,61-31-230-128.static.tfn.net.tw,success,Taiwan,Taipei City,Songshan,25.05,121.55,
9924,TFN,61.31.231.0/24,61.31.231.128,61-31-231-128.static.tfn.net.tw,success,Taiwan,Taipei City,Songshan,25.05,121.55,
9924,TFN,61.31.232.0/24,61.31.232.128,61-31-232-128.static.tfn.net.tw,success,Taiwan,Taipei City,Songshan,25.05,121.55,
9924,TFN,61.31.234.0/24,61.31.234.128,61-31-234-128.static.tfn.net.tw,success,Taiwan,Taipei City,Songshan,25.05,121.55,
9924,TFN,61.31.235.0/24,61.31.235.128,61-31-235-128.static.tfn.net.tw,success,Taiwan,Taipei City,Songshan,25.05,121.55,
9924,TFN,61.31.236.0/24,61.31.236.128,61-31-236-128.static.tfn.net.tw,success,Taiwan,Taipei City,Songshan,25.05,121.55,
9924,TFN,61.31.237.0/24,61.31.237.128,,success,Taiwan,Taipei City,Songshan,25.05,121.55,
9924,TFN,61.31.238.0/24,61.31.238.128,61-31-238-128.static.tfn.net.tw,success,Taiwan,Taipei City,Songshan,25.05,121.55,
9924,TFN,61.31.239.0/24,61.31.239.128,61-31-239-128.static.tfn.net.tw,success,Taiwan,Taipei City,Songshan,25.05,121.55,
9924,TFN,61.57.0.0/19,61.57.16.0,,success,Taiwan,Taiwan,Neihu District,25.0689,121.591,
9924,TFN,61.60.240.0/21,61.60.244.0,,success,Taiwan,Taichung City,Taichung,24.144,120.6844,
9924,TFN,61.60.240.0/20,61.60.248.0,,success,Taiwan,Taichung City,Taichung,24.144,120.6844,
9924,TFN,61.60.248.0/21,61.60.252.0,,success,Taiwan,Taichung City,Taichung,24.144,120.6844,
9924,TFN,103.23.108.0/22,103.23.110.0,ip-103-23-110-0.static.pixnet.tw,success,Taiwan,Taiwan,Taipei,25.033,121.565,
9924,TFN,103.123.188.0/23,103.123.189.0,,success,Taiwan,Taipei,Tuniugou,24.9493,121.337,
9924,TFN,103.123.188.0/22,103.123.190.0,,success,Taiwan,Taipei,Yingge District,24.9493,121.337,
9924,TFN,103.123.190.0/24,103.123.190.128,,success,Taiwan,Taipei,Yingge District,24.9493,121.337,
9924,TFN,103.123.191.0/24,103.123.191.128,,success,Taiwan,Taipei,Yingge District,24.9493,121.337,
9924,TFN,103.129.176.0/22,103.129.178.0,,success,Taiwan,Taiwan,Neihu District,25.0689,121.591,
9924,TFN,103.129.176.0/24,103.129.176.128,,success,Taiwan,Taiwan,Neihu District,25.0689,121.591,
9924,TFN,103.129.178.0/24,103.129.178.128,,success,Taiwan,Taiwan,Neihu District,25.0689,121.591,
9924,TFN,103.224.132.0/22,103.224.134.0,,success,Taiwan,Taiwan,Taipei,25.033,121.565,
9924,TFN,103.224.135.0/24,103.224.135.128,,success,Taiwan,Taiwan,Taipei,25.033,121.565,
9924,TFN,124.8.0.0/17,124.8.64.0,,success,Taiwan,Chiayi,Chiayi City,23.4815,120.4498,
9924,TFN,124.8.0.0/16,124.8.128.0,,success,Taiwan,Chiayi,Chiayi City,23.4815,120.4498,
9924,TFN,124.8.0.0/14,124.10.0.0,124-10-0-0.static.tfn.net.tw,success,Taiwan,Taiwan,Taipei,25.0446,121.561,
9924,TFN,124.8.128.0/17,124.8.192.0,,success,Taiwan,Chiayi,Chiayi City,23.4815,120.4498,
9924,TFN,124.9.0.0/16,124.9.128.0,,success,Taiwan,Taiwan,Neihu District,25.0689,121.591,
9924,TFN,124.9.0.0/17,124.9.64.0,,success,Taiwan,Changhua,Chang-hua,24.0761,120.5648,
9924,TFN,124.9.32.0/20,124.9.40.0,,success,Taiwan,Changhua,Chang-hua,24.0761,120.5648,
9924,TFN,124.9.56.0/21,124.9.60.0,,success,Taiwan,Changhua,Chang-hua,24.0761,120.5648,
9924,TFN,124.9.56.0/23,124.9.57.0,,success,Taiwan,Changhua,Chang-hua,24.0761,120.5648,
9924,TFN,124.9.60.0/23,124.9.61.0,,success,Taiwan,Changhua,Chang-hua,24.0761,120.5648,
9924,TFN,124.9.61.0/24,124.9.61.128,124-9-61-128.static.tfn.net.tw,success,Taiwan,Changhua,Chang-hua,24.0761,120.5648,
9924,TFN,124.9.62.0/24,124.9.62.128,124-9-62-128.static.tfn.net.tw,success,Taiwan,Changhua,Chang-hua,24.0761,120.5648,
9924,TFN,124.9.63.0/24,124.9.63.128,124-9-63-128.static.tfn.net.tw,success,Taiwan,Changhua,Chang-hua,24.0761,120.5648,
9924,TFN,124.9.64.0/20,124.9.72.0,,success,Taiwan,Changhua,Chang-hua,24.0761,120.5648,
9924,TFN,124.9.64.0/19,124.9.80.0,,success,Taiwan,Changhua,Chang-hua,24.0761,120.5648,
9924,TFN,124.9.80.0/20,124.9.88.0,,success,Taiwan,Changhua,Chang-hua,24.0761,120.5648,
9924,TFN,124.9.96.0/19,124.9.112.0,,success,Taiwan,Changhua,Yuanlin,23.9579,120.5747,
9924,TFN,124.9.128.0/17,124.9.192.0,,success,Taiwan,Taiwan,Neihu District,25.0689,121.591,
9924,TFN,124.10.0.0/17,124.10.64.0,,success,Taiwan,Taiwan,Taipei,25.0446,121.561,
9924,TFN,124.10.0.0/16,124.10.128.0,124-10-128-0.static.tfn.net.tw,success,Taiwan,Taiwan,Taipei,25.0446,121.561,
9924,TFN,124.10.128.0/17,124.10.192.0,,success,Taiwan,Taiwan,Taipei,25.0446,121.561,
9924,TFN,124.11.0.0/16,124.11.128.0,124-11-128-0.static.tfn.net.tw,success,Taiwan,Taiwan,Neihu District,25.0689,121.591,
9924,TFN,124.11.0.0/17,124.11.64.0,,success,Taiwan,Taipei,Banqiao,25.0143,121.467,
9924,TFN,124.11.128.0/17,124.11.192.0,,success,Taiwan,Taiwan,Taipei,25.0446,121.561,
9924,TFN,124.12.0.0/16,124.12.128.0,124-12-128-0.static.tfn.net.tw,success,Taiwan,Taiwan,Neihu District,25.0689,121.591,
9924,TFN,124.12.0.0/17,124.12.64.0,124-12-64-0.dynamic.tfn.net.tw,success,Taiwan,Taiwan,Neihu District,25.0689,121.591,
9924,TFN,124.12.128.0/17,124.12.192.0,124-12-192-0.dynamic.tfn.net.tw,success,Taiwan,Taiwan,Taipei,25.0265,121.555,
9924,TFN,124.108.128.0/19,124.108.144.0,124-108-144-0.static.tfn.net.tw,success,Taiwan,Taiwan,Neihu District,25.0689,121.591,
9924,TFN,124.108.128.0/23,124.108.129.0,124-108-129-0.static.tfn.net.tw,success,Taiwan,Taiwan,Neihu District,25.0689,121.591,
9924,TFN,124.108.128.0/24,124.108.128.128,124-108-128-128.static.tfn.net.tw,success,Taiwan,Taiwan,Neihu District,25.0689,121.591,
9924,TFN,124.108.129.0/24,124.108.129.128,124-108-129-128.static.tfn.net.tw,success,Taiwan,Taiwan,Neihu District,25.0689,121.591,
9924,TFN,124.108.132.0/24,124.108.132.128,124-108-132-128.static.tfn.net.tw,success,Taiwan,Taiwan,Neihu District,25.0689,121.591,
9924,TFN,124.108.133.0/24,124.108.133.128,124-108-133-128.static.tfn.net.tw,success,Taiwan,Taiwan,Neihu District,25.0689,121.591,
9924,TFN,124.108.134.0/24,124.108.134.128,124-108-134-128.static.tfn.net.tw,success,Taiwan,Taiwan,Neihu District,25.0689,121.591,
9924,TFN,124.108.135.0/24,124.108.135.128,124-108-135-128.static.tfn.net.tw,success,Taiwan,Taiwan,Neihu District,25.0689,121.591,
9924,TFN,124.108.140.0/23,124.108.141.0,124-108-141-0.static.tfn.net.tw,success,Taiwan,Taiwan,Taipei,25.0265,121.555,
9924,TFN,124.108.142.0/24,124.108.142.128,124-108-142-128.static.tfn.net.tw,success,Taiwan,Taiwan,Neihu District,25.0689,121.591,
9924,TFN,124.108.144.0/20,124.108.152.0,124-108-152-0.static.tfn.net.tw,success,Taiwan,Taiwan,Taipei,25.0265,121.555,
9924,TFN,124.108.146.0/24,124.108.146.128,124-108-146-128.static.tfn.net.tw,success,Taiwan,Taiwan,Neihu District,25.0689,121.591,
9924,TFN,124.108.147.0/24,124.108.147.128,124-108-147-128.static.tfn.net.tw,success,Taiwan,Taiwan,Neihu District,25.0689,121.591,
9924,TFN,124.108.160.0/20,124.108.168.0,124-108-168-0.static.tfn.net.tw,success,Taiwan,Taiwan,Neihu District,25.0689,121.591,
9924,TFN,124.108.160.0/19,124.108.176.0,124-108-176-0.static.tfn.net.tw,success,Taiwan,Taiwan,Taipei,25.0262,121.554,
9924,TFN,124.108.168.0/24,124.108.168.128,124-108-168-128.static.tfn.net.tw,success,Taiwan,Taiwan,Neihu District,25.0689,121.591,
9924,TFN,124.108.169.0/24,124.108.169.128,124-108-169-128.static.tfn.net.tw,success,Taiwan,Taiwan,Neihu District,25.0689,121.591,
9924,TFN,124.108.170.0/24,124.108.170.128,124-108-170-128.static.tfn.net.tw,success,Taiwan,Taiwan,Neihu District,25.0689,121.591,
9924,TFN,124.108.171.0/24,124.108.171.128,124-108-171-128.static.tfn.net.tw,success,Taiwan,Taiwan,Neihu District,25.0689,121.591,
9924,TFN,124.108.176.0/23,124.108.177.0,124-108-177-0.static.tfn.net.tw,success,Taiwan,Taiwan,Taipei,25.0262,121.554,
9924,TFN,124.108.176.0/20,124.108.184.0,124-108-184-0.static.tfn.net.tw,success,Taiwan,Taiwan,Taipei,25.0262,121.554,
9924,TFN,175.96.0.0/14,175.98.0.0,175-98-0-0.static.tfn.net.tw,success,Taiwan,Kaohsiung,Kaohsiung,22.6148,120.3139,
9924,TFN,175.96.0.0/17,175.96.64.0,175-96-64-0.dynamic.tfn.net.tw,success,Taiwan,Taiwan,Poxin,25.0265,121.555,
9924,TFN,175.96.0.0/16,175.96.128.0,175-96-128-0.dynamic.tfn.net.tw,success,Taiwan,Taiwan,Neihu District,25.0689,121.591,
9924,TFN,175.96.128.0/17,175.96.192.0,175-96-192-0.dynamic.tfn.net.tw,success,Taiwan,Taiwan,Poxin,25.0265,121.555,
9924,TFN,175.97.0.0/16,175.97.128.0,175-97-128-0.dynamic.tfn.net.tw,success,Taiwan,Taiwan,Taipei,25.0446,121.561,
9924,TFN,175.97.0.0/17,175.97.64.0,175-97-64-0.dynamic.tfn.net.tw,success,Taiwan,Taiwan,Neihu District,25.0689,121.591,
9924,TFN,175.97.128.0/17,175.97.192.0,175-97-192-0.dynamic.tfn.net.tw,success,Taiwan,Taiwan,Neihu District,25.0689,121.591,
9924,TFN,175.98.0.0/16,175.98.128.0,175-98-128-0.static.tfn.net.tw,success,Taiwan,Taipei City,Taipei,25.053,121.5259,
9924,TFN,175.98.0.0/17,175.98.64.0,175-98-64-0.static.tfn.net.tw,success,Taiwan,Kaohsiung,Kaohsiung,22.6148,120.3139,
9924,TFN,175.98.0.0/18,175.98.32.0,175-98-32-0.static.tfn.net.tw,success,Taiwan,Kaohsiung,Kaohsiung,22.6148,120.3139,
9924,TFN,175.98.64.0/19,175.98.80.0,175-98-80-0.static.tfn.net.tw,success,Taiwan,Kaohsiung,Kaohsiung,22.6148,120.3139,
9924,TFN,175.98.100.0/24,175.98.100.128,175-98-100-128.static.tfn.net.tw,success,Taiwan,Taiwan,Taipei,25.0446,121.561,
9924,TFN,175.98.128.0/17,175.98.192.0,175-98-192-0.static.tfn.net.tw,success,Taiwan,Taipei City,Taipei,25.053,121.5259,
9924,TFN,175.98.186.0/24,175.98.186.128,175-98-186-128.static.tfn.net.tw,success,Taiwan,Taiwan,Taipei,25.0446,121.561,
9924,TFN,175.99.0.0/16,175.99.128.0,175-99-128-0.static.tfn.net.tw,success,Taiwan,Taipei City,Taipei,25.053,121.5259,
9924,TFN,175.99.0.0/18,175.99.32.0,175-99-32-0.static.tfn.net.tw,success,Taiwan,Taiwan,Taipei City,25.0446,121.561,
9924,TFN,175.99.64.0/24,175.99.64.128,175-99-64-128.static.tfn.net.tw,success,Taiwan,Taiwan,Taipei,25.0446,121.561,
9924,TFN,175.99.64.0/18,175.99.96.0,175-99-96-0.static.tfn.net.tw,success,Taiwan,Taiwan,Taipei,25.0446,121.561,
9924,TFN,175.99.65.0/24,175.99.65.128,175-99-65-128.static.tfn.net.tw,success,Taiwan,Taiwan,Taipei,25.0446,121.561,
9924,TFN,175.99.66.0/23,175.99.67.0,175-99-67-0.static.tfn.net.tw,success,Taiwan,Taiwan,Taipei,25.0446,121.561,
9924,TFN,175.99.66.0/24,175.99.66.128,175-99-66-128.static.tfn.net.tw,success,Taiwan,Taiwan,Taipei,25.0446,121.561,
9924,TFN,175.99.67.0/24,175.99.67.128,175-99-67-128.static.tfn.net.tw,success,Taiwan,Taiwan,Taipei,25.0446,121.561,
9924,TFN,175.99.68.0/24,175.99.68.128,175-99-68-128.static.tfn.net.tw,success,Taiwan,Taiwan,Taipei,25.0446,121.561,
9924,TFN,175.99.69.0/24,175.99.69.128,175-99-69-128.static.tfn.net.tw,success,Taiwan,Taiwan,Taipei,25.0446,121.561,
9924,TFN,175.99.70.0/24,175.99.70.128,175-99-70-128.static.tfn.net.tw,success,Taiwan,Taiwan,Taipei,25.0446,121.561,
9924,TFN,175.99.71.0/24,175.99.71.128,175-99-69-128.static.tfn.net.tw,success,Taiwan,Taiwan,Taipei,25.0446,121.561,
9924,TFN,175.99.72.0/24,175.99.72.128,,success,Taiwan,Taiwan,Taipei,25.0446,121.561,
9924,TFN,175.99.73.0/24,175.99.73.128,175-99-73-128.static.tfn.net.tw,success,Taiwan,Taiwan,Taipei,25.0446,121.561,
9924,TFN,175.99.74.0/24,175.99.74.128,175-99-74-128.static.tfn.net.tw,success,Taiwan,Taiwan,Taipei,25.0446,121.561,
9924,TFN,175.99.75.0/24,175.99.75.128,175-99-75-128.static.tfn.net.tw,success,Taiwan,Taiwan,Taipei,25.0446,121.561,
9924,TFN,175.99.76.0/24,175.99.76.128,175-99-76-128.static.tfn.net.tw,success,Taiwan,Taiwan,Taipei,25.0446,121.561,
9924,TFN,175.99.77.0/24,175.99.77.128,175-99-77-128.static.tfn.net.tw,success,Taiwan,Taiwan,Taipei,25.0446,121.561,
9924,TFN,175.99.78.0/24,175.99.78.128,175-99-78-128.static.tfn.net.tw,success,Taiwan,Taiwan,Taipei,25.0446,121.561,
9924,TFN,175.99.79.0/24,175.99.79.128,175-99-79-128.static.tfn.net.tw,success,Taiwan,Taiwan,Taipei,25.0446,121.561,
9924,TFN,175.99.80.0/24,175.99.80.128,175-99-80-128.static.tfn.net.tw,success,Taiwan,Taiwan,Taipei,25.0446,121.561,
9924,TFN,175.99.81.0/24,175.99.81.128,175-99-81-128.static.tfn.net.tw,success,Taiwan,Taiwan,Taipei,25.0446,121.561,
9924,TFN,175.99.82.0/24,175.99.82.128,175-99-82-128.static.tfn.net.tw,success,Taiwan,Taiwan,Taipei,25.0446,121.561,
9924,TFN,175.99.83.0/24,175.99.83.128,175-99-83-128.static.tfn.net.tw,success,Taiwan,Taiwan,Taipei,25.0446,121.561,
9924,TFN,175.99.84.0/24,175.99.84.128,175-99-84-128.static.tfn.net.tw,success,Taiwan,Taiwan,Taipei,25.0446,121.561,
9924,TFN,175.99.85.0/24,175.99.85.128,175-99-85-128.static.tfn.net.tw,success,Taiwan,Taiwan,Taipei,25.0446,121.561,
9924,TFN,175.99.86.0/24,175.99.86.128,175-99-86-128.static.tfn.net.tw,success,Taiwan,Taiwan,Taipei,25.0446,121.561,
9924,TFN,175.99.87.0/24,175.99.87.128,175-99-87-128.static.tfn.net.tw,success,Taiwan,Taiwan,Taipei,25.0446,121.561,
9924,TFN,175.99.88.0/24,175.99.88.128,175-99-88-128.static.tfn.net.tw,success,Taiwan,Taiwan,Taipei,25.0446,121.561,
9924,TFN,175.99.89.0/24,175.99.89.128,175-99-89-128.static.tfn.net.tw,success,Taiwan,Taiwan,Taipei,25.0446,121.561,
9924,TFN,175.99.90.0/24,175.99.90.128,175-99-90-128.static.tfn.net.tw,success,Taiwan,Taiwan,Taipei,25.0446,121.561,
9924,TFN,175.99.91.0/24,175.99.91.128,175-99-91-128.static.tfn.net.tw,success,Taiwan,Taiwan,Taipei,25.0446,121.561,
9924,TFN,175.99.92.0/24,175.99.92.128,175-99-92-128.static.tfn.net.tw,success,Taiwan,Taiwan,Taipei,25.0446,121.561,
9924,TFN,175.99.93.0/24,175.99.93.128,175-99-93-128.static.tfn.net.tw,success,Taiwan,Taiwan,Taipei,25.0446,121.561,
9924,TFN,175.99.94.0/23,175.99.95.0,175-99-95-0.static.tfn.net.tw,success,Taiwan,Taiwan,Taipei,25.0446,121.561,
9924,TFN,175.99.95.0/24,175.99.95.128,175-99-95-128.static.tfn.net.tw,success,Taiwan,Taiwan,Taipei,25.0446,121.561,
9924,TFN,175.99.112.0/22,175.99.114.0,175-99-114-0.static.tfn.net.tw,success,Taiwan,Taiwan,Taipei,25.0446,121.561,
9924,TFN,175.99.120.0/24,175.99.120.128,175-99-120-128.static.tfn.net.tw,success,Taiwan,Taiwan,Taipei,25.0446,121.561,
9924,TFN,175.99.123.0/24,175.99.123.128,175-99-123-128.static.tfn.net.tw,success,Taiwan,Taiwan,Taipei,25.0446,121.561,
9924,TFN,175.99.126.0/24,175.99.126.128,175-99-126-128.static.tfn.net.tw,success,Taiwan,Taiwan,Taipei,25.0446,121.561,
9924,TFN,175.99.128.0/18,175.99.160.0,175-99-160-0.static.tfn.net.tw,success,Taiwan,Taipei City,Taipei,25.053,121.5259,
9924,TFN,175.99.192.0/18,175.99.224.0,175-99-224-0.static.tfn.net.tw,success,Taiwan,Taiwan,Taipei,25.0265,121.555,
9924,TFN,180.92.0.0/20,180.92.8.0,,success,Taiwan,Taiwan,Puzi,23.4518,120.255,
9924,TFN,180.92.0.0/21,180.92.4.0,,success,Taiwan,Taiwan,Neihu District,25.0689,121.591,
9924,TFN,180.92.8.0/21,180.92.12.0,,success,Taiwan,Taiwan,Neihu District,25.0689,121.591,
9924,TFN,202.132.0.0/19,202.132.16.0,0.16.132.202.adsl.static.ttn.net,success,Taiwan,Taiwan,Taipei,25.0237,121.552,
9924,TFN,202.132.32.0/19,202.132.48.0,202-132-48-0.adsl.ttn.net,success,Taiwan,Taiwan,Taipei,25.0237,121.552,
9924,TFN,202.132.64.0/19,202.132.80.0,202-132-80-0.adsl.ttn.net,success,Taiwan,Taiwan,Taipei,25.0237,121.552,
9924,TFN,202.132.96.0/19,202.132.112.0,,success,Taiwan,Taiwan,Taipei,25.0237,121.552,
9924,TFN,202.132.128.0/19,202.132.144.0,,success,Taiwan,Taiwan,Taipei,25.0237,121.552,
9924,TFN,202.132.160.0/19,202.132.176.0,,success,Taiwan,Taiwan,Taipei,25.0237,121.552,
9924,TFN,202.132.192.0/19,202.132.208.0,,success,Taiwan,Taiwan,Taipei,25.0237,121.552,
9924,TFN,202.132.224.0/19,202.132.240.0,,success,Taiwan,Taiwan,Taipei,25.0237,121.552,
9924,TFN,202.145.32.0/19,202.145.48.0,202-145-48-0.adsl.ttn.net,success,Taiwan,Taiwan,Taipei,25.0446,121.561,
9924,TFN,202.145.64.0/18,202.145.96.0,0.96.145.202.adsl.static.ttn.net,success,Taiwan,Taiwan,Taipei,25.0446,121.561,
9924,TFN,202.145.128.0/17,202.145.192.0,,success,Taiwan,Taiwan,Taipei,25.0237,121.552,
9924,TFN,202.145.199.0/24,202.145.199.128,,success,Taiwan,Taiwan,Taipei,25.0237,121.552,
9924,TFN,203.65.160.0/19,203.65.176.0,,success,Taiwan,Taiwan,Neihu District,25.0794,121.594,
9924,TFN,203.65.172.0/24,203.65.172.128,host128.20365172.gcn.net.tw,success,Taiwan,Taiwan,Neihu District,25.0689,121.591,
9924,TFN,203.65.174.0/24,203.65.174.128,host128.20365174.gcn.net.tw,success,Taiwan,Taiwan,Neihu District,25.0689,121.591,
9924,TFN,203.65.192.0/20,203.65.200.0,,success,Taiwan,Taiwan,Neihu District,25.0689,121.591,
9924,TFN,203.65.208.0/20,203.65.216.0,,success,Taiwan,Taiwan,Neihu District,25.0689,121.591,
9924,TFN,203.65.231.0/24,203.65.231.128,,success,Taiwan,Taiwan,Neihu District,25.0689,121.591,
9924,TFN,203.65.232.0/24,203.65.232.128,,success,Taiwan,Taiwan,Neihu District,25.0689,121.591,
9924,TFN,203.77.37.0/24,203.77.37.128,host128.2037737.gcn.net.tw,success,Taiwan,Taiwan,Taipei,25.0262,121.543,
9924,TFN,203.77.70.0/24,203.77.70.128,host128.2037770.gcn.net.tw,success,Taiwan,Taiwan,Taipei,25.0446,121.561,
9924,TFN,203.105.224.0/19,203.105.240.0,,success,Taiwan,Taiwan,Taipei,25.0501,121.565,
9924,TFN,203.211.0.0/19,203.211.16.0,,success,Taiwan,Taiwan,Taipei,25.0237,121.552,
9924,TFN,203.211.2.0/24,203.211.2.128,128.2.211.203.dynamic.ttn.net,success,Taiwan,Taiwan,Taipei,25.0237,121.552,
9924,TFN,203.211.4.0/24,203.211.4.128,128.4.211.203.dynamic.ttn.net,success,Taiwan,Taiwan,Taipei,25.0237,121.552,
9924,TFN,203.211.5.0/24,203.211.5.128,128.5.211.203.dynamic.ttn.net,success,Taiwan,Taiwan,Taipei,25.0237,121.552,
9924,TFN,203.211.7.0/24,203.211.7.128,128.7.211.203.dynamic.ttn.net,success,Taiwan,Taiwan,Taipei,25.0237,121.552,
9924,TFN,203.211.9.0/24,203.211.9.128,128.9.211.203.dynamic.ttn.net,success,Taiwan,Taiwan,Taipei,25.0237,121.552,
9924,TFN,210.17.0.0/22,210.17.2.0,,success,Taiwan,Taiwan,Taipei,25.0237,121.552,
9924,TFN,210.17.0.0/17,210.17.64.0,,success,Taiwan,Taiwan,Taipei,25.0237,121.552,
9924,TFN,210.17.4.0/24,210.17.4.128,,success,Taiwan,Taiwan,Taipei,25.0237,121.552,
9924,TFN,210.17.5.0/24,210.17.5.128,,success,Taiwan,Taiwan,Taipei,25.0237,121.552,
9924,TFN,210.17.6.0/24,210.17.6.128,,success,Taiwan,Taiwan,Taipei,25.0237,121.552,
9924,TFN,210.17.7.0/24,210.17.7.128,,success,Taiwan,Taiwan,Taipei,25.0237,121.552,
9924,TFN,210.17.8.0/24,210.17.8.128,,success,Taiwan,Taiwan,Taipei,25.0237,121.552,
9924,TFN,210.17.11.0/24,210.17.11.128,,success,Taiwan,Taiwan,Taipei,25.0237,121.552,
9924,TFN,210.17.12.0/24,210.17.12.128,,success,Taiwan,Taiwan,Taipei,25.0237,121.552,
9924,TFN,210.17.13.0/24,210.17.13.128,,success,Taiwan,Taiwan,Taipei,25.0237,121.552,
9924,TFN,210.17.14.0/24,210.17.14.128,,success,Taiwan,Taiwan,Taipei,25.0237,121.552,
9924,TFN,210.17.15.0/24,210.17.15.128,,success,Taiwan,Taiwan,Taipei,25.0237,121.552,
9924,TFN,210.17.16.0/24,210.17.16.128,,success,Taiwan,Taiwan,Taipei,25.0237,121.552,
9924,TFN,210.17.17.0/24,210.17.17.128,,success,Taiwan,Taiwan,Taipei,25.0237,121.552,
9924,TFN,210.17.18.0/24,210.17.18.128,,success,Taiwan,Taiwan,Taipei,25.0237,121.552,
9924,TFN,210.17.19.0/24,210.17.19.128,,success,Taiwan,Taiwan,Taipei,25.0237,121.552,
9924,TFN,210.17.20.0/24,210.17.20.128,,success,Taiwan,Taiwan,Taipei,25.0237,121.552,
9924,TFN,210.17.21.0/24,210.17.21.128,,success,Taiwan,Taiwan,Taipei,25.0237,121.552,
9924,TFN,210.17.22.0/24,210.17.22.128,,success,Taiwan,Taiwan,Taipei,25.0237,121.552,
9924,TFN,210.17.23.0/24,210.17.23.128,,success,Taiwan,Taiwan,Taipei,25.0237,121.552,
9924,TFN,210.17.24.0/24,210.17.24.128,,success,Taiwan,Taiwan,Taipei,25.0237,121.552,
9924,TFN,210.17.28.0/24,210.17.28.128,,success,Taiwan,Taiwan,Taipei,25.0237,121.552,
9924,TFN,210.17.30.0/23,210.17.31.0,,success,Taiwan,Taiwan,Taipei,25.0237,121.552,
9924,TFN,210.17.35.0/24,210.17.35.128,,success,Taiwan,Taiwan,Taipei,25.0237,121.552,
9924,TFN,210.17.38.0/23,210.17.39.0,,success,Taiwan,Taiwan,Taipei,25.0237,121.552,
9924,TFN,210.17.38.0/24,210.17.38.128,,success,Taiwan,Taiwan,Taipei,25.0237,121.552,
9924,TFN,210.17.39.0/24,210.17.39.128,,success,Taiwan,Taiwan,Taipei,25.0237,121.552,
9924,TFN,210.17.40.0/21,210.17.44.0,,success,Taiwan,Taiwan,Taipei,25.0237,121.552,
9924,TFN,210.17.53.0/24,210.17.53.128,,success,Taiwan,Taiwan,Taipei,25.0237,121.552,
9924,TFN,210.17.55.0/24,210.17.55.128,,success,Taiwan,Taiwan,Taipei,25.0237,121.552,
9924,TFN,210.17.56.0/23,210.17.57.0,,success,Taiwan,Taiwan,Taipei,25.0237,121.552,
9924,TFN,210.17.63.0/24,210.17.63.128,,success,Taiwan,Taiwan,Taipei,25.0237,121.552,
9924,TFN,210.17.64.0/21,210.17.68.0,,success,Taiwan,Taiwan,Taipei,25.0237,121.552,
9924,TFN,210.17.72.0/24,210.17.72.128,,success,Taiwan,Taiwan,Taipei,25.0237,121.552,
9924,TFN,210.17.75.0/24,210.17.75.128,,success,Taiwan,Taiwan,Taipei,25.0237,121.552,
9924,TFN,210.17.80.0/20,210.17.88.0,,success,Taiwan,Taiwan,Taipei,25.0237,121.552,
9924,TFN,210.17.84.0/24,210.17.84.128,,success,Taiwan,Taiwan,Taipei,25.0237,121.552,
9924,TFN,210.17.85.0/24,210.17.85.128,,success,Taiwan,Taiwan,Taipei,25.0237,121.552,
9924,TFN,210.17.92.0/24,210.17.92.128,,success,Taiwan,Taiwan,Taipei,25.0237,121.552,
9924,TFN,210.17.96.0/24,210.17.96.128,,success,Taiwan,Taiwan,Taipei,25.0237,121.552,
9924,TFN,210.17.96.0/22,210.17.98.0,,success,Taiwan,Taiwan,Taipei,25.0237,121.552,
9924,TFN,210.17.100.0/24,210.17.100.128,,success,Taiwan,Taiwan,Taipei,25.0237,121.552,
9924,TFN,210.17.100.0/23,210.17.101.0,,success,Taiwan,Taiwan,Taipei,25.0237,121.552,
9924,TFN,210.17.101.0/24,210.17.101.128,,success,Taiwan,Taiwan,Taipei,25.0237,121.552,
9924,TFN,210.17.102.0/24,210.17.102.128,,success,Taiwan,Taiwan,Taipei,25.0237,121.552,
9924,TFN,210.17.103.0/24,210.17.103.128,,success,Taiwan,Taiwan,Taipei,25.0237,121.552,
9924,TFN,210.17.104.0/21,210.17.108.0,,success,Taiwan,Taiwan,Taipei,25.0237,121.552,
9924,TFN,210.17.112.0/20,210.17.120.0,,success,Taiwan,Taiwan,Taipei,25.0237,121.552,
9924,TFN,210.62.32.0/19,210.62.48.0,,success,Taiwan,Taiwan,Neihu District,25.0689,121.591,
9924,TFN,210.62.192.0/19,210.62.208.0,,success,Taiwan,Taiwan,Taipei,25.033,121.565,
9924,TFN,210.63.128.0/19,210.63.144.0,,success,Taiwan,Taiwan,Neihu District,25.0532,121.59,
9924,TFN,210.63.152.0/24,210.63.152.128,,success,Taiwan,Taiwan,Neihu District,25.0689,121.591,
9924,TFN,210.63.160.0/19,210.63.176.0,,success,Taiwan,Taiwan,Neihu District,25.0689,121.591,
9924,TFN,210.67.144.0/20,210.67.152.0,,success,Taiwan,Taiwan,Neihu District,25.0689,121.591,
9924,TFN,210.67.160.0/19,210.67.176.0,,success,Taiwan,Taiwan,Neihu District,25.0689,121.591,
9924,TFN,210.67.192.0/19,210.67.208.0,,success,Taiwan,Taiwan,Neihu District,25.0936,121.594,
9924,TFN,210.192.0.0/19,210.192.16.0,0.16.192.210.adsl.static.ttn.net,success,Taiwan,Taiwan,Taipei,25.0237,121.552,
9924,TFN,210.192.0.0/18,210.192.32.0,0.32.192.210.adsl.static.ttn.net,success,Taiwan,Taiwan,Taipei,25.0237,121.552,
9924,TFN,210.192.32.0/19,210.192.48.0,0.48.192.210.adsl.static.ttn.net,success,Taiwan,Taiwan,Taipei,25.0237,121.552,
9924,TFN,210.192.128.0/17,210.192.192.0,,success,Taiwan,Taiwan,Taipei,25.0237,121.552,
9924,TFN,210.192.128.0/19,210.192.144.0,210-192-144-1.adsl.ttn.net,success,Taiwan,Taiwan,Taipei,25.0237,121.552,
9924,TFN,210.192.160.0/19,210.192.176.0,,success,Taiwan,Taiwan,Taipei,25.0237,121.552,
9924,TFN,210.192.192.0/19,210.192.208.0,,success,Taiwan,Taiwan,Taipei,25.0237,121.552,
9924,TFN,210.192.224.0/19,210.192.240.0,,success,Taiwan,Taiwan,Taipei,25.0237,121.552,
9924,TFN,210.208.96.0/19,210.208.112.0,,success,Taiwan,Taoyuan,Zhongli District,24.9604,121.2392,
9924,TFN,210.208.192.0/18,210.208.224.0,,success,Taiwan,Taipei,New Taipei City,25.062,121.457,
9924,TFN,210.243.64.0/19,210.243.80.0,,success,Taiwan,Taiwan,Taipei,25.0501,121.565,
9924,TFN,210.243.96.0/19,210.243.112.0,210-243-112-0.tas.edu.tw,success,Taiwan,Taiwan,Taipei,25.0501,121.565,
9924,TFN,211.78.208.0/24,211.78.208.128,211-78-208-128.static.tfn.net.tw,success,Taiwan,Taiwan,Taipei,25.0446,121.561,
9924,TFN,211.78.208.0/20,211.78.216.0,,success,Taiwan,Taiwan,Neihu District,25.0689,121.591,
9924,TFN,211.78.208.0/22,211.78.210.0,,success,Taiwan,Taiwan,Taipei,25.0446,121.561,
9924,TFN,211.78.211.0/24,211.78.211.128,211-78-211-128.static.tfn.net.tw,success,Taiwan,Taiwan,Taipei,25.0446,121.561,
9924,TFN,211.78.212.0/23,211.78.213.0,,success,Taiwan,Taiwan,Taipei,25.0446,121.561,
9924,TFN,211.78.213.0/24,211.78.213.128,211-78-213-128.static.tfn.net.tw,success,Taiwan,Taiwan,Taipei,25.0446,121.561,
9924,TFN,211.78.214.0/24,211.78.214.128,211-78-214-128.static.tfn.net.tw,success,Taiwan,Taiwan,Neihu District,25.0689,121.591,
9924,TFN,211.78.216.0/24,211.78.216.128,211-78-216-128.static.tfn.net.tw,success,Taiwan,Taiwan,Neihu District,25.0689,121.591,
9924,TFN,211.78.217.0/24,211.78.217.128,211-78-217-128.static.tfn.net.tw,success,Taiwan,Taiwan,Neihu District,25.0689,121.591,
9924,TFN,211.78.218.0/24,211.78.218.128,211-78-218-128.static.tfn.net.tw,success,Taiwan,Taiwan,Neihu District,25.0689,121.591,
9924,TFN,211.78.219.0/24,211.78.219.128,211-78-219-128.static.tfn.net.tw,success,Taiwan,Taiwan,Neihu District,25.0689,121.591,
9924,TFN,211.78.222.0/24,211.78.222.128,211-78-222-128.static.tfn.net.tw,success,Taiwan,Taiwan,Neihu District,25.0689,121.591,
9924,TFN,211.79.0.0/19,211.79.16.0,,success,Taiwan,Taiwan,Neihu District,25.0689,121.591,
9924,TFN,219.80.0.0/15,219.81.0.0,,success,Taiwan,Taiwan,Taipei,25.0446,121.561,
9924,TFN,219.80.0.0/19,219.80.16.0,,success,Taiwan,Taoyuan,Taoyuan District,24.9889,121.3176,
9924,TFN,219.80.0.0/17,219.80.64.0,,success,Taiwan,Taoyuan,Taoyuan District,24.9889,121.3176,
9924,TFN,219.80.32.0/21,219.80.36.0,,success,Taiwan,Taoyuan,Taoyuan District,24.9889,121.3176,
9924,TFN,219.80.32.0/23,219.80.33.0,,success,Taiwan,Taoyuan,Taoyuan District,24.9889,121.3176,
9924,TFN,219.80.96.0/20,219.80.104.0,,success,Taiwan,Taoyuan,Taoyuan District,24.9889,121.3176,
9924,TFN,219.80.128.0/19,219.80.144.0,,success,Taiwan,Taoyuan,Taoyuan District,24.9889,121.3176,
9924,TFN,219.80.160.0/19,219.80.176.0,,success,Taiwan,Taoyuan,Taoyuan District,24.9889,121.3176,
9924,TFN,219.80.192.0/18,219.80.224.0,,success,Taiwan,Taoyuan,Taoyuan District,24.9889,121.3176,
9924,TFN,219.80.192.0/19,219.80.208.0,,success,Taiwan,Taoyuan,Taoyuan District,24.9889,121.3176,
9924,TFN,219.80.216.0/24,219.80.216.128,219-80-216-128.static.tfn.net.tw,success,Taiwan,Taoyuan,Taoyuan District,24.9889,121.3176,
9924,TFN,219.80.224.0/19,219.80.240.0,,success,Taiwan,Taoyuan,Taoyuan District,24.9889,121.3176,
9924,TFN,219.80.248.0/21,219.80.252.0,,success,Taiwan,Taoyuan,Taoyuan District,24.9889,121.3176,
9924,TFN,219.81.64.0/20,219.81.72.0,,success,Taiwan,Taipei,Yingge District,24.9493,121.337,
9924,TFN,219.81.64.0/18,219.81.96.0,,success,Taiwan,Taipei,Yingge District,24.9493,121.337,
9924,TFN,219.81.72.0/21,219.81.76.0,,success,Taiwan,Taipei,Yingge District,24.9493,121.337,
9924,TFN,219.81.80.0/21,219.81.84.0,,success,Taiwan,Taipei,Yingge District,24.9493,121.337,
9924,TFN,219.81.88.0/22,219.81.90.0,,success,Taiwan,Taipei,Yingge District,24.9493,121.337,
9924,TFN,219.81.88.0/23,219.81.89.0,,success,Taiwan,Taipei,Yingge District,24.9493,121.337,
9924,TFN,219.81.128.0/19,219.81.144.0,,success,Taiwan,Taiwan,Taipei,25.0446,121.561,
9924,TFN,219.81.160.0/19,219.81.176.0,,success,Taiwan,Taiwan,Taipei,25.0446,121.561,
9924,TFN,219.81.192.0/19,219.81.208.0,,success,Taiwan,Taiwan,Taipei,25.0446,121.561,
9924,TFN,219.81.224.0/19,219.81.240.0,,success,Taiwan,Taiwan,Taipei,25.0446,121.561,
9924,TFN,219.86.0.0/15,219.87.0.0,,success,Taiwan,Taipei City,Taipei,25.053,121.5259,
9924,TFN,219.86.0.0/17,219.86.64.0,219-86-64-0.dynamic.tfn.net.tw,success,Taiwan,Nantou,Nantou City,23.9082,120.6559,
9924,TFN,219.86.80.0/21,219.86.84.0,219-86-84-0.dynamic.tfn.net.tw,success,Taiwan,Nantou,Nantou City,23.9082,120.6559,
9924,TFN,219.86.88.0/23,219.86.89.0,219-86-89-0.dynamic.tfn.net.tw,success,Taiwan,Nantou,Nantou City,23.9082,120.6559,
9924,TFN,219.86.96.0/20,219.86.104.0,219-86-104-0.dynamic.tfn.net.tw,success,Taiwan,Nantou,Nantou City,23.9082,120.6559,
9924,TFN,219.86.128.0/17,219.86.192.0,219-86-192-0.dynamic.tfn.net.tw,success,Taiwan,Nantou,Nantou City,23.9082,120.6559,
9924,TFN,219.86.143.0/24,219.86.143.128,219-86-143-128.dynamic.tfn.net.tw,success,Taiwan,Nantou,Nantou City,23.9082,120.6559,
9924,TFN,219.86.255.0/24,219.86.255.128,219-86-255-128.dynamic.tfn.net.tw,success,Taiwan,Nantou,Nantou City,23.9082,120.6559,
9924,TFN,219.87.0.0/17,219.87.64.0,,success,Taiwan,Taipei City,Taipei,25.053,121.5259,
9924,TFN,219.87.5.0/24,219.87.5.128,219-87-5-128.static.tfn.net.tw,success,Taiwan,Taipei City,Taipei,25.053,121.5259,
9924,TFN,219.87.23.0/24,219.87.23.128,219-87-23-128.static.tfn.net.tw,success,Taiwan,Taipei City,Taipei,25.053,121.5259,
9924,TFN,219.87.82.0/24,219.87.82.128,219-87-82-128.static.tfn.net.tw,success,Taiwan,Taipei City,Taipei,25.053,121.5259,
9924,TFN,219.87.128.0/17,219.87.192.0,,success,Taiwan,Hsinchu City,Hsinchu,24.8065,120.9706,
9924,TFN,219.87.128.0/18,219.87.160.0,,success,Taiwan,Hsinchu City,Hsinchu,24.8065,120.9706,
9924,TFN,219.87.132.0/24,219.87.132.128,219-87-132-128.static.tfn.net.tw,success,Taiwan,Hsinchu City,Hsinchu,24.8065,120.9706,
9924,TFN,219.87.147.0/24,219.87.147.128,219-87-147-128.static.tfn.net.tw,success,Taiwan,Hsinchu City,Hsinchu,24.8065,120.9706,
9924,TFN,219.87.152.0/24,219.87.152.128,219-87-152-128.static.tfn.net.tw,success,Taiwan,Hsinchu City,Hsinchu,24.8065,120.9706,
9924,TFN,219.87.192.0/18,219.87.224.0,,success,Taiwan,Hsinchu City,Hsinchu,24.8065,120.9706,
9924,TFN,219.87.248.0/21,219.87.252.0,,success,Taiwan,Hsinchu City,Hsinchu,24.8065,120.9706,
9924,TFN,2001:c50::/32,2001:c50:8000::,,success,Taiwan,Taiwan,Taipei,25.033,121.565,
9924,TFN,2001:4540::/27,2001:4550::,,success,Taiwan,Taiwan,Xiatayou,25.0788,121.569,
9924,TFN,2001:4541:9000::/36,2001:4541:9800::,,success,Taiwan,Taiwan,Kanzijiao,25.0936,121.594,
9924,TFN,2001:4546:1001::/48,2001:4546:1001:8000::,,success,Taiwan,Taiwan,Kanzijiao,25.0936,121.594,
9924,TFN,2001:4546:1002::/48,2001:4546:1002:8000::,,success,Taiwan,Taiwan,Xiatayou,25.0788,121.569,
9924,TFN,2001:454c::/32,2001:454c:8000::,,success,Taiwan,Taiwan,Neihu District,25.0936,121.594,
9924,TFN,2001:454e::/32,2001:454e:8000::,,success,Taiwan,Taiwan,Neihu District,25.0936,121.594,
9924,TFN,2001:454e:aab0::/48,2001:454e:aab0:8000::,,success,Taiwan,Taiwan,Neihu District,25.0936,121.594,
9924,TFN,2001:454e:c010::/48,2001:454e:c010:8000::,,success,Taiwan,Taiwan,Neihu District,25.0936,121.594,
9924,TFN,2402:7500::/32,2402:7500:8000::,,success,Taiwan,Taiwan,Taipei,25.0237,121.552,
9924,TFN,2403:82c0::/32,2403:82c0:8000::,,success,Taiwan,Taipei,Tuniugou,24.9493,121.337,
